location_name,street_address,city,latitude,longitude
209 Hair Dezign,209 Jennifer Cir,Pleasant Gap,40.873245,-77.748776
5 Star Nutrition State College,335 Colonnade Blvd,State College,40.812169,-77.9075
814 Cider Works at J L Farm &amp Cidery,3392 Shingletown Rd,State College,40.751391,-77.855303
A & M Financial Services,3569 Circleville Rd,Port Matilda,40.810617,-77.939714
A Caring Touch Massage Therapy,1200 W College Ave,State College,40.784488,-77.874026
A Flower Basket,633 E Howard St,Bellefonte,40.917489,-77.767355
A Insurance Agency Nationwide Insurance,1352 E College Ave,State College,40.809746,-77.831822
A Journey to You,1107 W College Ave,State College,40.785327,-77.873735
A M Logging,116 Thompson Ln,Millheim,40.88886,-77.48819
A Step Beyond Massage Therapy,431 E Beaver Ave,State College,40.797533,-77.85517
AA Plumbing,561 Loveville Rd,Warriors Mark,40.750459,-78.049811
AAA,200 Shiloh Rd,State College,40.837432,-77.801896
AAMCO Transmissions,2146 E College Ave,Lemont,40.820584,-77.815458
Aaron T Roan DMD & Associates,2590 Park Center Blvd Ste 100,State College,40.767223,-77.882095
Aaron's,253 Benner Pike Ste C,State College,40.829344,-77.806359
Aaronsburg Reformed Cemetery,Pine Street And Cemetery Lane,Aaronsburg,40.902795,-77.453572
Aaronsburg Salem Lutheran Cemetery,Union Alley And Plum Street,Aaronsburg,40.902049,-77.450418
AAUW Used Book Sale,800 E Park Ave Pennsylvania State University,State College,40.814694,-77.854442
Abba's House Babyland And Daycare,200 Ellis Pl,State College,40.843276,-77.799677
Abc Children's Center,143 Brackenbourne Dr,Port Matilda,40.800456,-77.960667
Abc Children's Center,2201 University Dr,State College,40.775164,-77.848792
ABC Supply,121 N Harrison Rd,Pleasant Gap,40.873006,-77.737857
Above All Bail Bonds Bellefonte,102 S Allegheny St,Bellefonte,40.912177,-77.777364
Above All Bail Bonds Centre,700 Rishel Hill Rd,Bellefonte,40.878595,-77.775985
Absolute Auto Repairs and Sales,7980 S Eagle Valley Rd,Port Matilda,40.815974,-78.03569
Abundance Wealth Counselors,232 Regent Ct,State College,40.783896,-77.81996
Abundant Life Ministries Of Philipsburg Inc,102 Fairway Dr,Philipsburg,40.886531,-78.184837
Ace Hardware,422 N Centre St,Philipsburg,40.900125,-78.22322
Ace Hardware,150 Rolling Ridge Dr,State College,40.785724,-77.827341
Active Foot Care,315 S Allen St Ste 118,State College,40.792382,-77.858164
Adam Cole Salon,129 Moses Thompson Ln,State College,40.805648,-77.840045
Adams Elaine Beauty Shop,11 W Presqueisle St,Philipsburg,40.895523,-78.222814
Adolf H PHD,1950 Cliffside Dr,State College,40.789241,-77.829957
Adrian's Dog House,141 E College Ave,Pleasant Gap,40.86958,-77.74511
Adult Transitional Care,906 W College Ave,State College,40.7866,-77.871437
Advance Auto Parts,1602 N Atherton St,Park Forest Village,40.807126,-77.892431
Advance Auto Parts,497 Benner Pike,State College,40.83408,-77.804421
Advanced Chiropractic of State College,1760 S Atherton St,State College,40.784187,-77.834401
Advanced Dentistry Eddie Kotary DMD,2014 Sandy Dr,State College,40.785146,-77.902015
Advanced Eye Care Services,1470 Martin St,Park Forest Village,40.804041,-77.891214
Advanced Regional Center For Ankle & Foot Care,2590 Park Center Blvd Ste 200,State College,40.767315,-77.881792
Advanced Regional Center For Ankle & Foot Care,220 Regent Ct Ste F,State College,40.783989,-77.820633
Advent Associates,350 Carogin Dr,Park Forest Village,40.790126,-77.918946
Advent Associates,111 Sowers St,State College,40.798217,-77.855557
Advent Cemetery,1303 Moose Run Rd,Bellefonte,40.966166,-77.814149
Affinity Connection,2160 Sandy Dr,State College,40.783509,-77.903501
Aglow International,1644 E College Ave,Zion,40.908118,-77.682304
Agway,110 W Allison St,Centre Hall,40.839912,-77.679558
Aikens Cabins at Bear Meadows,400 Bear Meadows Rd,Boalsburg,40.768594,-77.757008
Airgas,606 E College Ave,Pleasant Gap,40.87971,-77.724005
Airport Road Soccer Fields,699 Weaver Hill Rd,Bellefonte,40.903488,-77.725448
Alamo Rent A Car,2493 Fox Hill Rd,State College,40.851275,-77.850742
Albrecht Audiology,233 Easterly Pkwy,State College,40.789484,-77.848389
Albright Bethune United Methodist Church,W Beaver Ave,State College,40.78812,-77.867115
All Nations Bible Translation Inc,150 All Nations Ln,State College,40.834121,-77.83284
All Pets Veterinary Clinic,2052 E College Ave,Lemont,40.81934,-77.816894
All Storage Solutions,1477 Rock Rd,Bellefonte,40.860303,-77.835382
Allegheny Orthotics Prosthetic,2505 Green Tech Dr Ste A2,State College,40.814097,-77.918023
Allegiant Air,2493 Fox Hill Rd,State College,40.850004,-77.848684
Allen Street Grill,100 W College Ave,State College,40.79414,-77.861626
Allenway,2600 Clyde Ave,State College,40.826987,-77.804611
Allenway Barber Shop,315 S Allen St Ste 119,State College,40.792359,-77.858048
Allergy And Asthma Specialist,253 Easterly Pkwy,State College,40.790216,-77.847898
Alley Cat Music,150 Kelly Aly,State College,40.793197,-77.861517
Allied Van Lines,3500 E College Ave,State College,40.835306,-77.791268
Allstate Insurance,1380 N Atherton St,Park Forest Village,40.804672,-77.886727
Allstate Insurance,2020 Cato Ave,State College,40.763495,-77.878771
Allstate Insurance,306 S Atherton St,State College,40.789265,-77.862047
Allstate Insurance,140 S Allegheny St,Bellefonte,40.91111,-77.777235
Allwheel Auto,1655 S Eagle Valley Rd,Julian,40.924033,-77.842031
Alpha Fire Company College Station,1481 E College Ave,State College,40.811532,-77.830869
Alpha Fire Company Patton Station,2598 Green Tech Dr,State College,40.812509,-77.920908
Always Beautiful Permanent Cosmetics,1243 E Park Hills Ave,Park Forest Village,40.796676,-77.895475
Amanda Fedisson Kissinger Bigatel and Brower Realtors,1612 N Atherton St,Park Forest Village,40.807393,-77.893319
Ambleside Park,161 Ambleside Court,Port Matilda,40.824382,-77.963125
American Ale House & Grill,821 Cricklewood Dr,Toftrees,40.831098,-77.886314
American Building Products,150 Debra Ln,Port Matilda,40.826468,-78.010346
American Eagle Outfitters,2900 East College Avenue Space 706,State College,40.833592,-77.800229
American Homepatient,2437 Commercial Blvd Ste 4,Houserville,40.826066,-77.810402
American Income Life,110 Regent Ct Ste 101,State College,40.784356,-77.822535
American Job Centers,240 Match Factory Pl,Bellefonte,40.908445,-77.782364
Ameriserv Financial,1857 N Atherton St,State College,40.809366,-77.903164
Amish Furniture Connection,2961 Benner Pike,Bellefonte,40.886743,-77.782044
Amtrak,4th & Alder Streets,Philipsburg,40.900764,-78.223122
Amtrak,152 N Atherton St,State College,40.79211,-77.867847
Amy Sanor Gavlock Ameriprise Financial Services,1450 Martin St,Park Forest Village,40.803854,-77.890801
Anderson Daniel J OD,1771 Circleville Rd,Park Forest Village,40.791866,-77.901238
Anderson Donald J DVM,1945 General Potter Hwy,Centre Hall,40.789026,-77.711728
Anesthesia Associates of Central PA,1019 Ghaner Rd Ste 100,Port Matilda,40.815693,-77.939402
Angelina's Invigorating Hour,250 1st Ave,Lemont,40.819449,-77.812338
Angelo's Pizzaria,603 Boal Ave,Boalsburg,40.776583,-77.784534
Animal Medical Hospital of State College,1500 N Atherton St,Park Forest Village,40.806264,-77.889878
Annette Yorks Perry Wellington Realty,170 Rolling Ridge Dr,State College,40.786056,-77.828035
Annie's Alterations & Sewing,109 Melanie Ln,Pleasant Gap,40.87074,-77.750837
Antique Building Solutions,3149 Nittany Valley Dr,Snydertown,40.981311,-77.586725
Antiques At Apple Hill,105 Gerald St,Houserville,40.827754,-77.809503
Antoine Danna Certified Massage Therapist,113 Spring St,Houserville,40.824092,-77.830562
Anytime Fitness,2351 Commercial Blvd,Houserville,40.824634,-77.812022
Appalachian Ski & Outdoors,123 S Allen St,State College,40.794081,-77.860424
Apple Fitness Equipment,2123 E College Ave Ste 102,Houserville,40.820736,-77.816448
Applebee's,12 Colonnade Way,State College,40.810189,-77.904809
April Detar DMD,2182 Sandy Dr Ste 102,State College,40.782014,-77.902035
Are U Hungry,111 Sowers St,State College,40.798229,-77.855525
Aris,270 Walker Dr Ste 300,State College,40.815301,-77.829885
Armstrong Insurance,1559 Halfmoon Valley Rd,Stormstown,40.800879,-78.002244
Artemis Massage Studio,111 Sowers St Ste 400,State College,40.798204,-77.855579
Artistic Horizon,219 S Patterson St,State College,40.786863,-77.867895
Artistry Hair & Body Salon,315 1/2 E Beaver Ave,State College,40.791553,-77.863473
Ascend Resort Collection,100 Cricklewood Dr,Toftrees,40.824236,-77.892099
Ashtabula Allegheny Wesleyan Methodist Church,141 Bell Hollow Ln,Port Matilda,40.774263,-78.102816
Askey Cemetery,Askey Road,Moshannon,41.034519,-77.993316
Aspen Dental,1715 N Atherton St,State College,40.808932,-77.899058
Assembly Of God Chi Alpha The Pennsylvania State University,2201 University Dr,State College,40.775168,-77.848813
AT&T,1725 N Atherton St,State College,40.808948,-77.899189
AT&T,012 Hub Robeson Center,State College,40.797552,-77.862182
AT&T,2901 E College Ave Ste 414,State College,40.832366,-77.801501
Atlas Therapy,3075 Enterprise Dr Ste 200,State College,40.765019,-77.880398
Atwater D F Dr,1375 N Allen St,State College,40.806073,-77.884859
Audi State College,127 Leisure Ln,State College,40.760468,-77.875703
Auntie Anne's,1665 N Atherton St,State College,40.809509,-77.898354
Auntie Anne's,324 E College Ave,State College,40.796978,-77.857783
Auntie Anne's,University Drive,State College,40.806798,-77.856894
Auto Dynamics,425 Musser Ln,Bellefonte,40.924936,-77.724018
Auto Glass Centre,25 Decibel Rd,State College,40.830828,-77.799675
AutoZone,2605 E College Ave,State College,40.828375,-77.807361
Autumnwood Park,2207 Autumnwood Dr,State College,40.764282,-77.888178
Avant Garden,242 E Calder Way,State College,40.795558,-77.858845
Avis Rent A Car,2493 Fox Hill Rd,State College,40.85147,-77.850737
Axemann Brewery,2042 Axemann Rd # 300,Bellefonte,40.90177,-77.777587
B & B Nails,269 Northland Ctr,Park Forest Village,40.803275,-77.887619
Baby's Burgers & Shakes,131 S Garner St,State College,40.797624,-77.856281
Back To Life Physical Therapy,434 W Aaron Dr Ste 104,Park Forest Village,40.804674,-77.894582
Badger and Hound Barber Club,105 S Pugh St,State College,40.795122,-77.859964
Bagel Crust,225 W Beaver Ave,State College,40.792141,-77.862267
Bagel Crust,332 E Calder Way,State College,40.796767,-77.857288
Bagel Crust,460 Westerly Pkwy,State College,40.783362,-77.8529
Baha'is of College Twp,124 Green Acres Ln,State College,40.815739,-77.825513
Bahais Of State College,127 Logan Ave,State College,40.787626,-77.852302
Bald Eagle Area Head Start,751 S Eagle Valley Rd,Bellefonte,40.937735,-77.811226
Bald Eagle Area Jshs,710 S Eagle Valley Rd,Wingate,40.937421,-77.810898
Bald Eagle Christian And Missionary Alliance Church,3550 S Mountain Rd,Tyrone,40.751358,-78.216806
Bald Eagle State Park,149 Main Park Rd,Howard,41.026911,-77.645318
Bald Eagle Valley Community Church,111 Runville Rd,Bellefonte,40.935957,-77.814475
Balfurd Cleaners,1223 N Atherton St,State College,40.803149,-77.882723
Balfurd Cleaners,215 S Atherton St,State College,40.790736,-77.863288
Baltimore Life Insurance,Tyrone Pike,Philipsburg,40.87632,-78.213691
Bar Bleu,114 S Garner St,State College,40.797657,-77.856751
Barnes and Noble,365 Benner Pike,State College,40.83141,-77.804962
Barrel 21 Distillery And Dining,2255 N Atherton St,State College,40.810449,-77.912507
Barry L Holden DMD,110 Regent Ct Ste 100,State College,40.784344,-77.822546
Barter Bradley Surgeon,101 Regent Ct,State College,40.785182,-77.823149
Bartlett Tree Experts,2101 Boal Ave,Centre Hall,40.839768,-77.683446
BaseTactics,1100 Benner Pike,State College,40.842687,-77.796366
Bassett Furniture,660 Pleasant View Blvd,Bellefonte,40.923013,-77.780271
Bastian Tire & Auto Centers,260 W Hamilton Ave,State College,40.786895,-77.856899
Bath & Body Works,2900 E College Ave,State College,40.833158,-77.801034
Battery Outlet,1230 E College Ave,State College,40.808207,-77.835168
BAYADA Adult Nursing,2123 E College Ave Ste 200,Houserville,40.820749,-77.816475
BAYADA Habilitation,60 Decibel Rd Ste 104,State College,40.829737,-77.799976
BAYADA Pediatrics,2123 E College Ave Ste 200,Houserville,40.821011,-77.816208
BB&T (Branch Banking and Trust),1705 N Atherton St,State College,40.808886,-77.898896
BB&T (Branch Banking and Trust),125 Southridge Plz,State College,40.784166,-77.830953
Beacon Building Products,350 Struble Rd,Lemont,40.824656,-77.80666
Beauty Markz by Cassidy,3208 Benner Pike,Bellefonte,40.893582,-77.785048
Beaver Mills Cemetery,Beaver Road,Philipsburg,40.889239,-78.039959
Beaver Stadium,1 Beaver Stadium,State College,40.809292,-77.854635
Bechdel Cemetery,West Main Extension,Blanchard,41.058265,-77.604616
Beck Psychotherapy,103 E Beaver Ave Ste 2,State College,40.793663,-77.860196
Beck's Frame & Alignment,124 Becks Ln,Howard,41.016608,-77.65425
Bed Bath & Beyond,313 Benner Pike,State College,40.830432,-77.808003
Beer Belly's Beverage,258 W Hamilton Ave,State College,40.787079,-77.856662
Beezer Heath Funeral Home & Cremation Services,719 E Spruce St,Philipsburg,40.901142,-78.218306
Beijing & Osaka,452 E College Ave,State College,40.798817,-77.855492
Belding & Mull,1878 Port Matilda Hwy,Philipsburg,40.894921,-78.19712
Belinda's Port Malinda's Hotel,201 E Plank Rd,Port Matilda,40.800264,-78.053867
Bell Hollow Dog Training,510 Orvis Beckwith Ln,Port Matilda,40.784135,-78.127187
Bellefonte Airport,Bellefonte Airport,Bellefonte,40.886506,-77.815195
Bellefonte Area Hs,830 E Bishop St,Bellefonte,40.912683,-77.762182
Bellefonte Area Ms,100 N School St,Bellefonte,40.91695,-77.763461
Bellefonte Bed and Breakfast,214 N Allegheny St,Bellefonte,40.913856,-77.778255
Bellefonte El Sch,100 W Linn St,Bellefonte,40.915305,-77.780475
Bellefonte Ems,369 Phoenix Ave,Bellefonte,40.908543,-77.782241
Bellefonte Family Dentistry,115 S School St,Bellefonte,40.914555,-77.762657
Bellefonte Farmers Market,160 Dunlap St &Amp; W Lamb St,Bellefonte,40.91398,-77.783312
Bellefonte Lanes,2767 Benner Pike,Bellefonte,40.881164,-77.780762
Bellefonte Medical Clinic PC,527 Willowbank St,Bellefonte,40.906743,-77.784213
Bellefonte Museum,133 N Allegheny St,Bellefonte,40.913031,-77.778571
Bellefonte Police Department Bellefonte Pennsylvania,236 W Lamb St,Bellefonte,40.914286,-77.781989
Benjamin's Catering,124 Chambers Aly,Boalsburg,40.774686,-77.793347
Benner Cemetery,Shiloh Road,Bellefonte,40.85257,-77.818248
Benner El Sch,490 Buffalo Run Rd,Bellefonte,40.89359,-77.810871
Benner Pike Chiropractic Clinic,2820 Benner Pike,Bellefonte,40.883243,-77.77966
Benner Pike Shops,387 Benner Pike,State College,40.832337,-77.807046
Bennett Family Center,123 Bennett Family Center,State College,40.802478,-77.854951
Berean Bible Fellowship Church,360 Race St,Unionville,40.906239,-77.872194
Bernel Road Park,2501 Bernel Rd,State College,40.846805,-77.875537
Best Buy,1650 N Atherton St,Park Forest Village,40.806785,-77.894725
Best Line Equipment,2031 General Potter Hwy,Centre Hall,40.791405,-77.704204
Best Line Powersports,2013 General Potter Hwy,Centre Hall,40.790928,-77.706048
Best Western,115 Premiere Dr,State College,40.838995,-77.801933
Beulah's Bar B Que,114 S Garner St,State College,40.797665,-77.856769
BeWell Associates,233 Easterly Pkwy Ste 104,State College,40.789462,-77.848381
Bi Lo Supply,1299 N Atherton St,State College,40.803703,-77.883728
Bierlein Automotive,129 Old Fort Rd,Spring Mills,40.79579,-77.625572
Bierly's H R Garage & Auto Salvage,585 N Pennsylvania Ave,Centre Hall,40.844128,-77.711061
Big Bite Wings and More,111 Sowers St,State College,40.798271,-77.8556
Big Bowl Noodle House,418 E College Ave,State College,40.798098,-77.856436
Big Lots Stores,503 Benner Pike,State College,40.834488,-77.804187
Big Spring Spirits,198 Match Factory Pl Bldg 10,Bellefonte,40.908746,-77.782467
Bigfoot Barns,6811 Brush Valley Rd Ste 1,Rebersburg,40.977322,-77.324748
Bill Pickle's Tap Room,106 S Allen St,State College,40.79406,-77.861453
BioLife Plasma Services,321 W Beaver Ave,State College,40.79128,-77.8637
Bistrozine,409 E Calder Way,State College,40.79786,-77.85613
Black Cat Belly Dance,346 Homan Ave,State College,40.787321,-77.84072
Black Moshannon State Park,4216 Beaver Rd,Philipsburg,40.91222,-78.056693
Black Oak Cemetery,Us Highway 322 And Iona Hollow Lane,Port Matilda,40.830585,-78.086503
Black Walnut Body Works,1620 Zion Rd,Bellefonte,40.915246,-77.733659
Blair Plastic Surgery,1952 Waddle Rd Ste 102,State College,40.815636,-77.899366
Blaise Alexander Chrysler Dodge Jeep Ram FIAT,1080 E College Ave,State College,40.806678,-77.83778
Blaise Alexander Hyundai Service,1703 W College Ave,State College,40.778678,-77.882584
BLAISE ALEXANDER MAZDA,1703 W College Ave,State College,40.778769,-77.882458
Blanchard Church of Christ Cemetery,Beach Street,Blanchard,41.068725,-77.597123
Blessed Kateri Church,3503 Penns Valley Rd,Spring Mills,40.847734,-77.618057
Blue Spring Park,230 Wagner St,Boalsburg,40.776851,-77.797152
Boalsburg Animal Wellness,128 Boal Ave,Boalsburg,40.777896,-77.791903
Boalsburg Car Company,334 Boal Ave,Boalsburg,40.776685,-77.788476
Boalsburg Cemetery,North Church Street And Old Boalsburg Road,Boalsburg,40.776115,-77.793763
Boalsburg Heritage Museum,304 East Main Street,Boalsburg,40.775971,-77.789005
Boats & Bikes at Bald Eagle State Park,182 Marina Rd,Howard,41.0295,-77.653406
Bobby Rahal Honda of State College,2796 W College Ave,State College,40.763831,-77.880582
Bobcat,140 Hawbaker Industrial Dr,State College,40.814079,-77.913888
Bombshell Salon,999 Tyrone Pike,Philipsburg,40.875291,-78.214942
Bonfatto's,401 W High St,Bellefonte,40.911851,-77.782108
Bonfatto's Italian Market and Corner Cafe,401 W High St,Bellefonte,40.911868,-77.782089
Boring Court Reporting,121 Charles St,Centre Hall,40.840172,-77.67522
Bosch Service,601 W College Ave,State College,40.790017,-77.867904
Botamer Financial,711 Kennard Rd,State College,40.781097,-77.807783
Boutselis Mary A PHD,315 S Allen St,State College,40.792411,-77.857774
Bower Hollow School,248 Bower Hollow Rd,Aaronsburg,40.882391,-77.420376
Boyer & Ritter,1600 University Dr,State College,40.78576,-77.838271
Braden Social Media,291 Governors Park Rd Ste B,Bellefonte,40.910961,-77.751264
Bradley Ennis DC,1526 N Atherton St Ste 200,Park Forest Village,40.806569,-77.89092
Bradley's Book Outlet,2901 E College Ave,State College,40.833138,-77.800868
Bradley's Cheesesteaks & Hoagies,1669 N Atherton St,State College,40.808457,-77.896625
Bradleys Cheesesteaks & Hoagies,119 S Pugh St,State College,40.795072,-77.859889
Brazilian Explosion,206 W College Ave,State College,40.793201,-77.862806
Brazilian Munchies,222 N Ridge St,Bellefonte,40.914613,-77.775616
Breon's,330 S Main St,Pleasant Gap,40.865236,-77.735168
Breons Heating and Air Conditioning,2610B Clyde Ave Ste A,State College,40.827046,-77.804557
Bressler Philip C PHD,320 Rolling Ridge Dr,State College,40.787136,-77.827952
Brewsky's Bottle Shop,222 W Beaver Ave,State College,40.79179,-77.861931
Brian K Stennett Sr Nationwide Insurance,117 N Allegheny St,Bellefonte,40.912478,-77.778331
Brian Rater Jacki Hunt of RE MAX Centre Realty,1375 Martin St,Park Forest Village,40.801865,-77.886205
Bricks 4 Kidz,2738 W College Ave,State College,40.765415,-77.88288
BrightStar Care,1969 Cato Ave,State College,40.763769,-77.878945
BrightStar Care Happy Valley,1402 S Atherton St Ste 210,State College,40.784388,-77.841003
Brink Barry R PHD,830 Fairway Rd,State College,40.796745,-77.879897
Bronze Tanning Company,319 E Beaver Ave,State College,40.796163,-77.857011
Brooks Auto Repair,4210 Nittany Valley Dr,Nittany,41.000069,-77.552923
Brookside Wesleyan Church,403 Bush Hollow Rd,Julian,40.923401,-77.867572
Brother's Pizza,221 N Front St,Philipsburg,40.897492,-78.224277
Brother's Pizza,101 E Plank Rd,Port Matilda,40.800651,-78.053318
Brother's Pizza,1950 Halfmoon Valley Rd,Stormstown,40.794214,-78.014441
Brother's Pizza,238 W Hamilton Ave,State College,40.787339,-77.856214
Brother's Pizza,783 S Eagle Valley Rd,Bellefonte,40.935123,-77.812475
Brother's Pizza of Howard,102 E Main St,Howard,41.015127,-77.66057
Brothers NY Style Pizzeria,102 N Allegheny St,Bellefonte,40.912454,-77.777886
Brothers Pizza,248 Nittany Valley Dr,Zion,40.919476,-77.675092
Brothers Pizza & Sub,Olive & 4 St,Snow Shoe,41.030809,-77.949563
Brothers Pizza and Pasta,253 Benner Pike,State College,40.829153,-77.806453
Brothers Pizza of Centre Hall,239 N Pennsylvania Ave,Centre Hall,40.847923,-77.687811
Brow Threading 17,103 S Pugh St,State College,40.795263,-77.860129
Brown Cemetery,Sunnyside Hollow Road And Ardery Hollow Road,Port Matilda,40.846889,-78.042977
Brown David J,1001 University Dr Ste 4,State College,40.79733,-77.84347
Brummert Family Chiropractic,3051 Enterprise Dr,State College,40.765473,-77.88089
Brungart Cemetery,Bush Valley Road And Krape Farm Lane,Rebersburg,40.970721,-77.344394
Brungo Family Dentistry,100 Oakwood Ave Ste 200,State College,40.815386,-77.896866
Brush Mountain Archery,455 Brush Mountain Rd,Spring Mills,40.888511,-77.558202
Brush Mountain Welding,124 East St,Madisonburg,40.926132,-77.515556
Bryce Jordan Center,127 Bryce Jordan Center 127 University Drive,State College,40.811477,-77.857079
Bryce Jordan Center,127 Bryce Jordan Ctr,University Park,40.808182,-77.855624
Budget Rent A Car,2493 Fox Hill Rd,State College,40.851255,-77.850822
Builders FirstSource,250 Runville Rd,Bellefonte,40.939065,-77.820617
Burger King,The Pennsylvania State University,State College,40.799185,-77.859782
Burger King,2501 E College Ave,Houserville,40.826942,-77.808876
Burger King,901 E Bishop St,Bellefonte,40.914435,-77.761756
Burkholder's Country Market,107 Market Dr,Spring Mills,40.88589,-77.492452
Burtch Faye A Lmt,293 Nimitz Ave,State College,40.788366,-77.843921
Bush Hollow Cemetery,Bush Hollow Road And Kauffman Lane,Julian,40.936536,-77.876855
Business Planning Service,120 Old Route 322,Spring Mills,40.763563,-77.614248
Butler Cemetery,Black Moshannon Road,North Philipsburg,40.902919,-78.208104
Butler Chiropractic,751 E Bishop St,Bellefonte,40.913602,-77.764973
Butler Machine Inc,236 S Potter St,Bellefonte,40.907966,-77.785674
C G Auto Repair,116 N Thomas St,Bellefonte,40.912367,-77.782644
C J Banks,2901 E College Ave Ste 814,State College,40.833379,-77.799597
C&j Auto Service,498 Meckley Rd,Pine Grove Mills,40.74269,-77.875677
C3 Sports,200 Ellis Pl,State College,40.843405,-77.799773
Cafe 210 West,210 W College Ave,State College,40.793159,-77.862875
Cafe Alina,421 E Calder Way,State College,40.797974,-77.855899
Cafe Wow,234 E College Ave Ste C,State College,40.795866,-77.859124
Cairn Crossing,104 Gas Light Cir,Lemont,40.81024,-77.820077
California Tanning Express,328 E Calder Way,State College,40.796716,-77.857356
Calvary Baptist,1250 University Dr,State College,40.792554,-77.840652
Calvary Baptist Church,201 Harvest Fields Dr,Boalsburg,40.77197,-77.771417
Calvary Bible Church,600 N Pennsylvania Ave,Centre Hall,40.84553,-77.713533
Calvary Church,150 Harvest Fields Dr,Boalsburg,40.773998,-77.772276
Calvary Midtown,130 W College Ave,State College,40.793568,-77.86206
Calvary Penns Valley,117 Penn St,Millheim,40.889687,-77.476149
Cameron Bakeries,109 N Front St,Philipsburg,40.896359,-78.223226
Campbell & Pine PC,110 S School St,Bellefonte,40.914825,-77.761992
Cancer Care Partnership,1800 E Park Ave,State College,40.819028,-77.843451
Canyon Pizza,219 E Beaver Ave,State College,40.794944,-77.858524
Canyon Wings,219 E Beaver Ave,State College,40.794939,-77.858531
Capperella Automotive,520 Old 220 Rd,Bellefonte,40.946261,-77.777927
Capperella Furniture,660 Pleasant View Blvd,Bellefonte,40.923016,-77.780268
CAR Centre,2903 Penns Valley Pike,Centre Hall,40.835487,-77.672267
Care For People,121 N Allegheny St,Bellefonte,40.912746,-77.778393
CareSite Pharmacy,132 Abigail Ln,Port Matilda,40.814587,-77.941847
Careworks Urgent Care,1630 N Atherton St,Park Forest Village,40.806868,-77.893786
Careworks Urgent Care,174 Buckaroo Ln,Bellefonte,40.913144,-77.738342
Carlin Fred H OD,428 Windmere Dr,State College,40.787452,-77.825456
Carnegie Dr Tot Lot,3164 Carnegie Dr,State College,40.811891,-77.929532
Carnegie Inn & Spa an Ascend Hotel Collection Member,100 Cricklewood Dr,Toftrees,40.824263,-77.892189
Carnicella & Associates,212 Kenlee Dr,Bellefonte,40.898597,-77.787778
Carousel Farm,Brush Valley Rd,State College,40.795107,-77.799029
Carpet One Floor & Home,2633 E College Ave,State College,40.828982,-77.806851
CARQUEST Auto Parts,2929 Stewart Dr Ste 201,State College,40.830517,-77.797767
CARQUEST Auto Parts,226 N Pennsylvania Ave,Centre Hall,40.847625,-77.686408
CARQUEST Auto Parts,236 E Main St,Millheim,40.895457,-77.466227
Cartridges Galore Video Games,233 Northland Ctr,Park Forest Village,40.802559,-77.88615
Carvers Deli & BBQ,1633 N Atherton St,State College,40.81036,-77.895044
Casanova Nostalga,329 Chestnut St,Munson,40.960092,-78.165434
Casteel Chiropractic,1411 N Atherton St,State College,40.805917,-77.887751
Casteel Mark B DC,109 N 3rd St,Philipsburg,40.902117,-78.226041
Catering With Style by Dan Rallis,171 Technology Dr Ste 800,Boalsburg,40.777448,-77.774409
Caterpillar,2955 Stewart Dr,State College,40.831744,-77.797743
Caterpillar,175 Progress Dr,Bellefonte,40.868465,-77.773296
Caterpillar,I 80 At Route 150n Exit 158,Howard,40.962505,-77.759624
Catholic Daughters Of The Americas,301 Rolling Ridge Dr Apt 420,State College,40.787149,-77.831071
Catholic Daughters Of The Americas,134 E Bishop St,Bellefonte,40.910929,-77.776077
Cawley Michael PHD,110 Regent Ct,State College,40.784345,-77.82254
CC Peppers,1625 N Atherton St,State College,40.81027,-77.894885
Cedar Heights Church Inc,611 University Dr Ste 1,State College,40.79913,-77.846702
Cellular One,Nittany Apartment S,State College,40.8034,-77.857479
Center Hall Potter Sewer Authority,2940 Penns Valley Pike,Centre Hall,40.83464,-77.668525
Center Line Lutheran Cemetery,Halfmoon Valley Road,Warriors Mark,40.748604,-78.077812
Central Counties Youth Center,148 Paradise Rd,Bellefonte,40.87847,-77.776263
Central Insurers Group,20 S Front St,Philipsburg,40.895182,-78.221765
Central Insurers Group,1360 N Atherton St,Park Forest Village,40.804326,-77.886193
Central Pa Institute Of Science & Techno,540 N Harrison Rd,Pleasant Gap,40.882246,-77.740866
Central Penn Vision Associates,233 N Front St Ste A,Philipsburg,40.897691,-78.22447
Central Penn Vision Associates,1363 N Atherton St,State College,40.804981,-77.886087
Central Pennsylvania Dance Workshop,101 S Fraser St,State College,40.793465,-77.862452
Central Pennsylvania Endodontics,240 S Burrowes St,State College,40.790778,-77.861651
Central Pennsylvania Institute Of Science And Technology,540 N Harrison Rd,Pleasant Gap,40.882253,-77.740755
Central Reservation,153 S Allen St,State College,40.79363,-77.860283
Centre Animal Hospital,1518 W College Ave,State College,40.780802,-77.878232
Centre Audiology Hearing Aids,252 Match Factory Pl,Bellefonte,40.908215,-77.782145
Centre Auto,130 Manor Rd,Centre Hall,40.842858,-77.676206
Centre Boot Company,380 Phoenix Ave,Bellefonte,40.908254,-77.782085
Centre Chiropractic,203 E Main St,Boalsburg,40.776203,-77.790795
Centre Community Hospital,1800 E Park Ave,State College,40.819077,-77.842744
Centre Cosmetic Dentistry,110 Radnor Rd,State College,40.785598,-77.821632
Centre County Cat Hospital,620 W Cherry Ln,State College,40.801479,-77.881045
Centre County Christian Academy,100 Hertzler Dr,Bellefonte,40.907172,-77.769235
Centre County Christian Academy,100 Hetzler Dr,Bellefonte,40.907465,-77.768893
Centre County Correctional Facility,700 Rishel Hill Rd,Bellefonte,40.878536,-77.776294
Centre County Library And Historical Museum,203 N Allegheny St,Bellefonte,40.913466,-77.778674
Centre County Medical Society,1800 E Park Ave,State College,40.819003,-77.843433
Centre County Memorial Park,1032 Brenner Pike,State College,40.837374,-77.798315
Centre County Mutual Fire Insurance Co P,3208 Benner Pike,Bellefonte,40.893564,-77.785033
Centre County Mutual Fire Insurance Co P of H,3555 Benner Pike,Bellefonte,40.895594,-77.787739
Centre County PAWS,1401 Trout Rd,State College,40.836558,-77.811726
Centre Crest,502 E Howard St,Bellefonte,40.915925,-77.76877
Centre Cycle Works,146 S Water St,Bellefonte,40.909875,-77.780884
Centre Dermatology,2505 Green Tech Dr,State College,40.814124,-77.918319
Centre Equine Practice,164 Tussey Sink Rd,State College,40.786033,-77.698841
Centre Eye Physicians and Surgeons,507 Locust Ln,State College,40.793971,-77.853546
Centre Foundation,2601 Gateway Dr Ste 175,State College,40.767444,-77.884548
Centre Furnace Mansion,1001 E College Ave,State College,40.806662,-77.842184
Centre Hall Area Branch Library,109 W Beryl St,Centre Hall,40.844513,-77.687577
Centre Hall Fire Company,207 N Pennsylvania Ave,Centre Hall,40.846531,-77.686406
Centre Hall Potter El Sch,211 N Hoffer Ave,Centre Hall,40.844907,-77.68788
Centre Hall School Age Child Care,211 N Hoffer Ave,Centre Hall,40.844934,-77.688278
Centre Herd Health Services,2780 Earlystown Rd,Centre Hall,40.830264,-77.680905
Centre Hill Presbyterian Cemetery,Old Fort Road And Airport Road,Spring Mills,40.818254,-77.646924
Centre Hills Country Club,153 Country Club Rd,State College,40.792765,-77.820364
Centre Home Care And Hospice,2437 Commercial Blvd Ste 6,Houserville,40.826068,-77.810373
CENTRE Human Services Planning Office,420 Holmes St,Bellefonte,40.906546,-77.782113
Centre Learning Community Charter School,2643 W College Ave,State College,40.764996,-77.884263
Centre Learning Community Cs,2643 W College Ave,State College,40.764962,-77.884239
Centre Medical & Surgical Assoc Surgery Lewiston,3901 S Atherton St,State College,40.782107,-77.801453
Centre Medical and Surgical Assoc,3901 S Atherton St,State College,40.78211,-77.801447
Centre Medical and Surgical Associates P C,3901 S Atherton St,State College,40.782105,-77.801448
Centre Pediatrics Associates PC,3901 S Atherton St Ste 5,State College,40.782005,-77.80154
Centre Pharmacy Service,724 S Atherton St,State College,40.785182,-77.857047
Centre Psychology Group,1993 Cato Ave,State College,40.764404,-77.878754
Centre Rv,1549 Zion Rd,Bellefonte,40.916021,-77.736148
Centre Soccer Association,211 Scholl St,Houserville,40.826398,-77.825147
Centre Volunteers In Medicine,2520 Green Tech Dr Ste D,State College,40.813001,-77.918529
CentrePeace,3047 Benner Pike,Bellefonte,40.888985,-77.783
Certified Auto,277 Smith Rd,Stormstown,40.768676,-78.034685
Chabad Of Penn State Inc,443 E Waring Ave,State College,40.795053,-77.847585
Chabad Of The Undergrads Inc,519 S Fraser St,State College,40.789385,-77.857334
Champs Downtown,139 S Allen St,State College,40.793899,-77.860372
Champs Sports Bar & Grill,1611 N Atherton St,State College,40.807958,-77.892919
Changing Times Hair Designs,333 S Allen St Ste 101,State College,40.792069,-77.857475
Charis Church,1300 Benner Pike Ste C,State College,40.843689,-77.794536
Chen's Mongolian Buffet,1880 S Atherton St,State College,40.784179,-77.830435
Cherry Lane Salon,611 W Cherry Ln,State College,40.801534,-77.881439
Chick 2,128 E College Ave,State College,40.79487,-77.8607
Chick-fil-A,1938 N Atherton St,Park Forest Village,40.808853,-77.90604
Chick-fil-A,Bo1oc Hub Robeson Center,State College,40.798266,-77.861427
Chick2,130 E College Ave,State College,40.794917,-77.86065
Chico's,19 Colonnade Way,State College,40.810326,-77.906457
Childbirth Education Association,418 Douglas Dr,Park Forest Village,40.807549,-77.916365
Childspace,331 W Fairmount Ave,State College,40.788363,-77.86017
Chipotle Mexican Grill,1850 N Atherton St,Park Forest Village,40.808589,-77.903763
Chipotle Mexican Grill,116 Heister St,State College,40.79684,-77.857109
Chiswick Nancy R PHD,315 S Allen St,State College,40.792463,-77.858026
Chocolates by Leopold,107 W Main St,Boalsburg,40.775871,-77.793059
Choice,1320 E College Ave,State College,40.808888,-77.832969
Chopstick Express,134 E College Ave,State College,40.794995,-77.860513
Chris Bickford RE MAX CENTRE REALTY,1375 Martin St,Park Forest Village,40.801847,-77.886199
Christ Community Church,200 Ellis Pl,State College,40.843545,-77.799563
Christ Community Church Of State College Inc,3588 Penns Valley Rd,Spring Mills,40.847826,-77.609329
Christ's United Methodist Church,1200 Allegheny St,Julian,40.862962,-77.939761
Christian & Missionary Alliance Church,Hemlock & C Sts,South Philipsburg,40.887917,-78.218571
Christian Brian D DMD,110 Regent Ct Ste 201,State College,40.784025,-77.819473
Christina Monzillo RE MAX CENTRE REALTY,1375 Martin St,Park Forest Village,40.801874,-77.886234
Christopher & Banks,2900 East College Avenue #326,State College,40.83335,-77.79962
Chrome,222 W Beaver Ave,State College,40.791927,-77.862104
Chronic Town,224 W College Ave,State College,40.792752,-77.863117
Chumley's,108 W College Ave,State College,40.794044,-77.861698
Church of Christ First,1437 Tyrone Pike,Philipsburg,40.862581,-78.217258
Church Of God,409 E Presqueisle St,Philipsburg,40.896825,-78.219219
Ciara Halloran RE MAX CENTRE REALTY,1375 Martin St,Park Forest Village,40.801893,-77.886235
Cinnabon,324 E College Ave,State College,40.796947,-77.857771
Circleville Park,3225 Circleville Road And 200 Little Lion Dr,State College,40.800246,-77.926128
Circulatory Centers,313 Logan Ave,State College,40.785211,-77.855074
CITGO,125 Old Fort Rd,Spring Mills,40.795387,-77.62553
Citifinancial Services,1341 S Atherton St Ste 2,State College,40.78504,-77.842588
Citizens Bank,1826 N Atherton St,Park Forest Village,40.808502,-77.902846
Citizens Bank,214 E College Ave,State College,40.795391,-77.85969
Citizens Bank,1248 S Atherton St,State College,40.784017,-77.846639
Ciuchta Thomas J DDS,188 W College Ave,Pleasant Gap,40.86531,-77.749776
Clair Gerald F Physician,903 Trout Rd,Houserville,40.833203,-77.817142
Claire's,2901 E College Ave,State College,40.833194,-77.800215
Clarence Archery,102 E Olive St,Snow Shoe,41.029582,-77.947807
Clear Concepts Counseling,1082 Zion Rd,Bellefonte,40.914582,-77.756101
ClearView Eye Consultants,428 Windmere Dr,State College,40.787429,-77.825443
Cleveland Brothers,1025 N Eagle Valley Rd,Howard,40.961687,-77.759365
Cleveland Brothers Bellefonte,175 Progress Dr,Bellefonte,40.868398,-77.773083
Cloud 9 Therapeutic Massage Studio,101 W Linn St,Bellefonte,40.915909,-77.779673
Cmt Laboratories,2701 Carolean Industrial Dr,State College,40.827326,-77.800873
Co2 Boutique,104 N Allegheny St,Bellefonte,40.912534,-77.777821
Coffee Lounge,5 N Front St,Philipsburg,40.895512,-78.221887
Cold Stone Creamery,321 E Beaver Ave,State College,40.796222,-77.856925
Cold Stream Park,1478 Port Matilda Hwy,Philipsburg,40.893271,-78.203937
Coleville Wesleyan Church,140 Upper Coleville Rd,Bellefonte,40.911117,-77.794146
College Buffet,1631 N Atherton St,State College,40.810252,-77.895
College Township Water Authority,1481 E College Ave,State College,40.811601,-77.830778
Collegiate Pride,3019 Enterprise Dr,State College,40.766079,-77.881379
Collins Douglas E Dr,432 Rolling Ridge Dr Ste 2,State College,40.785133,-77.825885
Colonnade At State College The,Lowes Boulevard & North Atherton Street,State College,40.81321,-77.907102
Columbus Chapel And Boal Mansion Museum,163 Boal Estate Dr,Boalsburg,40.779058,-77.799303
Combined Insurance,2330 Commercial Blvd Ste 300,Houserville,40.825318,-77.813044
Comfort Keepers,270 Walker Dr Ste 102W,State College,40.815284,-77.829897
Comfort Keepers Home Care,915 Benner Pike,State College,40.838647,-77.799746
Comfort Suites,132 Village Dr,State College,40.803397,-77.879613
Comic Swap,110 S Fraser St,State College,40.793306,-77.862665
Community Acupuncture Centre,233 Easterly Pkwy Ste 105,State College,40.789457,-77.848377
Compassionate Care Consultants,119 S Burrowes St Ste 606,State College,40.792467,-77.863092
Confer Joel Body Shop,246 E Clinton Ave,State College,40.805027,-77.880857
Confer's Jewelers,100 N Allegheny St,Bellefonte,40.91242,-77.777776
Conklin's Corner Antique Mall,670 N Front St,Philipsburg,40.901029,-78.226282
Conklin's Corner Barn,670 Tyrone Pike,Philipsburg,40.884709,-78.211573
Conklin's Gun Shop,106 Market St,Karthaus,40.942106,-77.784914
Connecting Point,135 S Allen St,State College,40.793904,-77.860412
Connections Clothing,130 S Allen St,State College,40.793566,-77.861199
Converge,2182 Sandy Dr Ste 101,State College,40.782073,-77.902199
Cool Beans Coffee & Tea,141 W High St,Bellefonte,40.911913,-77.779418
Copper Beech State College,145 Northbrook Ln Apt 101,Park Forest Village,40.805849,-77.902215
Corl Street El Sch,235 Corl St,State College,40.78297,-77.872141
Corl Street Elementary Sacc,235 S Corl St,State College,40.782825,-77.872615
Corneal John M Dr,1200 W College Ave,State College,40.784494,-77.874039
Corning Federal Credit Union,1050 Benner Pike Ste 1,State College,40.840283,-77.796844
CosmoProf,168 Rolling Ridge Dr,State College,40.78617,-77.828348
Counseling Ministry,300 E College Ave,State College,40.796494,-77.85813
Country Christian Pre School,2090 Halfmoon Valley Rd,Stormstown,40.791686,-78.018687
Country Hairitage Designs & Day Spa,1322 Charles St,State College,40.800113,-77.82834
Country Inn & Suites By Radisson,1357 E College Ave,State College,40.810941,-77.83281
Country Place Park,100 Honeysuckle Dr,Boalsburg,40.775966,-77.781328
Country Ray Saunas,166 Rockville Rd,Rebersburg,40.946389,-77.462855
Countryside Dental,2837 Earlystown Rd,Centre Hall,40.833421,-77.67782
Countryside Land and Cattle,1300 Halfmoon Valley Rd,Stormstown,40.807308,-77.997362
County National Bank,117 E Presqueisle St,Philipsburg,40.896109,-78.221839
Countywide Auto Specialists,2640 W Pine Grove Rd,Ramblewood,40.711066,-77.963051
Courter Financial Services,478 Jacksonville Rd,Bellefonte,40.926262,-77.753203
Courtyard by Marriott,1730 University Dr,State College,40.78446,-77.837403
Covey S Candace OD,113 S Spring St Ste 1,Bellefonte,40.911141,-77.779751
Cozy Thai Bistro,232 S Allen St,State College,40.792675,-77.859576
Cpvets,1522 Martin St,Park Forest Village,40.804518,-77.892436
Cracker Barrel,215 Colonnade Blvd,State College,40.816499,-77.900586
Crazy Boil,1617 N Atherton St,State College,40.809489,-77.895048
Creative Balance Massage & Bodywork,13 W Presqueisle St,Philipsburg,40.895528,-78.222794
Creative Kuts by Leslie,675 Pleasant View Blvd,Bellefonte,40.92346,-77.780748
Creekside Plaza,1700 S Atherton St # 1766,State College,40.784594,-77.834593
Creekside Rock & Gems,110 N Allegheny St,Bellefonte,40.912736,-77.777744
Crescent Baths & Kitchens,2610 Carolean Industrial Dr,State College,40.825281,-77.802825
Cricket Wireless,1619 N Atherton St,State College,40.810093,-77.894651
CrossFit,127 Sowers St,State College,40.797884,-77.855044
CrossFit LionHeart,412 W College Ave,State College,40.791374,-77.865331
CrossFit Nittany,143 Hawbaker Industrial Dr Ste 101,State College,40.814026,-77.915939
Crows Nest Arts,2518 Sleepy Hollow Dr,State College,40.783209,-77.916487
CSL Plasma,265 Northland Ctr,Park Forest Village,40.803121,-77.887536
Culbertson Financial Services,105 W Main St,Boalsburg,40.775864,-77.793134
Curtin United Methodist Church,305 Curtin Village Rd,Howard,40.970433,-77.739569
Custom Creations,2610 Clyde Ave,State College,40.827035,-77.804531
Custom Shoe Repair,210 S Allen St,State College,40.793103,-77.860239
Cutting Edge,2330 Commercial Blvd Ste 100,Houserville,40.825424,-77.812871
CVS,315 Colonnade Blvd,State College,40.813426,-77.906898
CVS,1101 N Atherton St,State College,40.801658,-77.879504
CVS,201 W Beaver Ave,State College,40.79262,-77.862008
CVS,116 W College Ave,State College,40.793931,-77.861784
CVS,1630 S Atherton St,State College,40.784666,-77.835879
CVS,127 S Potter St,Bellefonte,40.910663,-77.782562
D & D Auto,334 Boal Ave,Boalsburg,40.776681,-77.788455
D & D Auto Sales,Main St,Haines,40.775894,-77.790669
D J Studios,15 W Presqueisle St,Philipsburg,40.895285,-78.222562
D L Automotive,2440 Commercial Blvd,Houserville,40.826846,-77.810894
D P Dough,1460 Martin St,Park Forest Village,40.803955,-77.890974
D P Dough,401 E Beaver Ave,State College,40.797046,-77.855814
D Stress Station,111 Boal Ave,Boalsburg,40.778575,-77.792609
Dahlgren Spewock Funeral Home Inc,228 N Centre St,Philipsburg,40.898769,-78.222107
Dairy Queen,310 W Aaron Dr,Park Forest Village,40.806052,-77.892145
Dale Cemetery,Whitehill Street,Boalsburg,40.807035,-77.81372
Dalevue Park,413 Goldfinch Dr,State College,40.797459,-77.82526
Dance Harmony Dj Services,220 N Main St,Pleasant Gap,40.86901,-77.75196
Daniel Olivero MD Olivero Medical Health Center,1243 Skytop Mountain Rd Ste 4,Port Matilda,40.83501,-77.973757
Daughenbaugh Funeral Home,106 W Sycamore St,Snow Shoe,41.027917,-77.952412
Daulby & Sons Painting & Drywall,Main St,Coburn,40.863216,-77.461732
David Neese Garage,647 Lingle Valley Rd,Spring Mills,40.844873,-77.521005
David R Curtis DMD,2601 Gateway Dr Ste 200,State College,40.76742,-77.884356
David Schimmel DMD MAGD,2013 Sandy Dr Ste 100,State College,40.785965,-77.902569
David Whiteman Ameriprise Financial Advisor,2134 Sandy Dr Ste 8,State College,40.784211,-77.903836
Davis Chiropractic,2134 Sandy Dr Ste 9,State College,40.784223,-77.903964
Davis Chiropractic,111 Boal Ave,Boalsburg,40.778603,-77.792612
DaVita,500 Science Park Rd Ste 2,State College,40.780394,-77.89958
Dawson Michael K DDS,2760 Earlystown Rd,Centre Hall,40.829126,-77.682498
Daybridge Child Development Center Penn,301 Innovation Blvd,State College,40.829926,-77.846125
Days Inn,240 S Pugh St,State College,40.793491,-77.858389
DeArmit Well Drilling and Pump Service,3221 W Pine Grove Rd,Baileyville,40.705195,-77.980258
Deep U Meditation,220A S Allen St Ste A,State College,40.793002,-77.860018
DELANEY NISSAN OF STATE COLLEGE,3280 W College Ave,State College,40.758833,-77.875952
Delectable Delights by Heather,332 N Pennsylvania Ave,Centre Hall,40.849378,-77.689995
Dept of Plant Pathology and Environmental Microbiology PennState,211 Buckhout Lab,State College,40.799811,-77.862929
Derrill C Finch DDS,1315 S Allen St,State College,40.783951,-77.847591
Design Hair Studio,Port Matilda Hwy,Philipsburg,40.895627,-78.19884
Designer's Denn Salon & Spa,212 E Calder Way,State College,40.795163,-77.859437
Detar April A DMD,2182 Sandy Dr Ste 102,State College,40.782022,-77.902049
DHL,1341 S Atherton St,State College,40.785041,-77.842768
Diamond Auto Glass,2218 N Atherton St,Park Forest Village,40.809597,-77.912267
Diamond Auto Glass,2901 Stewart Dr # 4A,State College,40.829971,-77.79855
Diamond Deli,103 N Allegheny St,Bellefonte,40.912275,-77.778148
Diamond J Charters Sport Fishing,2285 Fairfield Cir,State College,40.76361,-77.889729
Dick's Auto Repair,1680 W College Ave,State College,40.778871,-77.880548
"Dick's Homecare, Inc.",1300 Benner Pike,State College,40.843533,-77.794806
Dick's Run Advent Church Cemetery,Hickory Lane And Dix Run Road,Julian,40.90858,-77.937414
Dick's Sporting Goods,325 Colonnade Blvd,State College,40.812495,-77.907381
Diehl Health Solutions,1315 W College Ave Ste 200,State College,40.783762,-77.875922
Digman Canine Academy,241 First Ave,Lemont,40.819535,-77.811511
Dino's Pizza Teria,2901 Nittany Mall,State College,40.833467,-77.799324
Diocese Of The Resurrection,200 N 2nd St Apt 2,Philipsburg,40.897684,-78.222626
Discovery Day Care Center,870 Stratford Dr,State College,40.770882,-77.861649
District Court 49 3 04,2795 Earlystown Rd,Centre Hall,40.831074,-77.681287
Diva's Bling Boutique,128 N Front St,Philipsburg,40.896882,-78.223025
Dixon's Auto Body,S Center St,South Philipsburg,40.892059,-78.217019
DJ Studios Karate,15 W Presqueisle St,Philipsburg,40.895284,-78.222561
Doan's Bones Barbecue,401 W Beaver Ave,State College,40.790843,-77.864159
Dobson's Garage,632 Axemann Rd,Pleasant Gap,40.873775,-77.760351
Dog Valley Grooming,485 E College Ave,Pleasant Gap,40.876165,-77.731583
Doggie's Pub,108 S Pugh St,State College,40.795076,-77.860389
Dolce Vita Desserts,2490 Commercial Blvd,Houserville,40.827287,-77.810316
Dollar General,644 E Sycamore Rd,Snow Shoe,41.027319,-77.925811
Dollar General,517 Dell St,Bellefonte,40.945605,-77.794845
Dollar General,141 S Spring St,Bellefonte,40.910404,-77.779705
Dollar General,206 Cobblestone Rd,Zion,40.915094,-77.678325
Dollar General,421 S Pennsylvania Ave,Centre Hall,40.83851,-77.678184
Dollar Tree,1657 N Atherton St,State College,40.810793,-77.895758
Dollar Tree,329 Benner Pike,State College,40.831112,-77.809136
Domani Wealth,1423 N Atherton St,State College,40.806291,-77.888293
Domino's Pizza,1100 N Atherton St,State College,40.801242,-77.880527
Domino's Pizza,540 Westerly Pkwy,State College,40.781759,-77.85314
Domino's Pizza,114 E High St,Bellefonte,40.911867,-77.777222
Don's Auto Service,1086 Zion Rd,Bellefonte,40.914523,-77.755628
Donald Marks Family Dentistry,611 University Dr,State College,40.79914,-77.846671
DoodyPro,1013 Green St,Bellefonte,40.902806,-77.793382
Dormition of the Mother of God Byzantine Cemetery,Saint Marys Road,Clarence,41.056531,-77.940354
Dosa Express,128 Locust Ln,State College,40.795927,-77.858005
Doty & Hench,100 Radnor Rd,State College,40.785056,-77.821917
Douty Chalfa Automotive,3111 Benner Pike,Bellefonte,40.890701,-77.784038
Down Under Steak House,1 Country Club Ln,State College,40.824466,-77.900297
Downtown State College Farmers Market,Locust Lane At College Ave,State College,40.798196,-77.859926
Dr Joshua M Figlin,673 Pike St,Lemont,40.812902,-77.818978
Dragonfly Therapeutic Massage,1526 N Atherton St Ste 200,Park Forest Village,40.806535,-77.890922
Drayer Physical Therapy Institute,103 W Maple St,Philipsburg,40.894123,-78.222809
Drayer Physical Therapy Institute,1019 Ghaner Rd Ste 200,Port Matilda,40.815583,-77.939517
Drayer Physical Therapy Institute,1680 Zion Rd,Bellefonte,40.915426,-77.732231
Dream Stones,2440 Earlystown Rd Ste 300,Centre Hall,40.813367,-77.704797
Duck Donuts,125 S Fraser St,State College,40.793357,-77.861871
Duck Donuts,250 University Dr.,State College,40.806577,-77.857013
Duffy's Tavern,113 E Main St,Boalsburg,40.775913,-77.792305
Dunham's Sports,2901 E College Ave,State College,40.83252,-77.800436
Dunkin',1430 N Atherton St,Park Forest Village,40.805494,-77.888294
Dunkin',3180 W College Ave,State College,40.760792,-77.878003
Dunkin',200 W College Ave,State College,40.793416,-77.862731
Dunkin',1311 S Atherton St,State College,40.784805,-77.843809
Dunkin',1381 E College Ave,State College,40.810471,-77.83191
Dunkin',2825 Benner Pike,Bellefonte,40.88305,-77.780831
Dunlap's Auto Sales,Rr 1,South Philipsburg,40.88769,-78.219955
Dutch Valley Bakery,Rr 45,Millheim,40.88164,-77.515706
Dutt Robin M OD,208 S Allen St,State College,40.793252,-77.860284
E P Welding,225 School House Dr,Howard,40.994156,-77.632722
Eagle Cemetery,Eagle Cemetery Road,Howard,40.966316,-77.73817
Eagle Towing & Recovery,1049 Runville Rd,Bellefonte,40.96086,-77.837999
Earlystown Diner,2770 Earlystown Rd,Centre Hall,40.829613,-77.68186
Earth and Mineral Science Museum & Art Gallery,116 Deike Bldg,State College,40.794203,-77.865381
Earth And Mineral Sciences Museum And Gallery,201 Old Main,State College,40.795358,-77.861359
East Asian Market,215 Blue Course Dr Ste A,State College,40.802941,-77.884295
East Coast Health & Fitness,250 W Hamilton Ave,State College,40.787147,-77.856455
East European Market,2110 N Atherton St,Park Forest Village,40.809378,-77.910763
East Fairmount Park,518 E Fairmount Ave,State College,40.797487,-77.850665
Easter Seals Child Development Center,383 Rolling Ridge Dr,State College,40.787483,-77.826189
Easterly Parkway El Sch,234 Easterly Pkwy,State College,40.788639,-77.8471
Easterly Parkway School Age Child Care,234 Easterly Pkwy,State College,40.788787,-77.847167
Eckenroth Michael L Painting,305 N High St,Port Matilda,40.801008,-78.056107
Econo Lodge,3482 Benner Pike,Bellefonte,40.894147,-77.784978
Eddie's Bicycles & Hockey Equipment,480 E College Ave,State College,40.799272,-77.854951
Eden Reformed Cemetery,Orviston Mountain Road,Howard,41.057236,-77.690416
Edible Arrangements,337 Benner Pike,State College,40.831461,-77.8094
Edward Jones,271 Northland Ctr,Park Forest Village,40.803278,-77.887566
Edward Jones,611 University Dr Ste 113,State College,40.79892,-77.846686
Edward Jones,123 Rolling Ridge Dr,State College,40.786064,-77.82961
Edward Jones,125 N Allegheny St,Bellefonte,40.912939,-77.778397
Edwards Chiropractic,2766 W College Ave Ste 200,State College,40.764699,-77.882148
Elaine Sanders RE MAX CENTRE REALTY,1375 Martin St,Park Forest Village,40.801835,-77.886146
Elaine's On Main Street,200 E Main St,Boalsburg,40.775905,-77.790656
Elk Creek Cafe Aleworks,100 W Main St,Millheim,40.891053,-77.476946
Elk Creek School,142 Elk Creek Rd,Madisonburg,40.934655,-77.447563
Elk Spring,136 S Pennsylvania Ave,Centre Hall,40.843359,-77.681747
Elmcroft of State College,150 Farmstead Ln,Park Forest Village,40.790081,-77.906104
Elmcroft Senior Living,150 Farmstead Ln,Park Forest Village,40.790083,-77.906076
Elmwood Media Group,1243 Skytop Mountain Rd,Port Matilda,40.834932,-77.973977
Emanuel Union Cemetery,Tusseyville Road,Centre Hall,40.798401,-77.677762
Emmanuel Lutheran Church,206 S Burrowes St,State College,40.791421,-77.862516
Empire Beauty School,206 W Hamilton Ave,State College,40.787577,-77.855848
Encompass Health,550 W College Ave,Pleasant Gap,40.860254,-77.755789
Encompass Health Rehabilitation Hospital of Nittany Valley,550 W College Ave,Pleasant Gap,40.860243,-77.755789
End Zone,100 Lion Ln,Port Matilda,40.827024,-77.999992
End Zone Show Club,100 Lion Ln,Port Matilda,40.827035,-77.99999
Endara Marcelo Dr,1285 Haymaker Rd,State College,40.796551,-77.823547
Energy Rehab Wellness and Training,785 E Mountain Rd,Port Matilda,40.839805,-78.082374
English Painting,115 Laurel Hill Dr,Philipsburg,40.901886,-78.133391
Enterprise Rent-A-Car,215 Blue Course Dr Unit B,State College,40.802977,-77.884259
Enterprise Rent-A-Car,2493 Fox Hill Rd,State College,40.851256,-77.850802
Equinox Cafe,100 W Main St,Millheim,40.891143,-77.476988
Erhard Memorial Church Christian And Missionary Alliance,336 Walnut St,South Philipsburg,40.887094,-78.217712
Erin Carey Florals,221 W High St Loft 100,Bellefonte,40.911359,-77.7803
Escape Artists Centre County,2290 E College Ave,Lemont,40.823057,-77.811999
Escape Room,210 E Calder Way,State College,40.79512,-77.859355
ESSpa at The Carnegie Inn and Spa,100 Cricklewood Dr,Toftrees,40.824278,-77.892041
Ethereal,216 E College Ave,State College,40.795523,-77.859883
Eugene Fasick Memorial Park,Section 1 202 Willowbrook Dr; Section 2 110 Fasick,Boalsburg,40.781671,-77.764966
Evolve Studio,326 W Beaver Ave,State College,40.791077,-77.863256
Express Employment Professionals,135 Rolling Ridge Dr,State College,40.786288,-77.829576
Exscape Smoke Shop and Vapor Lounge,121 E Beaver Ave,State College,40.793894,-77.859961
Extreme Custom Cycles,475 E College Ave,Pleasant Gap,40.876149,-77.731717
Exxon Mobil,1473 Port Matilda Hwy,Philipsburg,40.900263,-78.20938
Exxon Mobil,5140 W Buffalo Run Rd,Port Matilda,40.828181,-77.96286
Exxon Mobil,315 W Aaron Dr,Park Forest Village,40.806625,-77.892822
Exxon Mobil,3180 W College Ave,State College,40.760591,-77.877729
Exxon Mobil,803 N Atherton St,State College,40.798739,-77.875161
Exxon Mobil,815 S Allen St,State College,40.789234,-77.852289
Exxon Mobil,1381 E College Ave,State College,40.810634,-77.831646
Exxon Mobil,300 Willowbank St,Bellefonte,40.907789,-77.781634
EZ Adult Playtime Boutique,101 Lion Ln,Port Matilda,40.827168,-77.999484
F45 State College,232 E College Ave,State College,40.795837,-77.859393
Faccia Luna Pizzeria,1229 S Atherton St,State College,40.784813,-77.847378
Fahracres Kennels,868 Ulrich Rd,Julian,40.892406,-77.952708
Fairbrook First Steps Christain Pre School,4201 W Whitehall Rd,Ramblewood,40.7295,-77.933958
Fairbrook United Methodist Church,4201 W Whitehall Rd,Ramblewood,40.729606,-77.934033
Fairfield Inn & Suites by Marriott,2215 N Atherton St,State College,40.810737,-77.911464
Fairview Cemetery,Fairview Road And Bullitt Run Road,Howard,41.013942,-77.767176
Fairview Cemetery,State Highway 45 And Legion Lane,Millheim,40.887571,-77.486373
Fairways At Brookline,1950 Cliffside Dr,State College,40.789789,-77.82946
Faith Alive Fellowship,Rr 2,Spring Mills,40.853413,-77.567478
Faith Alive Fellowship,4394 Penns Valley Rd,Spring Mills,40.87141,-77.540538
Faith Baptist Church,Liberty St,Blanchard,41.064781,-77.599318
Faith Chapel United Methodist Church,551 Hunter Run Rd,Howard,41.05582,-77.643526
Faith United Church of Christ,300 E College Ave,State College,40.796506,-77.858168
Faith United Methodist Church,512 Hughes St,Bellefonte,40.910433,-77.763308
Faithcenter,110 W High St,Bellefonte,40.911662,-77.778257
Family Care Home Health Agency,221 W High St Ste 300,Bellefonte,40.911358,-77.780292
Family Clothes Line,352 E College Ave,State College,40.797478,-77.856998
Family Foot Center,1318 W College Ave,State College,40.782849,-77.875431
Family Life of Penns Valley,3596 Penns Valley Rd,Spring Mills,40.84813,-77.608909
Family Recovery Solutions Port Matilda,1243 Skytop Mountain Rd Ste 2,Port Matilda,40.83494,-77.974007
Famous Ernie's Steaks,111 E Beaver Ave,State College,40.793799,-77.860091
Far Corners Asian Market,1012 W College Ave,State College,40.785363,-77.872699
Far Corners Oriental Market,1101 N Atherton St Ste B,State College,40.80176,-77.879547
Farmers Insurance Group,301 S Allen St Ste 104,State College,40.792422,-77.858272
Fasta & Ravioli,157 W College Ave,Pleasant Gap,40.866715,-77.748853
Fastenal,2601 E College Ave Ste B,State College,40.828043,-77.807896
Feathered Hook,516 Main St,Coburn,40.863137,-77.462751
Federal Taphouse,130 S Fraser St,State College,40.792771,-77.86215
FedEx,101 N Atherton St,State College,40.792051,-77.865389
FedEx,2175 Fox Hill Rd,State College,40.849137,-77.854639
Ferguson Township Police Department State College Pennsylvania,3147 Research Dr,State College,40.76223,-77.874745
Fetterolf's Barber Shop,234 E College Ave Ste B,State College,40.795998,-77.85928
Fiddlehead,134 W College Ave,State College,40.793587,-77.862492
Figlin Joshua M Dr,673 Pike St,Lemont,40.812927,-77.818968
Finance of America Mortgage,2330 Commercial Blvd Ste 500,Houserville,40.825317,-77.813034
Financial Abundance,2134 Sandy Dr Ste 1,State College,40.78436,-77.904154
Finatics,2901 E College Ave,State College,40.832505,-77.800447
Findlay Dining Commons,Findlay Commons,State College,40.806427,-77.862293
Fine Wine and Good Spirits,15 W Olive St,Snow Shoe,41.030575,-77.94927
Fine Wine and Good Spirits,1682 N Atherton St,Park Forest Village,40.807549,-77.896847
Fine Wine and Good Spirits,230 W Hamilton Ave,State College,40.787382,-77.856077
Fine Wine and Good Spirits,127 Southridge Plz,State College,40.783992,-77.830973
Fine Wine and Good Spirits,323 Benner Pike,State College,40.83102,-77.80887
Fine Wine and Good Spirits,178 Buckaroo Ln,Bellefonte,40.913126,-77.738256
Firestone Complete Auto Care,2165 S Atherton St,State College,40.785752,-77.829686
First Affiliated Insurance,1350 E College Ave Ste 2,State College,40.809755,-77.831805
First Baptist Church,Beaver & S Center St,Philipsburg,40.895704,-78.220136
First Baptist Church Of Bellefonte Pennsylvania,539 Jacksonville Rd,Bellefonte,40.928123,-77.752453
First Church of Christ Scientist,617 E Hamilton Ave,State College,40.797798,-77.848482
First Citizens Community Bank,141 W Beaver Ave,State College,40.792729,-77.861484
First Evangelical Lutheran Church,Laurel & 3 Sts,Philipsburg,40.895884,-78.223266
First Presbyterian Church,509 E Presqueisle St,Philipsburg,40.897755,-78.218706
First Presbyterian Church of Bellefonte,203 N Spring St,Bellefonte,40.912992,-77.780471
Fischer's Auto Centre,1025 Benner Pike,State College,40.840131,-77.798917
Fisher Auto Parts,104 W Presqueisle St,Philipsburg,40.894714,-78.223566
Fisher Auto Parts,1400 W College Ave Ste 1,State College,40.782309,-77.875984
Fisher Auto Parts,701 E Bishop St,Bellefonte,40.91324,-77.766678
Fisher's Shoe & Saddle Shop,201 Madisonburg Pike,Madisonburg,40.927967,-77.519132
Fishermans Paradise,1115 Spring Creek Rd,Bellefonte,40.883581,-77.784768
Fitology,542 Westerly Pkwy,State College,40.781873,-77.853141
Fitted Cuts,119 S Fraser St,State College,40.793151,-77.862486
Five Below,339 Colonnade Blvd,State College,40.812235,-77.907676
Five Guys,226 W College Ave,State College,40.792754,-77.863189
Five Springs Dog Grooming,365 Smith Rd,Stormstown,40.770188,-78.027449
Flyfisher's Paradise,2603 E College Ave,State College,40.828527,-77.808518
Fmc Dialysis of State College,3901 S Atherton St,State College,40.781997,-77.80149
"FNB Bank, N.A.",1667 N Atherton St,State College,40.808674,-77.898444
"FNB Bank, N.A.",2591 Park Center Blvd,State College,40.766445,-77.883613
"FNB Bank, N.A.",117 S Allen St,State College,40.794216,-77.860709
"FNB Bank, N.A.",222 S Allen St,State College,40.792803,-77.85998
"FNB Bank, N.A.",366 E College Ave,State College,40.797817,-77.856857
"FNB Bank, N.A.",1811 S Atherton St,State College,40.785811,-77.833762
"FNB Bank, N.A.",1480 E College Ave,State College,40.810626,-77.82933
"FNB Bank, N.A.",400 Boal Ave,Boalsburg,40.776391,-77.78791
"FNB Bank, N.A.",137 N Allegheny St,Bellefonte,40.913181,-77.778613
"FNB Bank, N.A.",101 E Main St,Millheim,40.89081,-77.476604
Fogleman Overlook Park,252 Meadowsweet Dr,Houserville,40.826565,-77.821208
Footie's Gardens and Landscapes,19 Colonnade Way,State College,40.810269,-77.90604
For Men Only,125 E Beaver Ave,State College,40.794065,-77.859779
Formalities by Tracina Fisher,710 Pleasant View Blvd,Bellefonte,40.924378,-77.779018
Foundation Building Materials (FBM),435 E Rolling Ridge Dr,Bellefonte,40.890238,-77.775135
Four Springs Veterinary Clinic,2147 Upper Brush Valley Rd,Centre Hall,40.830527,-77.718868
Four Ways Pub & Eatery,685 Pleasant View Blvd,Bellefonte,40.923861,-77.7803
Fox Hill Gardens,1035 Fox Hill Rd,State College,40.834576,-77.879024
Foxdale Village,500 E Marylyn Ave,State College,40.783422,-77.836971
Fred L Metzger DVM,1044 Benner Pike,State College,40.840292,-77.796909
Free Methodist Church,Rr 1,South Philipsburg,40.887687,-78.219948
Free Methodist Church,848 Science Park Rd,State College,40.787334,-77.905266
Freedom Gun and Rifle,1870 General Potter Hwy,Centre Hall,40.786564,-77.717389
Freeze Thaw Cycles,109 S Allen St,State College,40.794301,-77.861159
Fresenius Kidney Care,3901 S Atherton St Ste 7,State College,40.782017,-77.801486
Fresenius Medical Care State College,3901 S Atherton St Ste 7,Boalsburg,40.781835,-77.801417
Fresh Internet Ideas,413 E Waring Ave,State College,40.794156,-77.847982
Friends Cemetery,State Route 550,Warriors Mark,40.758593,-78.065276
Friends Cemetery Alexander Farm,Sycamore Lane,Julian,40.92645,-77.828473
Friends Meeting of State College,611 E Prospect Ave,State College,40.798166,-77.849995
Friends Schoolhouse,611 E Prospect Ave,State College,40.798159,-77.849986
Frost & Conn,1301 N Atherton St,State College,40.804035,-77.884262
Frost Entomological Museum,160 Curtin Road,State College,40.802951,-77.862321
Frye's Sweeper & Sewing Center,1011 E College Ave Ste C,State College,40.806371,-77.841434
Fulton Bank,2017 N Atherton St,State College,40.809881,-77.907371
Fulton Bank,122 Eagle Pt,Milesburg,40.94325,-77.785961
Fusco John DPM,460 E Cherry Ln,Bellefonte,40.912807,-77.770534
G N Diversified Associates,107 Designers Dr,Centre Hall,40.791107,-77.702306
G W Auto Body,130 Hawbaker Industrial Dr,State College,40.813137,-77.914294
Gabriel T Mancuso DMD Philipsburg Dental Partners,101 N Front St,Philipsburg,40.896285,-78.223038
Galanga By Cozy Thai,454 E College Ave,State College,40.79878,-77.855253
Galbraith Thomas M,11053 N Eagle Valley Rd,Blanchard,41.063996,-77.604061
GameStop,1649 N Atherton St. None,State College,40.810724,-77.895294
Gannett Fleming,2601 Gateway Dr,State College,40.767419,-77.88439
Garbrick Amusements & Manufacturing,Penna Ave,Centre Hall,40.848677,-77.6887
Garbrick Shadle Insurance Agency,175 W College Ave,Pleasant Gap,40.866047,-77.749646
Gardens Restaurant,215 Innovation Blvd,State College,40.831656,-77.845204
Gardner's Candies,1613 N Atherton St Ste B,State College,40.808229,-77.89382
Gary Schultz Child Care Center At Hort Woods,Corner of Allen Rd & Park,State College,40.802745,-77.860021
Gary Thull Pools Inc A BioGuard Platinum Dealer,551 E College Ave,Pleasant Gap,40.8789,-77.727707
Gatesburg Lutheran Church,1924 W Gatesburg Rd,Warriors Mark,40.745177,-78.004365
Gavek Graphics,123 Homan Ln,Centre Hall,40.832128,-77.681503
Geisinger,210 Medical Center Dr,North Philipsburg,40.906721,-78.204841
Geisinger,132 Abigail Ln,Port Matilda,40.81457,-77.941828
Geisinger,2520 Green Tech Dr Ste D,State College,40.813017,-77.918487
Geisinger,1630 N Atherton St,Park Forest Village,40.806901,-77.893765
Geisinger,428 Windmere Dr Ste 200,State College,40.787433,-77.82541
Geisinger,200 Scenery Dr,State College,40.785046,-77.819964
Geisinger,819 E Bishop St,Bellefonte,40.914203,-77.763764
Gem Dugout,1652 Princeton Dr,Park Forest Village,40.799263,-77.901421
Gemelli Bakers,129 McAllister Aly,State College,40.79512,-77.859343
Gemini Enterprises TAMR,601 W College Ave,State College,40.790026,-77.867944
George's Floral Boutique,482 E College Ave,State College,40.79921,-77.854883
Get Air,2252 E College Ave,Lemont,40.821859,-77.812156
GettigS Little League Fields,205 Gettig Ln,Pleasant Gap,40.8709,-77.7463
Getwirelessnet,220 Regent Ct,State College,40.783989,-77.820673
Giant Food Stores,255 Northland Ctr,Park Forest Village,40.802668,-77.887201
Giant Food Stores,2121 S Atherton St,State College,40.786059,-77.831103
Giant Pharmacy,255 W Clinton Avenue,Park Forest Village,40.802539,-77.886705
Gigi's,2080 Cato Ave,State College,40.762593,-77.880017
Gio's Hair Design 2,484 E College Ave,State College,40.799227,-77.854875
Glass Doctor of State College,426 S Atherton St Ste 1,State College,40.788059,-77.860554
Glenn Jerry MD Physicians Office,3901 S Atherton St,State College,40.782105,-77.801365
Glenn Park,125 Shady Dr,Lemont,40.807748,-77.821219
Glf Pet Connection,112 Gray Cir,Spring Mills,40.855583,-77.574644
GNC (General Nutrition Centers),1643 N Atherton St,State College,40.810606,-77.8954
GNC (General Nutrition Centers),200 E College Ave,State College,40.795291,-77.860202
GodSpeed Events and Lodging,7897 S Eagle Valley Rd,Port Matilda,40.81756,-78.032726
Golden Design Hair Studio,111 Boal Ave,Boalsburg,40.778579,-77.792589
Good Day Cafe,286 W Hamilton Ave,State College,40.786921,-77.857044
Good Intent Cider,167 S Potter St,Bellefonte,40.910236,-77.783826
Good Scents Candle Company,115 E Main St,Millheim,40.890928,-77.476033
Good Shepherd Catholic Church,867 Grays Woods Blvd,Port Matilda,40.811425,-77.946236
Good Shepherd Evangelical Lutheran Church,851 Science Park Rd,State College,40.787841,-77.904272
Goodwill Industries,424 Westerly Pkwy,State College,40.782881,-77.851424
Gordon D Kissinger Meadow,601 E Branch Rd,State College,40.788815,-77.833727
Gordon Jewelers,Nittany Mall,State College,40.832535,-77.80047
Gouniversity Inc,623 W Foster Ave,State College,40.787398,-77.865511
GovernorS Park,Governors Park Rd,Bellefonte,40.906892,-77.750745
GP Cabinets,276 Spearing St,Howard,41.011118,-77.659538
Grace Fellowship Church Of State College,141 W Beaver Ave Ste A,State College,40.792739,-77.861517
Grace Lutheran Church Columbarium,205 S Garner St,State College,40.796906,-77.855212
Grace Lutheran Day School,205 S Garner St,State College,40.796981,-77.854777
Grace Lutheran Preschool & Kindergarten,205 S Garner St,State College,40.796711,-77.855091
Grace Prep High School,3006 Research Dr,State College,40.766686,-77.880731
Grace Presbyterian Church,370 Airport Rd,State College,40.777332,-77.879728
Grace United Church of Christ,118 Two Steeples Ln,Spring Mills,40.854383,-77.571371
Grace United Methodist Church,912 E Pine St,Philipsburg,40.90053,-78.216034
Grace United Methodist Church,127 Penns Ct,Centre Hall,40.845465,-77.676743
Graduate Hotels,125 S Atherton St,State College,40.791513,-77.864075
Graduate State College,125 S Atherton St,State College,40.791521,-77.864152
Graham's Up In Smoke BBQ,838 Tyrone Pike,Philipsburg,40.879632,-78.212292
Grattan's Pharmacy,230 N Front St,Philipsburg,40.897919,-78.223875
Gray's Woods El Sch,160 Brackenbourne Dr,Port Matilda,40.801652,-77.957592
Graycairn Park,116 Heiskel Dr,Port Matilda,40.818969,-77.967642
Grays Cemetery,State Route 550,Stormstown,40.812799,-77.990649
Grays United Methodist Church,Rr 1,Port Matilda,40.799521,-78.054173
Grays Woods Elementary,160 Brackenbourne Drive,State College,40.80141,-77.957808
Graysdale Park,880 Grays Woods Blvd,Port Matilda,40.807098,-77.947301
Great Clips,1890 N Atherton St,Park Forest Village,40.808727,-77.904699
Green Bowl,131 W Beaver Ave,State College,40.792815,-77.861331
Green Grove Cemetery,Green Grove Road,Spring Mills,40.798199,-77.85993
Green Hollow Park,1900 Park Forest Ave,Park Forest Village,40.80594,-77.907227
Green Horizon Landscape,2821 Earlystown Rd,Centre Hall,40.832888,-77.678691
Greenbriar Saybrook Park,1386 N Foxpointe Dr,State College,40.783907,-77.911796
Greenhills Village,301 Farmstead Ln,State College,40.790598,-77.902147
Gregg Township Volunteer Fire Company 1,106 Water St,Spring Mills,40.855491,-77.572567
Greyhound,415 N 4th St,Philipsburg,40.901162,-78.223569
Greyhound,152 N Atherton St,State College,40.792146,-77.867843
Greyhound,102 S Allegheny St,Bellefonte,40.912161,-77.777351
Griffin's,11053 N Eagle Valley Rd,Blanchard,41.063963,-77.604103
Grove Jeannie,981 Lower Georges Valley Rd,Spring Mills,40.830792,-77.553608
Growing In Faith,512 Hughes St,Bellefonte,40.910111,-77.763915
Growing Tree Toys,202 S Allen St,State College,40.793243,-77.860313
GuDong,2901 E College Ave,State College,40.834076,-77.799116
Guiding Light Health,1315 S Allen St Ste 104,State College,40.783924,-77.847569
Gumby's Pizza,300 S Pugh St,State College,40.793042,-77.857065
Gunn Mowery,718 Bellaire Ave,State College,40.799131,-77.847307
H&M (Hennes & Mauritz),Fraser Centre Penn State 118 S Fraser Street,State College,40.792927,-77.862313
H&R Block,2071 S Atherton St,State College,40.786181,-77.831886
H&R Block,144 S Allegheny St,Bellefonte,40.910996,-77.777231
Habitat for Humanity,1155 Zion Rd,Bellefonte,40.915283,-77.752492
Habitat for Humanity ReStore,1155 Zion Rd,Bellefonte,40.915276,-77.752506
Hair Dezigns,214 W Hamilton Ave,State College,40.787641,-77.85604
Hair Expressions by Mindy,115 E Bishop St,Bellefonte,40.91103,-77.77684
Hair It Iz,675 Pleasant View Blvd,Bellefonte,40.923459,-77.780741
Hair Time,234 E College Ave Ste B,State College,40.795993,-77.859306
Half Moon Valley Towing,2036 Halfmoon Valley Rd,Stormstown,40.793175,-78.016958
Halfmoon Christian Fellowship Church,1776 Halfmoon Valley Rd,Stormstown,40.796593,-78.008164
Halfmoon Valley Animal Hospital,1070 Smith Rd,Stormstown,40.785455,-78.02737
Halfmoon Valley Towing,203 E Plank Rd,Port Matilda,40.800078,-78.054055
Halfmoon Valley Towing,Halfmoon Valley Rd,Stormstown,40.793209,-78.016945
Hallmark Cards,1637 N Atherton St Ste M N,State College,40.810554,-77.895307
Hamilton Square Shop Center,230 W Hamilton Ave,State College,40.787522,-77.8563
Hampton,1955 Waddle Rd,State College,40.817458,-77.898128
Hampton,1101 E College Ave,State College,40.807229,-77.840615
Hands In Health,1050 Benner Pike,State College,40.840482,-77.797203
Haney Harold J DMD,232 S Burrowes St,State College,40.790834,-77.86183
Haney Harold J DMD,2760 Earlystown Rd,Centre Hall,40.829106,-77.682506
Hank's Arco,2463 S Eagle Valley Rd,Julian,40.909245,-77.872728
Hanlen & Associates,104 W Main St,Boalsburg,40.775276,-77.792702
Happy Buns,426 E College Ave,State College,40.79798,-77.856517
Happy Valley Brewing Company,137 Elmwood St,State College,40.810598,-77.829332
Happy Valley Car Credit,3280 W College Ave,State College,40.759028,-77.876239
Happy Valley Hookah,108 W Beaver Ave Ste 206,State College,40.793195,-77.860492
Happy Valley Minigolf,1890 S Atherton St,State College,40.783529,-77.830442
Happy Valley Vineyard and Winery,576 S Foxpointe Dr,State College,40.768243,-77.901411
Harley Davidson,107 Yearicks Blvd,Centre Hall,40.789972,-77.710599
Harmony at State College,121 Havershire Blvd,State College,40.787764,-77.893114
Harner Farm Market,2191 W Whitehall Rd,State College,40.76011,-77.878733
Harpers,224 E College Ave,State College,40.795714,-77.859538
Harpster Park,174 Pilgrim Dr,Boalsburg,40.782698,-77.789066
Harrison's Eat Well Catering,1221 E College Ave,State College,40.809428,-77.83521
Harrison's Wine Grill,1221 E College Ave,State College,40.809237,-77.83527
Harry's Alignment Service,518 Front St,Milesburg,40.941419,-77.798318
Hart Mary Margaret PHD,2703 Valley View Rd,Bellefonte,40.872528,-77.884626
Hartman Agency,1051 Shiloh Rd,State College,40.843175,-77.80922
Harvey's Food Mart,169 W Main St,Millheim,40.888858,-77.483561
Haugh Family Farm,Circleville Rd,Park Forest Village,40.802916,-77.935318
Haymarket Park,1631 Bristol Avenue,State College,40.772438,-77.875046
Headlines Hair Design,1039 Axemann Rd,Bellefonte,40.882653,-77.760346
Healing Springs Commiunity Church,587 Rock Rd,State College,40.841758,-77.825255
Health Street,1613 N Atherton St Ste B,State College,40.808365,-77.8938
Health Street,235 Northland Ctr,Park Forest Village,40.802608,-77.886201
Health Street,426 S Allen St Ste 300,State College,40.791049,-77.856688
Healthy Journey,135 Saint Paul St,Bellefonte,40.910842,-77.783951
Hearthside Rehab Center,450 Waupelani Dr,State College,40.777262,-77.854137
Hearthside Rehabilitation & Nursing Ctr,450 Waupelani Dr,State College,40.777272,-77.854137
Hearts for the Homeless,100 S Fraser St,State College,40.793503,-77.862453
Heather Dick LCSW MAC CAADC,270 Walker Dr Ste 331E,State College,40.8153,-77.829864
Heatwole Golf Design,2134 Sandy Dr,State College,40.784243,-77.90399
Heckman Cemetery,Heckman Cemetery Road,Spring Mills,40.863998,-77.536845
Heimer Eye Care Associates PC,1700 Old Gatesburg Rd,State College,40.782494,-77.886866
Heimer Eye Care Associates PC,141 Medical Park Ln,Bellefonte,40.915794,-77.749299
Heitzmann Dennis PHD,315 S Allen St,State College,40.792441,-77.858017
Heller Debra G DC,3930 Penns Valley Rd,Spring Mills,40.85629,-77.57879
Hello Bistro,126 W College Ave,State College,40.793765,-77.862077
Hemmelstein Neal A PHD,315 S Allen St,State College,40.792431,-77.857748
Henderson Cemetery,Henderson Road,Julian,40.86399,-77.998856
Henry Surveys,6970 S Eagle Valley Rd,Port Matilda,40.83612,-78.008103
Herbert Leigh Psychotherapist,123 Mountain Rd,State College,40.764404,-77.826316
Herron Nancy L Dr,303 Farmstead Ln,State College,40.790192,-77.900788
Hertz,200 W Beaver Ave,State College,40.791882,-77.861278
Hertz,2493 Fox Hill Rd,State College,40.851373,-77.85076
Hertz,2535 Fox Hill Rd,State College,40.853766,-77.848226
Hess Field complex,1707 Shingletown Rd,State College,40.768116,-77.821443
Hibachi-San,7 Hub Robeson Center,State College,40.797697,-77.861694
Hickey W R Beer Distributor INC,1321 E College Ave,State College,40.809889,-77.833452
Hide & Seek Prenatal Peek,610 Willowbank St,Bellefonte,40.90569,-77.785187
High Point Park,855 Whitehall Road,State College,40.771603,-77.858848
Highwood Auto Repair,146 Zendt Ln,Port Matilda,40.808597,-78.04493
Hildebrand Chiropractic,1460 Martin St,Park Forest Village,40.80393,-77.890955
Hill Side School,6277 Brush Valley Rd,Rebersburg,40.963632,-77.372732
Hilton Garden Inn,1221 E College Ave,State College,40.809244,-77.835276
HiWay Pizza Pub,1688 N Atherton St,Park Forest Village,40.807568,-77.897076
HiWay Pizza Pub West,1301 W College Ave,State College,40.784313,-77.875212
Hofbrau,106 E Bishop St,Bellefonte,40.9107,-77.776963
Hogs Galore,330 Enterprise Dr,Philipsburg,40.896487,-78.193858
Holes Automotive,1628 Birch Ct,State College,40.773563,-77.875627
Holiday Hair,331 Colonnade Blvd,State College,40.812214,-77.907457
Holiday Hair,166 Rolling Ridge Dr,State College,40.78602,-77.827922
Holiday Hair,2901 E College Ave Ste 420,State College,40.832281,-77.801434
Holiday Inn Express,1925 Waddle Rd,State College,40.816557,-77.897697
Holmes Foster Park,600 S Sparks St & 901 Westerly Pkwy,State College,40.783059,-77.864972
Holsingers Automotive Repair,2989 Benner Pike,Bellefonte,40.88769,-77.782426
Holy Cross Cemetery,Upper Georges Valley Road And Harter Road,Spring Mills,40.841906,-77.571251
Holy Trinity Orthodox Church,119 S Sparks St,State College,40.788849,-77.867886
Homan's General Store of Potters Mills,125 Old Fort Rd,Spring Mills,40.795376,-77.625382
Home D Pizzeria,1820 S Atherton St,State College,40.784661,-77.832878
Home Helpers,1951 Pine Hall Rd,State College,40.773656,-77.89095
Homefire Christian Fellowship,320 W Whitehall Rd,State College,40.778825,-77.849648
HomeGoods,48 Colonnade Way,State College,40.812336,-77.90437
Homestead Park,145 Farmstead Ln,Park Forest Village,40.793225,-77.904262
Hope Fire Company 2,400 N Front St,Philipsburg,40.899126,-78.224885
Horace Mann Insurance,100 Cherry Ridge Rd,Park Forest Village,40.79598,-77.909322
Horace Mann Insurance Incorporated,1200 W College Ave,State College,40.784492,-77.874058
Hoss's Steak and Sea,1450 N Atherton St,Park Forest Village,40.805974,-77.889511
Hosterman & Stover,188 W Main St,Millheim,40.888209,-77.487865
Hot Dog House,745 Willowbank St,Bellefonte,40.904467,-77.788047
Hot Topic,2901 E College Ave,State College,40.832649,-77.800858
Houck Home Care & Cleaning,2738 W College Ave,State College,40.765407,-77.882891
Houserville Cemetery,1320 Houserville Rd,Houserville,40.82622,-77.830312
Houserville Lemont El Sch,675 Elmwood St,Lemont,40.811252,-77.822698
Houserville United Methodist Church,219 W Clearview Ave,State College,40.812223,-77.896783
Howard Area Museum Historical Society,136 Grove St,Howard,41.013185,-77.661121
Howard Cemetery,Main Street And Grove Street,Howard,41.014352,-77.662011
Howard United Methodist Church,W Main St,Howard,41.013719,-77.66206
Howell P R Dr,1066 Cortland Dr,Lemont,40.805892,-77.816773
Hrenko Insurance Agency,962 Tyrone Pike,Philipsburg,40.876314,-78.213671
HUB Robeson Center,201 Old Main,State College,40.798106,-77.861186
Hubler Ridge School,2051 Nittany Valley Dr,Snydertown,40.985476,-77.582576
Hublersburg Cemetery,Hubler Ridge Road,Howard,40.975227,-77.622522
Hublersburg Inn,449 Hublersburg Rd,Hublersburg,40.961256,-77.60949
Hunters Warehouse,130 W High St,Bellefonte,40.911542,-77.778876
Husky Property Management,407 E Pine St,Philipsburg,40.898679,-78.220615
Hyatt Place,219 W Beaver Ave,State College,40.792693,-77.862381
Hyde Park,Roopsburg Rd,Bellefonte,40.907985,-77.774318
Icy Snow KTV,204 W College Ave,State College,40.793351,-77.862862
IGA,10 Market Drive,Spring Mills,40.885897,-77.492457
IHOP,1661 S Atherton St,State College,40.785657,-77.834778
Ikon Office Solutions,2601 Gateway Dr,State College,40.76883,-77.884178
Ikonic Ink Tattoo and Piercing Studio,111 W Beaver Ave,State College,40.793181,-77.860952
Impressive Homes,3568 Penns Valley Rd,Spring Mills,40.847525,-77.61143
In Focus Family Vision,2790 Earlystown Rd Ste A,Centre Hall,40.830606,-77.68039
Independent Lift Truck,126 Shepherd Ln,Bellefonte,40.890461,-77.753488
India Pavilion Exotic Indian Cuisine,222 E Calder Way,State College,40.795364,-77.859102
Indian Lane Grave,Indian Lane,Centre Hall,40.840244,-77.646879
Indian Motorcycle,2031 General Potter Hwy,Centre Hall,40.791405,-77.704462
IngleBean Ice Cream,108 Main St,Millheim,40.89115,-77.476253
Insomnia Cookies,421 E Beaver Ave Ste G2,State College,40.797267,-77.855523
Inspired Holistic Wellness,111 S Spring St,Bellefonte,40.911358,-77.779779
Integrity Coal Sales,610 Pauline St,Philipsburg,40.888662,-78.209001
International Market,328 S Allen St,State College,40.791689,-77.857685
International Police Museum,185 Ira Ln,Stormstown,40.78587,-78.016902
Intramural Building IM Building,2 Intramural Bldg,University Park,40.807535,-77.859244
Invisible Allies Ministries,1313 Valley View Rd,Bellefonte,40.896226,-77.84032
Irving's,110 E College Ave,State College,40.794567,-77.861087
Irving's At the Airport,2535 Univ Park Airport Rd,State College,40.85373,-77.848116
Irwin Thomas M DMD,428 N 2nd St,Philipsburg,40.900096,-78.224522
Islamic Society Of Central Pennsylvania,709 Ridge Ave,State College,40.791781,-77.878277
Iwom Outerwear,1981 Pine Hall Rd,State College,40.773242,-77.892772
J & E Structures,353 Penny Ln,Bellefonte,40.947764,-77.623934
J & P Pro Auto Services,1692 N Atherton St,Park Forest Village,40.80792,-77.897653
J & W Interests,352 E College Ave Ste B,State College,40.798193,-77.859925
J Stephens Salon & Spa,1952 Waddle Rd Ste 101,State College,40.81565,-77.899392
J.D. Byrider,3510 W College Ave,State College,40.756094,-77.87329
Jabebo Earrings,224 E High St,Bellefonte,40.912798,-77.776108
Jack's Auto Repair,521 E College Ave,Pleasant Gap,40.877558,-77.729652
Jack's Beer Shop,1669 N Atherton St,State College,40.808469,-77.896754
Jackie Mostyn's Bio Salon,119 N Front St,Philipsburg,40.896516,-78.223447
Jackson Hewitt Tax Service,209 N Front St,Philipsburg,40.897188,-78.223961
Jackson Hewitt Tax Service,1321 N Atherton St Ste 1,State College,40.804657,-77.885402
Jackson Hewitt Tax Service,2901 E College Ave,State College,40.83253,-77.800481
Jackson Hewitt Tax Service,256 Match Factory Pl,Bellefonte,40.908406,-77.7827
Jackson Jeffrey S PHD,315 S Allen St Ste 218,State College,40.792452,-77.858045
Jackson Patty Beauty Salon,512 Loch Lomond Rd,North Philipsburg,40.908373,-78.205981
Jacksonville Cemetery,Jacksonville Road,Howard,40.994109,-77.629325
Jacobs George P Dentist,2590 Park Center Blvd,State College,40.767227,-77.882109
Jake's Cards & Games,131 W High St,Bellefonte,40.912111,-77.779012
Jamaica Junction,111 S Pugh St,State College,40.79511,-77.85996
Jamba,Hub Student Union Center,State College,40.798245,-77.861533
James Grant DMD Countryside Dental,2837 Earlystown Rd,Centre Hall,40.833666,-77.677614
Janet Palmatier Ameriprise Financial Services,1450 Martin St,Park Forest Village,40.803883,-77.89084
Jared Ernico RE MAX CENTRE REALTY,1375 Martin St,Park Forest Village,40.80188,-77.886213
Jax Bar & Kitchen,128 E College Ave,State College,40.794782,-77.86045
Jaybird Manufacturing,135 Summer Ln,Centre Hall,40.789397,-77.703259
Jc Auto Repairs,793 Yarnell Rd,Bellefonte,40.998555,-77.811237
Jeanmenne Robert DDS,110 Radnor Rd Ste 200,State College,40.785624,-77.821622
Jehovah's Witnesses,101 Villandry Blvd,Lemont,40.801628,-77.82546
Jennifer Borigo LMT,143 Hawbaker Industrial Dr Ste 101,State College,40.813957,-77.915349
Jennifer Glantz Kissinger Bigatel &amp Brower Realtors,1612 N Atherton St,Park Forest Village,40.807392,-77.893308
Jersey Mike's,2009 N Atherton St Ste 100,State College,40.809811,-77.906689
Jersey Mike's,128 S Allen St,State College,40.793733,-77.861038
Jersey Shore State Bank,1665 N Atherton St,Park Forest Village,40.809042,-77.908526
Jersey Shore State Bank,100 Cobblestone Rd,Zion,40.916261,-77.677734
Jersey Shore State Bank,2842 Earlystown Rd,Centre Hall,40.833127,-77.67682
Jersey Shore State Bank,3635 Penns Valley Rd,Spring Mills,40.849904,-77.604981
Jewish Community Center Congregation,620 E Hamilton Ave,State College,40.797621,-77.847713
Jewish Community Center Congregation Brit Shalom,620 E Hamilton Ave,State College,40.797642,-77.847687
Jewish Community Center Nursery & Religious School,620 E Hamilton Ave,State College,40.797607,-77.84772
Jezebel's Boutique,366 E College Ave,State College,40.798199,-77.859916
Jim and Terry's Reliable Auto Repairs,575 Clarence Rd,Clarence,41.040819,-77.941318
Jim Mcdonald Free In Christ Ministries,2156 N Oak Ln,Park Forest Village,40.80829,-77.919312
Jim's Army & Navy Surplus Store,307 W Beaver Ave,State College,40.791524,-77.863076
Jim's Italian Cuisine,204 E Cherry Ln,Bellefonte,40.911804,-77.776069
Jimmy John's,434 E College Ave,State College,40.798266,-77.856097
Jo-Ann Fabric and Craft Stores,505 Benner Pike,State College,40.834649,-77.804028
Jocelyn L Anderton DMD,1393 N Atherton St,State College,40.805307,-77.886637
Jodon's Stables,2925 Halfmoon Valley Rd,Stormstown,40.77682,-78.043991
Joe's Custom Lawn Care,158 Price Ln,Port Matilda,40.796209,-78.061004
Joel Confer Ford of Bellefonte,2892 Benner Pike,Bellefonte,40.885238,-77.779967
Joel Confer Toyota,120 E Clinton Ave,State College,40.804403,-77.881695
Joey's To Go,618 N 9th St,Philipsburg,40.904594,-78.219994
John Cabibbo RE MAX Centre Realty,1375 Martin St,Park Forest Village,40.801861,-77.886233
John Carder DDS,180 Regent Ct Ste 100,State College,40.784193,-77.821371
John Deere,2818 Earlystown Rd,Centre Hall,40.831643,-77.678451
John E Carder & Associates,180 Regent Ct Ste 100,State College,40.784196,-77.821402
John F Robison DMD,110 Radnor Rd Ste 201,State College,40.785598,-77.821596
John Tennis Towing,137 Old Block Rd,State College,40.779417,-77.882322
John's Shanghai,312 W Beaver Ave,State College,40.791343,-77.862909
Johnson Brothers Accounting & Income Tax Service,Rr 45,Spring Mills,40.853411,-77.567478
Joma Chinese Massage,2901 E College Ave Ste 986,State College,40.833586,-77.799098
Jones Charles A Insurance,20 S Front St,Philipsburg,40.895172,-78.221737
Journeys,2901 E College Ave,State College,40.832852,-77.800872
Joy For Kids Daycare,1011 E College Ave,State College,40.806381,-77.841399
Joy's Salon,120 Meadow Ln,Houserville,40.82284,-77.83033
JS rentals,4996 Brush Valley Rd,Rebersburg,40.93103,-77.487393
Juana's,129 S Fraser St,State College,40.793393,-77.861599
Julian Cemetery,Us Highway 220 And Yeager Hollow Road,Julian,40.86302,-77.945934
Julian Woods Community,225 Julian Woods Ln,Julian,40.88391,-77.918729
Juniata Valley Bank,1350 S Atherton St,State College,40.784363,-77.841619
Juniper Village At Brookline Rehabilitation And Sk,1950 Cliffside Dr,State College,40.788443,-77.830578
Just Cuts Barber Shop,2790 W College Ave Ste 6,State College,40.764316,-77.881742
Justin Wheaton RE MAX Centre Realty,1375 Martin St,Park Forest Village,40.801852,-77.886238
K W Gas & Oil,4231 Nittany Valley Dr,Nittany,41.000985,-77.552818
Kaarma Indian Cuisine Redefined,120 E Beaver Ave,State College,40.793621,-77.859589
Karch Auto,827 S Atherton St,State College,40.786144,-77.854753
Karen Clark Kissinger Bigatel & Brower Realtor,2300 S Atherton St,State College,40.784218,-77.828672
Karma Thrift Store,104 Bible Rd,Spring Mills,40.811477,-77.636625
Karstetter Michael D Insurance,102 Village Dr,State College,40.802304,-77.880959
Kawasaki Motors,2031 General Potter Hwy,Centre Hall,40.791434,-77.704313
Kay Jewelers,2901 E College Ave Ste 604,State College,40.832852,-77.800714
Kaywood Park,1120 Karmel St,Boalsburg,40.788397,-77.774637
Keck's Collision Repair,999 Nittany Valley Dr,Mingoville,40.935633,-77.650365
Keller Williams,740 S Atherton St,State College,40.785689,-77.855485
Kelly's Steak and Seafood,316 Boal Ave,Boalsburg,40.776874,-77.789338
Ken Chertow Wrestling,1950 Linden Hall Rd,Boalsburg,40.788641,-77.758626
Kevin P Labosky DMD,474 Windmere Dr Ste 302,State College,40.788007,-77.823951
Keystone Church & Ministries,1224 N Atherton St,State College,40.801975,-77.88238
Keystone Tax Service,2210 N Oak Ln,Park Forest Village,40.809712,-77.920878
KFC,1780 S Atherton St,State College,40.784535,-77.83395
Ki'netik FITNESS,2301 Commercial Blvd,Houserville,40.824248,-77.81276
Kid to Kid,154 Rolling Ridge Dr,State College,40.786019,-77.827611
Kids Court Bellefonte,121 Radio Dr,Bellefonte,40.892111,-77.783991
Kids Court Childcare & Learning Center,278 Gerald St,State College,40.829416,-77.810108
Kieran's diner,445 Waupelani Dr,State College,40.776686,-77.85762
Kimchi Korean Restaurant,1100 N Atherton St,State College,40.801287,-77.880536
KinderCare,228 Farmstead Ln,Park Forest Village,40.790573,-77.904378
King Cobra Tattoo,127 E Beaver Ave,State College,40.794116,-77.859742
King Wealth Strategies,1348 S Atherton St,State College,40.784341,-77.841649
Kings Kids Unlimited Inc,1406 Harris St,State College,40.807736,-77.884354
Kish Bank,2610 Green Tech Dr,State College,40.812993,-77.922927
Kish Bank,205 Park Pl Ste 6,Bellefonte,40.914862,-77.750363
Kistner Gary Dr,405 E Springwood Pl,State College,40.814911,-77.973361
Kitchen Witch Cafe,337 Walnut St,Howard,41.014359,-77.658363
Klaban's Home Furnishings,2952 Benner Pike,Bellefonte,40.886858,-77.780665
Knowhow,204 E Calder Way,State College,40.79492,-77.859567
KOA (Kampgrounds of America),2481 Jacksonville Rd,Bellefonte,40.962799,-77.687346
Koch Funeral Home,2401 S Atherton St,State College,40.784699,-77.824822
Kohl's,275 Colonnade Blvd,State College,40.815421,-77.904913
Kohlhepp's Bald Eagle Valley Stone Center,5960 S Eagle Valley Rd,Julian,40.847158,-77.974761
Kolbrooks Veterinary Clinic,1756 Nittany Valley Dr,Bellefonte,40.952306,-77.623571
Komatsu,689 E College Ave,Pleasant Gap,40.881616,-77.720311
Kondu,132 S Allen St,State College,40.793572,-77.861026
Korean Table,310 S Allen St Ste C 105,State College,40.791925,-77.858424
Kramer Gap School,195 Kramer Rd,Aaronsburg,40.911365,-77.429112
Krauss Park,Roopsburg Rd,Bellefonte,40.914426,-77.783374
Kris Hanahan RE MAX Centre Realty,1375 Martin St,Park Forest Village,40.801817,-77.8862
KTFG Real Estate,804 Stratford Dr Ste 1,State College,40.772774,-77.858579
Kung Fu Tea,320 W Beaver Ave,State College,40.791203,-77.863072
Kuppel's Auto Center,North St,Millheim,40.899658,-77.478414
Kw Oil & Propane,4231 Nittany Valley Dr,Nittany,41.001001,-77.552823
Kwik Fill,120 Boal Ave,Boalsburg,40.778085,-77.792369
Kwik Fill,915 Pleasant View Blvd.,Bellefonte,40.926881,-77.779945
L W Hose Repair Auto Sales,401 S Main St,Pleasant Gap,40.863168,-77.732684
La-Z-Boy,138 Valley Vista Dr,State College,40.810759,-77.924733
LabCorp,1613 N Atherton St Ste B,State College,40.808402,-77.893795
Lakegirl Massage Therapy,212 Kenlee Dr,Bellefonte,40.898147,-77.786963
Lakewoods Outdoor Supply,263 E Main St,Howard,41.017669,-77.654763
Lamb Fellowship Of Pennsylvania State University,202 Hub,State College,40.798221,-77.859914
Larry J Assalita DPM,110 Regent Ct Ste 200,State College,40.784002,-77.819455
Lasers for Innovative Solutions,200 Innovation Blvd Ste 261,State College,40.831422,-77.842445
Latinos Latino Food,324 E Calder Way,State College,40.796829,-77.857111
Lava Auto Body,3532 W College Ave,State College,40.755416,-77.872641
LEGACY TRUCK CENTERS INC,250 Tracey Dale Rd,Howard,40.951408,-77.789122
Legends,215 Innovation Blvd,State College,40.831516,-77.845128
Leidy C Robert Horace Mann Insurance,1524 W College Ave Ste 203,State College,40.781414,-77.877637
Leila's Beauty Salon,1995 S Atherton St,State College,40.786216,-77.832245
Lemont Physical Therapy,2766 W College Ave Ste 300,State College,40.764705,-77.882105
Lendmark Financial Services,2264 E College Ave,Lemont,40.822084,-77.81201
Leslie and Co Downtown,200 N Front St Ste 105,Philipsburg,40.897713,-78.222571
Liberty Baptist Cemetery,Main Street And Bald Eagle Street,Howard,41.01375,-77.662062
Liberty Craft House,346 E College Ave,State College,40.797462,-77.857207
Liberty Lutheran Housing Development Corporation,260 Lions Hill Rd,Toftrees,40.823911,-77.873597
Liberty Tax Service,2141 S Atherton St,State College,40.785794,-77.830129
Lick Run Presbyterian Church Cemetery,Schoolhouse Drive And Jacksonville Road,Howard,40.993695,-77.631491
Life Revolution Tae Kwon Do,178 Rolling Ridge Dr,State College,40.786192,-77.828599
Life Storage,757 Science Park Rd,State College,40.784352,-77.901196
Lifestyle Financial Matters,409 S Pugh St,State College,40.792801,-77.855738
Lila Yoga Studios,103 E Beaver Ave Ste 2,State College,40.793701,-77.860199
Limerock Terrace Parklet,260 Limerock Ter,Lemont,40.820891,-77.814621
Limited Too,Nittany Mall,State College,40.832538,-77.800469
Lincare,2437 Commercial Blvd Suite 4 & 5,Houserville,40.826079,-77.810369
Linda's Beauty Care,127 Danielle Dr,Pleasant Gap,40.870596,-77.748642
Lindquist Family Foot Care,141 E College Ave,Pleasant Gap,40.868984,-77.745037
Linn Heister H Jr DDS,4570 Penns Valley Rd,Spring Mills,40.877102,-77.526537
Lion & Cub,206 E College Ave,State College,40.79523,-77.859806
Lion Antiques,122 N Atherton St,State College,40.79197,-77.866217
Lion Country KIA,1334 Dreibelbis St,State College,40.832936,-77.810079
Lion Surplus,1 Salvage Warehouse University Park Pennsylvania S,State College,40.798541,-77.860437
Lion's Den,118 S Garner St,State College,40.797564,-77.856633
Lionheart Fitness,127 Sowers St,State College,40.79783,-77.855004
Lions Pride,112 E College Ave,State College,40.79449,-77.860917
Lisa's Shear Pleasure Beauty Salon,206 Hale Ln,Bellefonte,40.914875,-77.777517
Little Bears Daycare,206 W High St,Bellefonte,40.911475,-77.779818
Little Food Court,250 E Calderway Lower Floor,State College,40.795669,-77.858697
Little League Baseball Field,507 Kennard Rd,State College,40.780287,-77.802529
Little Mammas,105 S Main St,Pleasant Gap,40.868005,-77.746125
Little Nittany School,5445 Jacksonville Rd,Howard,41.014782,-77.593361
Little Szechuan,228 W College Ave,State College,40.792641,-77.863204
Living Hope Alliance Of The Christian And Missionary Alliance,321 E Howard St,Bellefonte,40.914386,-77.774666
Livonia Cemetery,State Route 192,Rebersburg,40.980331,-77.298301
LL Flooring,1524 N Atherton St,Park Forest Village,40.806679,-77.890603
LL Flooring,1524 N Atherton St Ste 120,Park Forest Village,40.806646,-77.890546
LMR Tires,203 W Plank Rd,Port Matilda,40.800104,-78.054065
Lmr Tires,1255 Zion Rd,Bellefonte,40.915612,-77.746159
LMR Tires,2816 Earlystown Rd,Centre Hall,40.833277,-77.675032
Local Whiskey,107 E Beaver Ave,State College,40.79372,-77.860147
LOFT,19 Colonnade Way,State College,40.810289,-77.90622
Log Cabin Motors,707 Pleasant View Blvd,Bellefonte,40.924271,-77.779974
Logan Branch Insurance Inc,623 Willowbank St,Bellefonte,40.905655,-77.785909
Lohr's Auto Sales & Service,1869 N Atherton St,State College,40.809442,-77.904013
Lombard MMA,127 Sowers St,State College,40.797896,-77.854754
Looks Hair Design,228 E Calder Way,State College,40.79552,-77.858896
Lou's Stick Room,1611 N Atherton St,State College,40.80808,-77.89291
Love it upcycle boutique,938 W College Ave,State College,40.786269,-77.871761
Lowe's,104 Valley Vista Dr,State College,40.812164,-77.926316
Lucas Cemetery,Mema Lane And Askeys Road,Howard,41.058783,-77.71462
Lupita's Authentic Mexican Food,3180 W College Ave,State College,40.760737,-77.877987
Luse's Repair,256 E Main St,Millheim,40.897982,-77.461701
Lutheran Church Cemetery,North Main Street And Getting Lane,Pleasant Gap,40.868411,-77.749584
Lutheran Council For Campus Ministry At The Pennsylvania State,217 Pasquerilla Spiritual Center,State College,40.798967,-77.8667
Lutinski David E OD,428 Windmere Dr,State College,40.787434,-77.825453
Lychee Resto,1341 S Atherton St,State College,40.785025,-77.842587
Lykens Market,100 N High St,Port Matilda,40.799786,-78.053622
Lykens Market,100 E Plank Rd,Port Matilda,40.799827,-78.05341
Lykens Market,1245 Zion Rd,Bellefonte,40.915246,-77.746449
Lyons Kennels,1826 Zion Rd,Bellefonte,40.915932,-77.726596
M D Karstetter Agency Inc Nationwide Insurance,925 W College Ave,State College,40.786641,-77.872226
M&T Bank,409 N Front St,Philipsburg,40.898925,-78.225582
M&T Bank,1423 N Atherton St,State College,40.806321,-77.888308
M&T Bank,1330 S Atherton St,State College,40.784124,-77.843401
M&T Bank,731 Rishel Hill Rd,Bellefonte,40.876605,-77.777258
M&T Bank,915 E Bishop St,Bellefonte,40.914772,-77.761189
MacDonald David Sandy Dr Counseling,1001 University Dr,State College,40.797314,-77.843496
Mad K Brewery,298 Mountain Top Rd,Howard,41.060578,-77.634673
Mad Mex Happy Valley,240 S Pugh St,State College,40.793393,-77.858366
Maddie Gill,119 S Burrowes St,State College,40.792475,-77.86311
Madisonburg Lutheran and Reformed Cemetery,West Street And West 6th Street,Madisonburg,40.926564,-77.519183
Madisonburg United Methodist Cemetery,West Street And 5th Street,Madisonburg,40.925784,-77.518422
Madore Richard M DDS,1252 Mayberry Ln,State College,40.798669,-77.826867
Mae & Earl's,838 Tyrone Pike,Philipsburg,40.879628,-78.212307
Maggi Mitsubishi,273 Benner Pike,State College,40.829746,-77.805923
Main Line Auto,275 S Harrison Rd,Pleasant Gap,40.866042,-77.734429
Main Street Yarn,121 W Main St,Rebersburg,40.943818,-77.448368
Main Won Restaurant,224 N Front St,Philipsburg,40.897765,-78.223875
Maki Yaki,407 E Beaver Ave,State College,40.797137,-77.855662
Mallardtone Game Calls,209 Harvard Rd,Port Matilda,40.828383,-77.946625
Mamma Lucrezia's Pizzeria & Italian Restaurant,136 S Allegheny St,Bellefonte,40.911088,-77.77726
Mana Life Counseling,270 Walker Dr,State College,40.815299,-77.829904
Mane Ly Hair,252 Nittany Valley Dr,Zion,40.919562,-77.674992
Manners N' More Dog Training School,Benner Pike Village,Bellefonte,40.893565,-77.785239
Maranatha Assembly Of God,1089 E College Ave,Bellefonte,40.901126,-77.700633
Margarita's Pizzeria,222 W Beaver Ave,State College,40.792014,-77.861962
Maria L Moon OD,428 Windmere Dr,State College,40.787452,-77.82545
Maria's Pizza Sub Shop & Italian Restaurant,202 N Water St,Bellefonte,40.914565,-77.78237
Marion Walker El Sch,100 School Dr,Bellefonte,40.916739,-77.763129
Marjorie Mae Park,701 Marjorie Mae St,State College,40.814479,-77.88879
Mark Davison DPM,315 S Allen St Ste 118,State College,40.792439,-77.857781
Mark F Michelotti VMD,1518 W College Ave,State College,40.780834,-77.8782
Mark's Custom Meats,4101 Nittany Valley Dr,Nittany,40.998484,-77.557058
Marroquin's Atv's,Rr 2,Spring Mills,40.85342,-77.567476
Marsh Creek Brethren & Christ Church Parsonage,389 Summit Hill Rd,Howard,41.048351,-77.732049
Marshall Therapeutic Massage,233 Easterly Pkwy,State College,40.789447,-77.848378
Martha United Methodist Church,194 Ardery Hollow Rd,Port Matilda,40.833664,-78.012409
Martin & Suhey Orthopedics PC,1700 Old Gatesburg Rd Ste 200,State College,40.782361,-77.886644
Martin John A DDS,2521 Carnegie Dr,Park Forest Village,40.808474,-77.924706
Martini Robert P Jr DC,Mount Nittany Rd,Port Matilda,40.782385,-77.886648
Mascaro Steiniger Turfgrass Museum,201 Old Main,State College,40.795338,-77.861378
Masonic Temple,240 S Fraser St,State College,40.791395,-77.860836
MassMututal,3949 S Atherton St,Boalsburg,40.781512,-77.799499
Matson Museum Of Anthropology,409 Carpenter Bldg,State College,40.797118,-77.869594
Mattress By Appointment State College PA,1341 S Atherton St,State College,40.785074,-77.84256
Mattress Firm,1908 N Atherton St,Park Forest Village,40.808662,-77.905349
Mattress Warehouse,1803 N Atherton St,State College,40.80916,-77.902075
Mattress Warehouse,445 Benner Pike,State College,40.833316,-77.804024
maurices,2901 E College Ave,State College,40.833243,-77.800971
MBI Fitness,2351 Commercial Blvd,Houserville,40.82463,-77.812032
McAlister's Deli,28 Hub Robeson Center,State College,40.798219,-77.861489
McAllister E Scott Dr Veterinarian,164 Tussey Sink Rd,Centre Hall,40.786029,-77.69892
McAllister Parking Deck,132 McAllister St,State College,40.795412,-77.858707
McCalls Dam State Park,1258 Mccalls Dam Road,Rebersburg,41.016217,-77.183493
McCann Wealth Strategies Inc,1040 Benner Pike Ste 2,State College,40.84006,-77.797179
McClarren Financial Advisors,1364 S Atherton St,State College,40.783927,-77.841519
McCloskey Carol Beauty Salon,122 Spackman Ln,Port Matilda,40.826832,-78.023208
McCoy Natatorium,108 Bigler Rd,State College,40.80485,-77.859816
McDonald's,1615 N Atherton St,State College,40.808419,-77.895726
McDonald's,2167 S Atherton St,State College,40.785246,-77.82999
McDonald's,2821 E College Ave,State College,40.830136,-77.804333
McLanahan's Downtown Market,116 S Allen St,State College,40.793701,-77.861419
McLanahan's Penn State Room,414 E College Ave,State College,40.797855,-77.85656
Mclanahans Student Store,414 E College Ave,State College,40.797889,-77.856599
McMillan Computer Solutions,2738 W College Ave,State College,40.765382,-77.882866
Meadows Psychiatric Center,132 Meadows Drive,Centre Hall,40.810674,-77.712603
Meadows School,132 The Meadows Dr,Centre Hall,40.810673,-77.712583
Mechanical Bull Sales,220 Regent Ct Ste B,State College,40.783975,-77.820667
MedExpress Urgent Care,1613 N Atherton St Ste B,State College,40.808378,-77.893812
Medlar Field,Porter Rd Lubrano Park,University Park,40.807977,-77.861372
Medlar Field at Lubrano Park,112 Medlar Field At Lubrano Park,University Park,40.812563,-77.851679
Memorial Field,100 Brynndolyn Dr,North Philipsburg,40.902765,-78.210641
Mercato Mio,1221 E College Ave,State College,40.809178,-77.835227
Merrill Lynch,475 Rolling Ridge Dr,State College,40.786057,-77.82507
Merry Maids,465 E Rolling Ridge Dr,Bellefonte,40.885741,-77.775485
Metter Julian B PHD & Associates,313 Logan Ave,State College,40.785203,-77.855056
Meyer Cemetery,Rock And Buffalo Run Roads,Bellefonte,40.873627,-77.846996
Meyer Dairy Store,2390 S Atherton St,State College,40.783768,-77.827311
Michael J Cymbor OD,428 Windmere Dr,State College,40.787463,-77.82545
Michaels Silver Scissors,329 E Calder Way,State College,40.796933,-77.857493
Michaels Stores,44 Colonnade Way,State College,40.811908,-77.90387
Michelle Klein Counseling,3943 S Atherton St,Boalsburg,40.781486,-77.799524
Mid State Airport,Mid State Airport,Philipsburg,40.886376,-78.084191
Midas,2298 N Atherton St,Park Forest Village,40.809757,-77.913756
Middle Road School C O Sam Yoder,190 Middle Road,Woodward,40.911266,-77.379363
Midstep Child Development Center,454 Rolling Ridge Dr,State College,40.785226,-77.82496
Mifflinburg Bank & Trust,4978 Penns Valley Rd,Millheim,40.886735,-77.490429
Miles Township El Sch,80 Town Lane Rd,Rebersburg,40.944397,-77.442364
Milesburg Baptist Church,110 Oak Dr,Pine Glen,41.088026,-78.055166
Milesburg Cemetery,Catherine Street And Market Street,Milesburg,40.94341,-77.782371
Millbrook Marsh Nature Center,E College Avenue,State College,40.813595,-77.834593
Miller's Auto Washing Waxing & Detailing,2766 Zion Rd,Zion,40.914142,-77.687691
Millheim Farmers Market,105 East Main Street Millheim Pa Bremen Town Ballr,Millheim,40.890822,-77.47645
Millheim Fire Company 1,103 North Street,Millheim,40.89162,-77.476556
Millheim Small Engine,4855 Penns Valley Rd,Spring Mills,40.885346,-77.5025
Mindbodyart School of Dance,650 Grays Woods Blvd,Port Matilda,40.814583,-77.940038
Miracle-Ear,131 Rolling Ridge Dr,State College,40.786258,-77.829578
MISKA Jewelers,100 E College Ave,State College,40.79443,-77.861308
Missioanry Church of Grace,226 N Vanessa Dr,Pleasant Gap,40.874584,-77.74707
Misty Meadow School,150 Cardinal Dr,Coburn,40.886776,-77.455094
Mitotyping Technologies,2565 Park Center Blvd Ste 200,State College,40.76882,-77.883386
Moe's Southwest Grill,211 Patriot Ln,State College,40.810041,-77.901969
Momentum 360,243 S Allen St Ste 337,State College,40.792797,-77.858657
Momezon Korean Market,1518B N Atherton St,Park Forest Village,40.806427,-77.89026
Momotaro,220 W College Ave,State College,40.792882,-77.863054
Monro,1505 N Atherton St,State College,40.806581,-77.889024
Monte Carlo Pizza & Wings,906 W College Ave,State College,40.786519,-77.871362
Monte Carlo's Pizza & Wings,906 W College Ave,State College,40.786559,-77.871328
Montessori School Of The Nittany Valley,138 Limerock Ter,Lemont,40.818859,-77.815651
Montminy H Peter PHD,454 Rolling Ridge Dr,State College,40.78522,-77.824968
Montour Oil Service,Robersburg,Millheim,40.894983,-77.475647
Moore Insurance Agency,165 Tree Top Ln,Bellefonte,40.93665,-77.634517
Morgan Stanley,720 S Atherton St Fl 1,State College,40.785798,-77.856839
Morton Building,2789 Earlystown Rd,Centre Hall,40.831079,-77.681269
Moshannon Valley Pharmacy,402 E Sycamore Rd,Snow Shoe,41.027018,-77.940946
Moshannon Valley Pharmacy Inc,208 Medical Center Dr,North Philipsburg,40.906759,-78.205234
Moshannon Valley YMCA,103 N 14th St,Philipsburg,40.90229,-78.212112
Mount Health Blue Course Drive Imaging Services,1700 Old Gatesburg Rd,State College,40.782383,-77.886668
Mount Nittany,500 598 Mount Nittany Rd,Boalsburg,40.81151,-77.806841
Mount Nittany Center For Wound Care,120 Radnor Rd,State College,40.785862,-77.820916
Mount Nittany El Sch,700 Brandywine Dr,State College,40.784829,-77.807238
Mount Nittany Health Bellefonte Lab Services,141 Medical Park Ln,Bellefonte,40.915767,-77.749287
Mount Nittany Health Blue Course Drive,1700 Old Gatesburg Rd,State College,40.782348,-77.886641
Mount Nittany Health Blue Course Drive Lab Services,1700 Old Gatesburg Rd,State College,40.782371,-77.886641
Mount Nittany Health Breast Care Center,1850 E Park Ave Ste 105,State College,40.820432,-77.845328
Mount Nittany Health Breast Care Center & Imaging,1850 E Park Ave,State College,40.820428,-77.845325
Mount Nittany Health Children's Advocacy Center,129 Medical Park Ln,Bellefonte,40.915385,-77.749423
Mount Nittany Health Diabetes Foot Clinic,120 Radnor Rd Ste 100,State College,40.785852,-77.820916
Mount Nittany Health Fit For Play,2160 Sandy Dr Ste A,State College,40.78351,-77.903502
Mount Nittany Health Pain Management Center,1700 Old Gatesburg Rd Ste 100,State College,40.78237,-77.886636
Mount Nittany Health Park Ave Lab Services,1850 E Park Ave,State College,40.820438,-77.845296
Mount Nittany Health Park Avenue,1850 E Park Ave,State College,40.82046,-77.845337
Mount Nittany Health Park Avenue,1850 E Park Ave Ste 301,State College,40.820461,-77.845305
Mount Nittany Health Penns Valley,3631 Penns Valley Rd,Spring Mills,40.849576,-77.60568
Mount Nittany Health Penns Valley Imaging Services,3631 Penns Valley Rd,Spring Mills,40.849599,-77.605701
Mount Nittany Health Penns Valley Lab Services,3631 Penns Valley Rd,Spring Mills,40.849596,-77.605698
Mount Nittany Health Sieg Neuroscience Center,2121 Old Gatesburg Rd Ste 100,State College,40.778062,-77.899467
Mount Nittany Health Spring Mills,3631 Penns Valley Rd,Spring Mills,40.849604,-77.605685
Mount Nittany Medical Center,911 University Dr,State College,40.797837,-77.844954
Mount Nittany Medical Center,1800 E Park Ave,State College,40.819182,-77.842649
Mount Nittany Medical Center,120 Radnor Rd,State College,40.785873,-77.820907
Mount Nittany Ms,656 Brandywine Dr,State College,40.786494,-77.806277
Mount Nittany Physician Group,1850 E Park Ave Ste 201,State College,40.820431,-77.845335
Mount Nittany Physician Group,1850 E Park Ave,State College,40.82045,-77.845295
Mount Nittany Physician Group,905 University Dr,State College,40.797787,-77.844804
Mount Nittany Physician Group Bellefonte,141 Medical Park Ln,Bellefonte,40.915797,-77.749324
Mount Nittany Physician Group Bellefonte Pediatrics,129 Medical Park Ln,Bellefonte,40.915397,-77.749336
Mount Nittany Physician Group Blue Course Drive Primary Care,1700 Old Gatesburg Rd Ste 310,State College,40.782391,-77.886648
Mount Nittany Physician Group Boalsburg,3901 S Atherton St Ste 5,State College,40.781996,-77.801506
Mount Nittany Physician Group Cardiology,1850 E Park Ave Ste 201,State College,40.820441,-77.84534
Mount Nittany Physician Group Dermatology,1850 E Park Ave Ste 312,State College,40.820455,-77.845311
Mount Nittany Physician Group Ear Nost & Throat,3901 S Atherton St Ste 6,State College,40.782096,-77.801365
Mount Nittany Physician Group Endocrinology,1850 E Park Ave Ste 312,State College,40.820462,-77.8453
Mount Nittany Physician Group Gastroenterology,3901 S Atherton St Ste 2,State College,40.782006,-77.801507
Mount Nittany Physician Group General Surgery,905 University Dr,State College,40.79778,-77.8448
Mount Nittany Physician Group Green Tech Drive,2520 Green Tech Dr,State College,40.813103,-77.918434
Mount Nittany Physician Group Infectious Disease,1850 E Park Ave Ste 201,State College,40.820463,-77.845314
Mount Nittany Physician Group Nephrology,1850 E Park Ave Ste 201,State College,40.820435,-77.845299
Mount Nittany Physician Group Neurology,2121 Old Gatesburg Rd Ste 100,State College,40.778153,-77.899652
Mount Nittany Physician Group OB GYN,1850 E Park Ave Ste 301,State College,40.820452,-77.845292
Mount Nittany Physician Group Orthopedics,1700 Old Gatesburg Rd,State College,40.782383,-77.886667
Mount Nittany Physician Group Park Ave,1850 E Park Ave Ste 201,State College,40.820432,-77.84531
Mount Nittany Physician Group Park Ave Primary Care,1850 E Park Ave Ste 302,State College,40.820434,-77.84532
Mount Nittany Physician Group Pulmonary Medicine,1850 E Park Ave Ste 201,State College,40.820447,-77.845312
Mount Nittany Physician Group Reconstructive & Cosmetic Surgery,100 Radnor Rd Ste 101,State College,40.785055,-77.821923
Mount Nittany Physician Group State College,2520 Green Tech Dr Ste C,State College,40.813094,-77.918443
Mount Nittany Physician Group University Drive,905 University Dr,State College,40.797762,-77.844804
Mount Nittany Physicians Group Bellefonte,129 Medical Park Ln,Bellefonte,40.915411,-77.749351
Mount Nittany Physicians Group Penns Valley,4570 Penns Valley Rd,Spring Mills,40.877105,-77.526565
Mount Nittany United Methodist Church,1500 E Branch Rd,Lemont,40.80336,-77.825095
Mount Nittany Veterinary Hospital,200 Elmwood St,State College,40.810022,-77.828937
Mount Nittany Vineyard & Winery,300 Houser Rd,Centre Hall,40.809068,-77.770767
Mount Pleasant Cemetery,Hoover Lane,Port Matilda,40.781334,-78.131471
Mountain Cemetery,Decker Valley Road,Spring Mills,40.814719,-77.541419
Mountain Family Dental,424 W Aaron Dr Ste 201,Park Forest Village,40.80467,-77.894562
Mountain Top Alliance Church,675 E Sycamore Rd,Snow Shoe,41.026252,-77.925652
Mountain Top Insurance Agency Progressive Insurance,750 E Bishop St,Bellefonte,40.91322,-77.764916
Mountain View Country Club,310 Elks Club Rd,Boalsburg,40.783541,-77.759995
Mountain View Farm Supply,4821 Brush Valley Rd,Rebersburg,40.947512,-77.436271
Mountain View School,5747 Brush Valley Rd,Rebersburg,40.951385,-77.420754
Mountaintop Area El Sch,100 School Dr # 865,Snow Shoe,41.027489,-77.943327
Mountaintop Area Medical,402 E Sycamore Rd,Snow Shoe,41.027054,-77.940965
Movement Arts Studio,140 Kelly Aly,State College,40.793184,-77.861433
Moyer Chiropractic and Nutrition Center,2330 Commercial Blvd Ste 300,Houserville,40.825308,-77.813041
Moyers Landscape Design &amp Firewood Service,611 Reese Hollow Rd,Port Matilda,40.794993,-78.088711
Mr Hot Dog,807 Pleasant View Blvd Ste 1,Bellefonte,40.926465,-77.779574
Mr Lu's Bellefonte Wok Chinese Restaurant,111 S Allegheny St,Bellefonte,40.911444,-77.777925
Ms Sallie K,112 Hetzel St,State College,40.799156,-77.854789
Mt Nittany Preschool,1500 E Branch Rd,Lemont,40.803331,-77.825124
Mt Nittany Veterinary Hospital,500 S Centre St,Philipsburg,40.888437,-78.212694
Murarik Motorsports,1410 E Presqueisle St,Philipsburg,40.900711,-78.211567
Muscle Movers,138 E Cherry Ln,State College,40.803698,-77.878793
Musser Farm Market,793 Musser Ln,Bellefonte,40.930986,-77.72768
My Beyond Looks,1341 S Atherton St,State College,40.785049,-77.842777
My Cafe Buzz,325 W High St,Bellefonte,40.911868,-77.781534
My Thai,422 Westerly Pkwy,State College,40.782647,-77.851793
Nadenichek Peggy E Med,454 Rolling Ridge Dr,State College,40.785234,-77.824964
Nail Square,127 Rolling Ridge Dr,State College,40.786113,-77.829602
Naomi & Co,1341 S Atherton St Ste 15,State College,40.785055,-77.842567
NAPA Auto Parts,2260 N Atherton St,Park Forest Village,40.809663,-77.913293
NAPA Auto Parts,203 S Spring St,Bellefonte,40.910185,-77.779345
Nartatez Mar A DO,210 Medical Center Dr,North Philipsburg,40.906715,-78.204834
Nastase Rena Distributor,Olive St,Snow Shoe,41.032695,-77.951701
Natalie's Alterations,244 S Buckhout St,State College,40.785074,-77.868427
National Car Rental,2493 Fox Hill Rd,State College,40.850976,-77.851291
National Sporting Arms,355 Colonnade Blvd Ste A,State College,40.810936,-77.910445
Natural Balance Aromatherapy,151 Neff Rd,Centre Hall,40.796773,-77.681157
Nature's Garden Florist,Hills Plz,State College,40.784501,-77.854937
Nature's Medicines State College,2105 N Atherton St,State College,40.810135,-77.909786
Nature's Pantry,2331 Commercial Blvd,Houserville,40.824344,-77.812514
Navia Beauty Studio,212 Kenlee Dr Ste 1,Bellefonte,40.898592,-77.787803
Neff Steven R Funeral Home,W Main St,Millheim,40.889591,-77.481143
Nestlerode & Loy,110 Regent Ct Ste 202,State College,40.784362,-77.822575
Neurological Testing Services,100 Radnor Rd Ste 201,State College,40.785059,-77.821951
New Covenant Baptist Church,1524 University Dr,State College,40.786086,-77.83872
New Creation Beauty Salon,2123 Brushwood Dr,State College,40.769237,-77.890806
New Hope Church,203 Homestead Ln,Boalsburg,40.775552,-77.780834
New Hope Church State College,700 Brandywine Dr,State College,40.785422,-77.808039
New Hope Lutheran Church,119 Cobblestone Ct,Spring Mills,40.850715,-77.595826
New Hope Thrift,318 S Atherton St,State College,40.789017,-77.861911
New Union Cemetery,South Eagle Valley Road,Julian,40.918722,-77.855669
New York Life Insurance Company,524 Brittany Dr,Park Forest Village,40.803431,-77.909913
Newman Wade DDS,114 S School St,Bellefonte,40.914586,-77.762508
NEXT Salon by Nicole,488 Runville Rd,Bellefonte,40.944643,-77.825193
NextHome Price Point Realty,3945 S Atherton St # C,Boalsburg,40.781511,-77.799961
Ng Yu Hung DDS,137 S Pugh St Ste 3,State College,40.794565,-77.859267
Nicole Carnicella DMD MAGD,212 Kenlee Dr,Bellefonte,40.898562,-77.787788
Night & Day Salon & Spa,517 N Front St,Philipsburg,40.899767,-78.226075
Nitanny Anesthesia PC,172 Winesap Dr,Stormstown,40.769966,-78.045172
Nittany Baptist Church,3939 S Atherton St,Boalsburg,40.781364,-77.799585
Nittany Barbell Club,3208 Benner Pike,Bellefonte,40.89359,-77.785017
Nittany Beverage,139 N Patterson St,State College,40.789205,-77.870307
Nittany Bible Church,481 Deibler Rd,Baileyville,40.713269,-77.988527
Nittany Bible Church,461 Deibler Rd,Pa Furnace,40.711914,-77.988257
Nittany Budget Motel,2070 Cato Ave,State College,40.762888,-77.879204
Nittany Christian School,1221 W Whitehall Rd,State College,40.769525,-77.865043
Nittany Commons,2222 E College Ave,Lemont,40.821118,-77.812929
Nittany Controls,2360 Commercial Blvd,Houserville,40.825635,-77.812569
Nittany Dental Associates,2601 Gateway Dr Ste 250,State College,40.767429,-77.884508
Nittany Eye Associates,132 Abigail Ln,Port Matilda,40.814548,-77.941875
Nittany Eye Associates,428 Windmere Dr,State College,40.787424,-77.825443
Nittany Eye Associates,4570 Penns Valley Rd,Spring Mills,40.87707,-77.526567
Nittany Farm Museum,3015 Lower Brush Valley Rd,Centre Hall,40.869725,-77.654631
Nittany Grille,Mount Nittany Medical Ctr Mt Nittany Expy,State College,40.818586,-77.843711
Nittany Gymnastics Academy,2300 Commercial Blvd,Houserville,40.82447,-77.813665
Nittany Mall,2901 E College Ave,State College,40.832309,-77.8012
Nittany Meats,160 Nittany Valley Dr,Zion,40.918529,-77.676697
Nittany MinitMart,325 N Front St,Philipsburg,40.898296,-78.225327
Nittany MinitMart,106 N Atherton St,State College,40.791804,-77.865718
Nittany Nails & Spa,2901 E College Ave,State College,40.833136,-77.80007
Nittany Notes,139 S Pugh St,State College,40.794592,-77.859267
Nittany Office Equipment,1207 S Atherton St,State College,40.785005,-77.847708
Nittany Settlement Company,218 W Hamilton Ave,State College,40.787497,-77.855924
Nittany Urgent Care,2615 E College Ave,State College,40.828704,-77.806868
Nittany Valley Ankle & Foot Center,2505 Green Tech Dr,State College,40.814115,-77.918282
Nittany Valley Chiropractic Center,611 University Dr Ste 214,State College,40.79911,-77.846683
Nittany Valley Chiropractic Center,Rr 45,Centre Hall,40.847604,-77.686284
Nittany Valley Cs,1612 Norma St,State College,40.782763,-77.84125
Nittany Valley Sports Centre,177 Champion Dr,State College,40.842979,-77.878289
Nittany Valley True Value Hardware,1169 Nittany Valley Dr,Bellefonte,40.939579,-77.644055
Nittany View Park,1021 Boalsburg Rd,Boalsburg,40.787739,-77.794314
Nittany Village Park,1331 Old Boalsburg Rd,State College,40.783585,-77.844137
Nittany Weddings,107 Harvest Run Rd N,State College,40.77008,-77.895161
Nittany Wildland Firefighters,201 Cemetery Lane,Zion,40.912702,-77.679369
Noerr's Garage,1220 N Eagle Valley Rd,Bellefonte,40.967181,-77.756873
Nolf Wendy Family Styling Salon,205 Dogtown Rd,Centre Hall,40.788463,-77.666029
Noll's Gun Shop & Gunsmithing,3825 Penns Valley Rd,Spring Mills,40.853702,-77.588138
Noodles & Company,244 W College Ave,State College,40.792759,-77.863609
North Atherton Farmers Market,2615 Green Tech Dr,State College,40.814398,-77.922861
North Atherton Place,1649 N Atherton St,State College,40.809426,-77.89709
Northland Bowl and Sports Center,1521 Martin St,Park Forest Village,40.805552,-77.891437
Northland Center,255 Northland Ctr,Park Forest Village,40.80356,-77.887458
Northside,Warnock Commons,State College,40.802818,-77.866205
Northwest Bank,1767 N Atherton St,State College,40.808913,-77.899827
Northwest Bank,2200 S Atherton St,State College,40.78421,-77.82915
Northwest Bank,1127 Zion Rd,Bellefonte,40.915158,-77.754634
Northwest Bank,104 Winfield Dr,Centre Hall,40.83389,-77.675597
Northwestern Mutual,2571 Park Center Blvd,State College,40.768245,-77.883405
Novosel Instrument Shop Inc,264 Commerce St,Pleasant Gap,40.862902,-77.753462
Nw Human Services Autism School,3020 Research Dr,State College,40.766186,-77.880511
O An Zendo,1 Endless Cir,Julian,40.886221,-77.915721
O Nails and Spa,1647 N Atherton St,State College,40.810629,-77.895432
Oak Grove Parklet,108 Villandry Blvd,Lemont,40.798984,-77.823116
Oak Hall Regional Park,120 Linden Hall Rd,Boalsburg,40.790995,-77.794991
Oaks,200 Rachel Dr,Bellefonte,40.879364,-77.74585
Oakwood Park,380 Oakwood Ave,State College,40.815966,-77.89242
Oakwood Presbyterian Church,1865 Waddle Rd,State College,40.81439,-77.896719
Okinawa Japanese Restaurant,450 E College Ave,State College,40.79878,-77.855527
Old Curtin Cemetery,305 Curtin Village Rd,Howard,40.970432,-77.739595
Old Dominion National Bank,1975 Waddle Rd,State College,40.817944,-77.897914
Old Farmhouse Eatery & Brewery,226 Nittany Valley Dr,Zion,40.919218,-77.675835
Old Gregg School Community Center,106 School St,Spring Mills,40.855124,-77.574162
Old Navy,283 Patriot Ln,State College,40.810773,-77.902723
Old Pine Grove Mills Cemetery,West Pine Grove Road And Mayes Street,Pine Grove Mills,40.73337,-77.888128
Old Pine Hall Cemetery,Pine Hall Road And Science Park Road,State College,40.774289,-77.888568
Old Side Auto Repair,220 Oldside Rd,Clarence,41.057917,-77.943746
Old Union Cemetery,East Presqueisle Street And North 7th Street,Philipsburg,40.898224,-78.217432
Olde New York,2298 E College Ave,Lemont,40.823122,-77.812195
Olive Garden,1945 Waddle Rd,State College,40.817145,-77.899137
Olivero Pediatrics,1243 Skytop Mountain Rd Ste 4,Port Matilda,40.834974,-77.973744
Ollie's Bargain Outlet,1919 S Atherton St,State College,40.78645,-77.83286
Omar Bar,121 W Bishop St,Bellefonte,40.910795,-77.778042
Omega Financial,366 Walker Dr,State College,40.816557,-77.831658
On Site Massage Team,540 Scotia Rd,Port Matilda,40.808541,-77.944315
One On One Fitness Consultants,424 W Aaron Dr Ste 100,Park Forest Village,40.804692,-77.894543
OneMain Financial,1341 S Atherton St,State College,40.784977,-77.843073
Optical Image Technology,100 Oakwood Ave Ste 700,State College,40.815386,-77.896801
Oral And Maxillofacial Surgery,432 Rolling Ridge Dr,State College,40.785179,-77.825914
Orangetheory Fitness,106 S Atherton St,State College,40.791447,-77.864954
Orchard Park,1020 Bayberry Dr,State College,40.773597,-77.863909
Original Brother's Pizza,231 Northland Ctr,Park Forest Village,40.802549,-77.886047
Original Italian Pizza,105 W Main St,Millheim,40.890734,-77.477038
Original Waffle Shop,1229 N Atherton St,State College,40.803406,-77.883098
Original Waffle Shop,1610 W College Ave,State College,40.77959,-77.879459
Orkin,331 Enterprise Dr Ste C,Philipsburg,40.895942,-78.194829
Orviston Bible Church,75 Main St,Orviston,41.106476,-77.752615
Ottos Pub & Brewery,2235 N Atherton St,State College,40.810978,-77.912191
Our Children's Center,411 S Burrowes St,State College,40.789609,-77.859392
Our Lady Of Victory Catholic School,800 Westerly Pkwy,State College,40.781339,-77.865821
Our Lady of Victory Church,820 Westerly Pkwy,State College,40.781096,-77.866511
Out of the Cold Centre County,Location Varies,State College,40.793287,-77.859647
Outback Steakhouse,1905 Waddle Rd,State College,40.816128,-77.898432
Outdoor Millheim Farmers Market,112 Legion Ln,Spring Mills,40.888985,-77.485561
Overlook Heights Park,356 E Clinton Ave,State College,40.805385,-77.880479
Owen's Barber Shop,355 Colonnade Blvd Ste F,State College,40.811051,-77.910423
P J Harrigan's Bar & Grill,1450 S Atherton St,State College,40.784687,-77.839315
P2P Business Technologies,214 E College Ave,State College,40.795388,-77.859695
PA Pizza,Branch Rd,State College,40.799152,-77.830591
PA's Finest Towing,220 Reese Rd Ste D,State College,40.824602,-77.801957
Padgett Business Services,311 S Allen St Ste 2,State College,40.79244,-77.857753
Padisaks Refinishing,1509 W Sycamore Rd,Moshannon,41.031919,-78.003954
Pain &amp Recovery Medical Centre,218 W High St,Bellefonte,40.91127,-77.780337
Pain Relief Center,1315 S Allen St,State College,40.78393,-77.847606
Palmer Museum Of Art,201 Old Main,State College,40.800537,-77.865771
Panda Express,1870 N Atherton St,Park Forest Village,40.808606,-77.90423
Panda Express,7 Hub/Robeson Center,State College,40.797688,-77.861679
Panda Noodle and Grill,432 E College Ave,State College,40.798215,-77.856033
Panera Bread,1613 N Atherton St,State College,40.808134,-77.89384
Panera Bread,148 S Allen St,State College,40.793436,-77.860593
Panko Wealth Management,452 Westgate Dr,Park Forest Village,40.804682,-77.915321
Papa John's,2110 N Atherton St,Park Forest Village,40.809368,-77.910639
Papa John's,1341 S Atherton St,State College,40.785064,-77.842618
Paper Moon Tattoo Company,125 S Pugh St,State College,40.794842,-77.859631
Paradise Cemetery,Paradise Road,Coburn,40.856371,-77.501389
Paradise Datacom,328 Innovation Blvd Ste 100,State College,40.828685,-77.847416
Parag Parekh MD ClearView Eye Consultants,428 Windmere Dr Ste 100,State College,40.78746,-77.825429
Paramount Residential Mortgage Group PRMG,270 Walker Dr Ste 335E,State College,40.815289,-77.829873
Parisou Massage Therapy,3941 S Atherton St Ste A Bldg 2,Boalsburg,40.781461,-77.799429
Park Forest Baptist Church,3030 Carnegie Dr,State College,40.808315,-77.927113
Park Forest Comm Pool,2100 School Dr,Park Forest Village,40.804512,-77.921126
Park Forest El Sch,2181 School Dr,Park Forest Village,40.808376,-77.921546
Park Forest Montessori School,1833 Park Forest Ave,Park Forest Village,40.80784,-77.90387
Park Forest Ms,2180 School Dr,Park Forest Village,40.805758,-77.922178
Park Forest Tot Lot,2049 N Oak Ln,Park Forest Village,40.805799,-77.913472
Park Hills Park,1241 W Park Hills Ave,Park Forest Village,40.795409,-77.899815
Parkview Heights,Roopsburg Rd,Bellefonte,40.916889,-77.754389
Party City,319 Benner Pike,State College,40.830896,-77.808711
Pasto Agricultural Museum Rock Springs,201 Old Main,State College,40.795367,-77.861389
Patchwork Farm and Greenhouse,476 Jackson Hill Rd,Aaronsburg,40.920469,-77.362241
Pattee and Paterno Libraries,510 Paterno Library,State College,40.798533,-77.865386
Patton Township Police Department State College Pennsylvania,100 Patton Plz,State College,40.812306,-77.920054
Patton Woods Nature Rec Area,2950 Circleville Road,Park Forest Village,40.794763,-77.925054
Payless Car Rental,2493 Fox Hill Rd,State College,40.850977,-77.851283
Peake's Auto Repair,117 W Cherry Ln Ste C,State College,40.801898,-77.879173
Pediatric Dental Care,1019 Ghaner Rd Ste 100,Port Matilda,40.815715,-77.939388
Pelka Endodontics LLC,220 Regent Ct Ste F,State College,40.78403,-77.8209
Penang,1221 N Atherton St,State College,40.802931,-77.88203
Penn Auto Sales,137 W College Ave,Pleasant Gap,40.867281,-77.748148
Penn halal grocery,236 E Calder Way,State College,40.795523,-77.858879
Penn Hills Park,2601 Penbrook Ln,Houserville,40.828959,-77.81165
Penn Kebab,418 E College Ave,State College,40.798114,-77.856486
Penn Pide,127 W Beaver Ave,State College,40.792972,-77.861173
Penn Skates Kidz Academy,2210 High Tech Rd,State College,40.855437,-77.857055
Penn State,Walker,State College,40.79314,-77.866847
Penn State,Patterson,State College,40.800399,-77.864918
Penn State,Pollock & Mckean Unvrsty Park,State College,40.798189,-77.859896
Penn State,Engineering,State College,40.783245,-77.854258
Penn State,118 Keller St Bldg State,State College,40.80035,-77.852416
Penn State All Sports Museum,201 Old Main,State College,40.796382,-77.862862
Penn State ARL,225 Science Park Rd,State College,40.77526,-77.89107
Penn State Berkey Creamery,119 Food Science Bldg,State College,40.803666,-77.862543
Penn State Catholic Center,531 W Fairmount Ave,State College,40.786576,-77.862705
Penn State College of Commuications,201 Carnegie Building,State College,40.796561,-77.864951
Penn State Federal Credit Union,LL009 Hub Robeson Ctr,State College,40.798497,-77.860484
Penn State Federal Credit Union,123 Amberleigh Ln,Bellefonte,40.888592,-77.781475
Penn State Golf Courses,1523 W College Ave,Toftrees,40.827144,-77.88666
Penn State Health Medical Group Benner Pike,303 Benner Pike,State College,40.830351,-77.805623
Penn State Health Medical Group Benner Pike Laboratory,303 Benner Pike Ste 2,State College,40.83028,-77.805682
Penn State Health Medical Group Colonnade,32 Colonnade Way,State College,40.811549,-77.903328
Penn State Health Medical Group Park Avenue,1850 E Park Ave Ste 207,State College,40.820391,-77.845474
Penn State Health Medical Group State College,303 Benner Pike Ste 1,State College,40.830351,-77.805656
Penn State Health Medical Group Windmere Centre,476 Rolling Ridge Dr Ste 101,State College,40.785547,-77.824151
Penn State Law,Lewis Katz Bldg,State College,40.80805,-77.867095
Penn State Meat Market,Meats Lab Porter Rd University Park,State College,40.798189,-77.85991
Penn State Medical Group Colonnade,32 Colonnade Way,State College,40.81156,-77.903329
Penn State Nittany Lions Football,1 Beaver Stadium,University Park,40.812182,-77.856113
Penn State Sports Medicine,1850 E Park Ave Ste 112,State College,40.820516,-77.845444
Penn State Univ Golf Course,1523 W College Ave,State College,40.789393,-77.883264
Penn State University,23 Willard St,State College,40.801012,-77.877454
Penn State University,504 Ridge Ave,State College,40.794218,-77.875829
Penn State University,Business Administration Bldg,University Park,40.808762,-77.867483
Penn State University,111 Stuckeman Family Bldg State,State College,40.795708,-77.858758
Penn State University,201 Shields Bldg,State College,40.806682,-77.858325
Penn State University,202 E Waring Ave,State College,40.790303,-77.850302
Penn State University Park Airport,2535 Fox Hill Rd,State College,40.85379,-77.848235
Penn State University PGA Golf Management,201 Mateer Bldg,State College,40.799568,-77.869027
Penn's Cave & Wildlife Park,222 Penns Cave Rd,Centre Hall,40.882576,-77.611706
Penna Society For the Prevention of Crlty To Anmls,2451 General Potter Hwy,Centre Hall,40.797722,-77.666205
PennDOT Photo & Exam Center,812 W College Ave,Pleasant Gap,40.857508,-77.761111
Penns Mobil,705 S Atherton St,State College,40.786659,-77.857691
Penns Valley Amish Parochial School,247 Quarry Rd,Aaronsburg,40.895604,-77.392834
Penns Valley Area El And Intrmd Sch,4528 Penns Valley Rd,Spring Mills,40.87501,-77.53017
Penns Valley Area Historical Museum,244 West Aaron Square,Aaronsburg,40.900009,-77.456017
Penns Valley Area Jshs,4545 Penns Valley Rd,Spring Mills,40.877874,-77.529655
Penns Valley Area Medical Center PC,Rr 2,Spring Mills,40.853422,-77.567493
Penns Valley Bed & Breakfast & Lodge,Rr 2,Spring Mills,40.853415,-77.567512
Penns Valley Building Supply,3602 Penns Valley Rd,Spring Mills,40.848302,-77.608209
Penns Valley Community Church,2837 Earlystown Rd,Centre Hall,40.833665,-77.677619
Penns Valley God's Missionary Church,Rr 45,Spring Mills,40.853423,-77.56749
Penns Valley Jewelers,110 E Main St,Millheim,40.891178,-77.476094
Penns Valley Kennels,981 Lower Georges Valley Rd,Spring Mills,40.830815,-77.553605
Penns Valley Meat Market,112 E Main St,Millheim,40.891293,-77.475727
Penns Valley Pharmacy,Rr 45,Spring Mills,40.853382,-77.567487
Penns Valley Pharmacy,4576 Penns Valley Rd,Spring Mills,40.877268,-77.526022
Penns Valley School Age Child Care,4528 Penns Valley Rd,Spring Mills,40.874942,-77.530151
Penns Valley Veterinary Clinic,124 W Main St,Millheim,40.89095,-77.478259
Penns Valley YMCA,115 E Streamside Pl,Spring Mills,40.853824,-77.570603
Pennsylvania Department of Transportation,812 W College Ave,Pleasant Gap,40.857542,-77.761099
Pennsylvania Military Museum,51 Boal Ave,Boalsburg,40.781831,-77.795268
Pennsylvania Quarter Horse Assoc,436 Old Mountain Rd,Coburn,40.871236,-77.438521
Pennsylvania Retina Specialists PC,2525 Green Tech Dr Ste A,State College,40.813577,-77.919798
Pennsylvania State Police,Rr 1,South Philipsburg,40.887693,-78.219933
Pennsylvania State University,201 Old Main,State College,40.795334,-77.861383
Pennsylvania State University World Campus,128 Outreach Building,University Park,40.832443,-77.841761
People's Nation,126 E College Ave,State College,40.794837,-77.860833
Peoples National Bank of Central Penna,1667 N Atherton St,State College,40.808651,-77.898485
Pep Boys,2268 E College Ave,Lemont,40.822565,-77.811786
Perkins Restaurant & Bakery,525 Benner Pike,State College,40.834245,-77.803068
Pet Stop of State College,110 Shanelly Dr,Stormstown,40.788277,-78.016922
Petco,40 Colonnade Way,State College,40.811746,-77.903626
Pete Nebroski,323 E Calder Way,State College,40.796919,-77.857858
Peter Chiarkas Kissinger Bigatel & Brower Realtors,1612 N Atherton St,Park Forest Village,40.807388,-77.893317
PFG Wealth Planning Group,476 Rolling Ridge Dr Ste 333,State College,40.785527,-77.824139
Phi Kappa Tau Fraternity,408 E Fairmount Ave,State College,40.795728,-77.852164
Philadelphia Yearly Meeting Of Friends,611 E Prospect Ave,State College,40.798173,-77.849986
Philipsburg Cemetery,Elm Street And Cemetery Road,Philipsburg,40.886906,-78.210875
Philipsburg Day Care Center,328 N Front St,Philipsburg,40.89873,-78.224582
Philipsburg El Sch,1810 Black Moshannon Rd,Philipsburg,40.903751,-78.201407
Philipsburg Hearing Services,271 Railroad St Rte 322,Philipsburg,40.90418,-78.223071
Philipsburg Marble & Granite,130 N Centre St,Philipsburg,40.897959,-78.221401
Philipsburg Massage Clinic,125 N Front St,Philipsburg,40.896714,-78.2235
Philipsburg Osceola Area Hs,502 Philips St,Philipsburg,40.89231,-78.209707
Philipsburg Police Department Philipsburg Pennsylvania,4 N Centre St,Philipsburg,40.896717,-78.220695
Philipsburg School Age Program,1810 Black Moshannon Rd,Philipsburg,40.90383,-78.201651
Phillipsburg Sacc Alternate Site,Fourth And Presqueisle St,Philipsburg,40.896753,-78.219126
Philly Pretzel Factory,Walmart Bakery 373 Benner Pike,State College,40.832559,-77.808289
Pho 11,146 N Atherton St,State College,40.792324,-77.86703
Phoenix,Suite 210,State College,40.782353,-77.886646
Phoenix,196 Match Factory Pl,Bellefonte,40.908801,-77.782712
Phoenix Rehabilitation & Health Services,1700 Old Gatesburg Rd Ste 210,State College,40.782505,-77.886833
Phyrst Bar,111 E Beaver Ave,State College,40.793754,-77.860129
Physique Boutique,805 S Atherton St Ste 102,State College,40.786227,-77.855244
Pier 1 Imports,221 Patriot Ln,State College,40.810723,-77.902691
Pietro Hair Salon,1766 S Atherton St,State College,40.784133,-77.834363
Pine Grove Mills Cemetery,South Nixon Road,Pine Grove Mills,40.735439,-77.887153
Pine Hall Cemetery,West College Avenue And Erie Street,State College,40.801032,-77.852047
Pine Hall Lutheran Church,1760 W College Ave,State College,40.77717,-77.883065
Pink Famous,446 Blue College Dr Ste 805,Park Forest Village,40.798421,-77.888624
Pita Cabana Cafe,334 E Calder Way,State College,40.796745,-77.857124
Pizza Heaven,137 W Streamside Pl,Spring Mills,40.853598,-77.571538
Pizza Hut,760 S Atherton St,State College,40.78563,-77.854972
Pizza Hut,1074 E Bishop St,Bellefonte,40.914347,-77.758601
Pizza Mia,114 Hetzel St,State College,40.799026,-77.854724
Pizza Mia,106 N Spring St,Bellefonte,40.912163,-77.779492
Planet Fitness,2901 E College Ave,State College,40.834077,-77.799153
Plato's Closet,1526 N Atherton St,Park Forest Village,40.806576,-77.890986
Playa Bowls,Hetzel St. 482 East Calder Way,State College,40.798787,-77.856542
Plaza Azteca Restaurants,1550 S Atherton St,State College,40.784783,-77.83761
Plaza Centre Antiques,124 1/2 W High St,Bellefonte,40.911572,-77.778601
Plaza Mexican Bar And Grill,1550 S Atherton St,State College,40.784784,-77.837609
Pleasant Gap American Legion Post 867,435 S Main St,Pleasant Gap,40.862232,-77.732099
Pleasant Gap El Sch,230 S Main St,Pleasant Gap,40.865883,-77.740489
Pleasant Gap Fire Company 1 Incorporated,475 Robinson Ln,Pleasant Gap,40.866347,-77.756831
Pletcher's Beer Distributor,330 W Aaron Dr,Park Forest Village,40.805938,-77.892617
Plumb Gold,Nittany Mall,State College,40.832529,-77.800474
Plumbs Drug Store,105 N Allegheny St,Bellefonte,40.912313,-77.778183
PNC Financial Services,1408 N Atherton St,Park Forest Village,40.805163,-77.887763
PNC Financial Services,122 E College Ave,State College,40.794729,-77.860786
PNC Financial Services,Ll0211 Hub Robeson Bldg,State College,40.798304,-77.860671
PNC Financial Services,1601 S Atherton St,State College,40.785662,-77.836771
PNC Financial Services,801 E Bishop St,Bellefonte,40.913821,-77.764586
Poe Valley State Park,136 Poe Valley Rd,Coburn,40.82498,-77.467407
Poindexter,125 S Atherton St,State College,40.791508,-77.864172
Point Man International Ministries,168 Pike Rd,Nittany,40.995267,-77.554625
Pokey's Wings,300 S Pugh St,State College,40.793063,-77.857188
Pollock Andrew J,Black Bear Rd,Winburne,40.949249,-78.137179
Ponish Anthony Insurance,524 Brittany Dr,Park Forest Village,40.803413,-77.909938
PonyExpress1234,445 Waupelani Dr,State College,40.777735,-77.85524
Poorman's Auto Body,164 Autumn Cir,Stormstown,40.768745,-78.020076
Poorman's Welding & Fabrication Inc,168 Kramer Rd,Aaronsburg,40.909447,-77.428308
Poppy and co,126 N 2nd St,Philipsburg,40.897394,-78.222175
Port Matilda Baptist Church,Main,Port Matilda,40.800528,-78.052051
Port Matilda Elementary School Pto,209 Locust Street,Port Matilda,40.80017,-78.050226
Port Matilda Hotel & Tavern,001 E Plank Rd,Port Matilda,40.799494,-78.054172
Port Matilda Methodist Cemetery,Locust And East Church Street,Port Matilda,40.799889,-78.050264
Port Matilda Presbyterian Cemetery,Cemetery Road,Port Matilda,40.804573,-78.05081
Port Matilda United Methodist Church,209 S Main St,Port Matilda,40.799522,-78.051119
Porter's Paint & Wallcovering,1821 W College Ave,State College,40.77661,-77.885391
Portfolio A Salon,112 N Church St,Boalsburg,40.77607,-77.793019
Power Train State College,2101 S Atherton St Ste 10,State College,40.78616,-77.831703
Praxair,1348 Benner Pike,State College,40.844509,-77.794334
Price Parkway Service,401 N 3rd St,Philipsburg,40.899776,-78.22354
Primanti Bros.,130 Heister St,State College,40.796606,-77.85703
Primerica,3006 Research Dr Ste B1,State College,40.766672,-77.880714
Primerica,315 S Allen St Ste 121,State College,40.792402,-77.85775
PrinterMech,171 Technology Dr Ste 100,Boalsburg,40.778381,-77.776612
Pro Trans,2400 Commercial Blvd,Houserville,40.826266,-77.811668
ProCare Physical Therapy,2825 Earlystown Rd,Centre Hall,40.833038,-77.678462
Progressive Insurance,125 E Main St,Millheim,40.891054,-77.475235
Progressive Motors,Benner Pike,Bellefonte,40.885378,-77.779975
Psea State College,400 Shiloh Rd,State College,40.8388,-77.803503
PSU Ice Cream Short Course,116 Agricultural Sciences,State College,40.802552,-77.863938
Psychological Associates of Central Pennsylvania,1315 S Allen St Ste 303,State College,40.783948,-77.847577
Pump Station Cafe,103 Boal Ave,Boalsburg,40.778602,-77.79258
Pure Freedom,1117 William St,State College,40.791791,-77.846119
Pursell Craig E DO,4570 Penns Valley Rd,Spring Mills,40.877104,-77.526546
Qdoba Mexican Grill,1908 N Atherton St,Park Forest Village,40.808664,-77.905153
Quaker Steak & Lube,501 Benner Pike,State College,40.83423,-77.80428
Quality Hydraulics LLC,2460 Commercial Blvd,Houserville,40.827086,-77.810509
Quality Inn,1274 N Atherton St,State College,40.802452,-77.883423
Quest Diagnostics,235 Northland Ctr,Park Forest Village,40.802636,-77.886162
Quick Fuel,1282 N Atherton St,State College,40.803274,-77.884131
R & T's Creative Oasis,133 E Beaver Ave,State College,40.794156,-77.859567
R Paul Campbell D M D,114 S School St,Bellefonte,40.914741,-77.761945
R R Ruff N Ready,206 D St,South Philipsburg,40.887693,-78.219955
R.E. Michel,2371 Commercial Blvd,Houserville,40.825122,-77.811615
Radiator,234 S Potter St,Bellefonte,40.908905,-77.785989
Radio Park El Sch,800 W Cherry Ln,State College,40.799035,-77.884547
Radio Park School Age Child Care,800 W Cherry Ln,State College,40.799183,-77.88433
Ramada,1450 S Atherton St,State College,40.784421,-77.8402
Rampage Room,2901 E College Ave Ste 312,State College,40.832554,-77.800442
Randy Confer Auto Center,1211 E College Ave,State College,40.808975,-77.836006
Rapid Transit Sportswear,115 S Allen St,State College,40.794274,-77.861018
Raykovitz John R PHD,454 Rolling Ridge Dr,State College,40.785234,-77.824971
Raymond Gary A DPM,220 Regent Ct Ste F,State College,40.784008,-77.820655
Raymond James Financial,1348 S Atherton St,State College,40.784389,-77.841614
Raymond's Tire Distributor,147 E College Ave,Pleasant Gap,40.869586,-77.745115
RE Farm Cafe at Windswept Farm,1000 Fillmore Rd,State College,40.8564,-77.875549
Rebelz Gentlemen's Club,601 Spruce Rd,Moshannon,41.047904,-78.003293
Rec Hall,97 293 N Atherton St,State College,40.807624,-77.859692
Recreation Building Penn State University,Recreation Bldg,State College,40.807522,-77.859277
Red Horse Tavern,104 N Main St,Pleasant Gap,40.867879,-77.747414
Red Lobster,1670 N Atherton St,Park Forest Village,40.807506,-77.896071
Redifer Commons,441 499 East College Ave,State College,40.79956,-77.855825
RedLine Speed Shine Car Wash,2108 N Atherton St,Park Forest Village,40.809326,-77.910274
RedLine Speed Shine Shiloh Rd,301 Shiloh Rd,State College,40.837706,-77.803538
RedLine Speed Shine South Atherton,143 Southridge Plz,Bellefonte,40.783407,-77.831279
Reedy Yvonne B Dr,324 E Pine St,Philipsburg,40.898059,-78.221052
Rees' Truck Stop,520 W Sycamore Rd,Snow Shoe,41.027642,-77.934807
Rees'exit 22 Restaurant,516 W Sycamore Rd,Snow Shoe,41.028153,-77.935331
Reformed and Lutheran Cemetery,West Church Street And Willow Avenue,Centre Hall,40.845757,-77.690614
Regal Nails Salon & Spa,373 Benner Pike,State College,40.83254,-77.808328
Rehab Care Group,205 Lions Hill Rd,Toftrees,40.825377,-77.872149
Reliance Bank,100 Hawbaker Industrial Dr,State College,40.810565,-77.91354
Remcom,315 S Allen St Ste 222,State College,40.792192,-77.857888
Rent-A-Center,111 N Allegheny St,Bellefonte,40.912448,-77.778239
Residence Inn by Marriott,1555 University Dr,State College,40.786312,-77.836986
Resko Beth Lsw,320 Rolling Ridge Dr,State College,40.787125,-77.827962
Restore Eye Care,650 Grays Woods Blvd Ste 120,Port Matilda,40.814573,-77.940049
Results Training Plus,451 E Hamilton Ave,State College,40.796024,-77.849676
Revive Modern Massage,311 S Allen St Ste 3,State College,40.792327,-77.857868
Rey Azteca,485 Benner Pike,State College,40.833862,-77.804524
Reyes Active Body Chiropractic,2505 Green Tech Dr Ste A3,State College,40.814199,-77.917962
Reynolds Mansion,101 W Linn St,Bellefonte,40.915894,-77.779666
Richards Stover Group Kissinger Bigatel &amp Brower Realtors,2300 S Atherton St,State College,40.78423,-77.828644
Richmond's Service Station,Point Lookout,Philipsburg,40.914766,-78.009737
Richner Carl B Excavating,1034 Old 220 Rd,Bellefonte,40.951231,-77.759585
Richner's Auto Parts,259 Swampoodle Rd,Howard,40.955534,-77.793544
RichnersCustomExhaust,151 Fetzertown Rd,Bellefonte,40.985036,-77.825876
Ricoh USA,2601 Gateway Dr,State College,40.768822,-77.884181
Ricotta Jewelry & Gifts,105 N Front St,Philipsburg,40.896272,-78.223223
RidgeCrest Home Sales,11049 N Eagle Valley Rd,Blanchard,41.063799,-77.604415
Ridgecrest Park,1124 Zion Ridge Ave,Zion,40.92288,-77.685505
Ridgemont Parklet,206 Harvard Rd,Port Matilda,40.828227,-77.945881
Rigg Rebuilders,111 Riggs Ln,Clarence,41.039761,-77.94736
Rigg Rebuilders Inc II,701 E Bishop St,Bellefonte,40.913367,-77.766732
Right Creative,220 N 5th St Ste 300,Philipsburg,40.899208,-78.219939
Riglin's Outdoors,263 E Main St,Howard,41.017659,-77.654742
Riley On Main,101 E Main St,Boalsburg,40.775929,-77.792645
Rinaldo's Barber Shop,107 S Allen St,State College,40.794342,-77.861213
Rine April PA C,200 Scenery Dr,State College,40.785067,-77.819977
Rising Spring Meats,119 Cooper St,Spring Mills,40.852941,-77.56568
Rita's Italian Ice,119 E Beaver Ave,State College,40.793949,-77.859933
Ritchey Mock & Associates PC,2038 Sandy Dr,State College,40.78575,-77.90061
Ritchie J M Veterinary Hospital,1335 N Atherton St,State College,40.804753,-77.885583
Ritchie J M Veterinary Hospital,2790 W College Ave Ste 1000,State College,40.764312,-77.88174
Rite Aid,1536 N Atherton St,Park Forest Village,40.806565,-77.891656
Rite Aid,510 Westerly Pkwy,State College,40.782182,-77.852858
Rite Aid,1927 S Atherton St,State College,40.786259,-77.832585
Rite Aid,821 E Bishop St,Bellefonte,40.914311,-77.76322
Rite Aid Pharmacies,925 E Bishop St,Bellefonte,40.915138,-77.760429
RJ's Pub & Grill,615 N 9th St,Philipsburg,40.904361,-78.220256
Roan's Body Shop,116 S Corl St,State College,40.783203,-77.874148
Robert G Saylor DDS,240 S Burrowes St,State College,40.79077,-77.86166
Robert L Kilareski DDS,1019 Ghaner Rd Ste A,Port Matilda,40.815692,-77.939372
Robert M Sides Family Music Center,1801 N Atherton St,State College,40.80905,-77.901848
Roberts Motors Company,2 W Laurel St,Philipsburg,40.896084,-78.223569
Roberts Oxygen,380 W College Ave,Pleasant Gap,40.861813,-77.755265
Robin Hood Brewing Co,1796 Zion Rd,Bellefonte,40.915624,-77.728323
Rock And Ruthless Tattoo Parlor,200 N 2nd St Ste 4,Philipsburg,40.897707,-78.222643
Rock Ethics Institute,131 Sparks Bldg,State College,40.796859,-77.865645
Rock Hill Cemetery,Bush Valley Road And Rock Hill Road,Centre Hall,40.800146,-77.762728
Rockview Adult Institution Bellefonte Pennsylvania,Rr 26,Bellefonte,40.913324,-77.777929
RockviewPleasant Gap PennDOT Driver License Center,812 W College Ave,Pleasant Gap,40.857526,-77.761094
Rockville School,106 Schoolhouse Ln,Rebersburg,40.949892,-77.45449
Rocky Ridge Outdoor Furniture,153 Sawmill Dr,Coburn,40.868365,-77.446776
Rodef Shalom Cemetery,West Water Street,Bellefonte,40.90582,-77.788362
Rodeway Inn,1040nathertonstreet,State College,40.800734,-77.879693
Rolling Ridge Dental Care,432 Rolling Ridge Dr Ste 1,State College,40.785323,-77.825934
Romola Bible Church,2280 Marsh Creek Rd,Howard,41.058946,-77.683961
Romola Christian Cemetery,Marsh Creek Road And Phantom Lane,Howard,41.058132,-77.685694
Rony's Place,276 W College Ave,Pleasant Gap,40.863085,-77.75316
Roots Natural Kitchen,270 E Beaver Ave,State College,40.795442,-77.857393
Roots Natural Kitchen Catering,270 E Beaver Ave,State College,40.795425,-77.857396
Rosenfeld Jeff,301 S Allen St Ste 111,State College,40.79247,-77.858087
Ross Cemetery,Marengo And West Galesburg Road,Warriors Mark,40.744083,-78.030515
Ross Stores,311 Benner Pike,State College,40.83031,-77.807513
Rossman Audio,597 W Hillside Ave,Park Forest Village,40.809362,-77.915822
Rothrock Coffee,1736 S Atherton St,State College,40.784407,-77.834548
Rothrock Massage,3943 S Atherton St Bldg 1,Boalsburg,40.781491,-77.799484
Roy M Love DC,611 University Dr Ste 214,State College,40.799145,-77.846961
Royal Pet Resort,500 Maurer Ln,Julian,40.865039,-78.005033
Rtd Embedded Technologies,103 Innovation Blvd,State College,40.833282,-77.842382
Runville United Methodist Charge,1216 Runville Rd,Bellefonte,40.965206,-77.840741
Runville United Methodist Church,1216 Runville Rd,Bellefonte,40.965208,-77.840752
Rural King,2901 E College Ave Ste 900,State College,40.832533,-77.800443
Rush Township Municipal Park,Logan & Davis St,North Philipsburg,40.90466,-78.21103
Russell Hildebrand DC,1460 Martin St,Park Forest Village,40.803962,-77.890979
Russian Church of Christ,3645 W College Ave,State College,40.753965,-77.872573
Rutter Home Sales Team,740 S Atherton St,State College,40.785522,-77.855509
Rutter's Farm Stores,731 Rishel Hill Rd,Bellefonte,40.876316,-77.776996
S & R Repairs Towing & Recovery,125 Sams Dr,Bellefonte,40.934974,-77.813116
S and A Babe Ruth Field,485 Airport Rd,State College,40.775316,-77.880698
Safelite,2218 N Atherton St,Park Forest Village,40.809595,-77.912246
Saint Andrew's Episcopal Church Columbarium,208 W Foster Ave,State College,40.790722,-77.859744
Saint John's Episcopal Church Columbarium,120 W Lamb St,Bellefonte,40.914939,-77.779295
Saint Johns Cemetery,Shope Street And East Bishop Street,Bellefonte,40.911248,-77.769567
Saint Johns United Methodist Church,Beaver & Burrowes Street,State College,40.791667,-77.862371
Saint Marys Catholic Cemetery,West Nectarine Street And 3rd Street,Snow Shoe,41.030025,-77.952595
Saint Michaels Cemetery,Saint Michaels Lane,Clarence,41.054816,-77.948505
Saint Pauls Union Cemetery,Penn Valley Road,Aaronsburg,40.896397,-77.438686
Saint Peters Lutheran and Reformed Cemetery,Town Lane And South Street,Rebersburg,40.9437,-77.443102
Saint's Cafe,123 W Beaver Ave,State College,40.793049,-77.861074
Sakura Sushi Bar & Asian Cuisine,1525 S Atherton St,State College,40.78558,-77.837787
Salem Hill Haven,424 Heckman Cemetery Rd,Spring Mills,40.872347,-77.535465
Salem United Church of Christ Cemetery,Penn Valley Road And Heckman Cemetery Road,Spring Mills,40.874464,-77.535675
Saleme Insurance Services,2125 E College Ave Ste 201,Houserville,40.820947,-77.81627
Sally Beauty Supply,321C Benner Pike,State College,40.830938,-77.808753
Salon Beautiful,270 W Hamilton Ave,State College,40.786951,-77.857003
Salud Juicery,109 S Fraser St,State College,40.793391,-77.862378
Sam's Club,381 Benner Pike,State College,40.833877,-77.806275
Sam's Pharmacy 10 6533,381 Benner Pike,State College,40.834227,-77.806795
Sammi's,205 Park Pl Ste 1,Bellefonte,40.914837,-77.7506
Sand Hill Cemetery,Upper Greens Run Road,Howard,41.000658,-77.688735
Sandy Erwin L M T & Jin Shin Jyutsu Practitioner,540 Scotia Rd,Port Matilda,40.808567,-77.944307
Sandy Ridge Wind Farm,150 Big Fill Run,Tyrone,40.745364,-78.222134
Sauly Boy's,124 S Allen St,State College,40.793752,-77.861132
Saxbys Coffee,210 Business Building,State College,40.803711,-77.865428
Sbarro,28 Hub Robeson Center,State College,40.798002,-77.861674
Scanlon Associates,123 Hoy St,State College,40.784491,-77.873336
Scenery Park Psychology Group,110 Regent Ct,State College,40.784352,-77.822551
Schencks Cemetery,Lower Green Run Road,Howard,41.010897,-77.677222
Schlow Centre Region Library,211 S Allen St,State College,40.793287,-77.859647
Schuchert Orthodontics,1951 Pine Hall Rd Ste 200,State College,40.773519,-77.891102
Sci Benner Township,301 Institution Dr,Bellefonte,40.85995,-77.77716
Sci Rockview,1 Rockview Pl,Bellefonte,40.851619,-77.776773
Science Park Recreation Association Pool,780 Science Park Rd,State College,40.784402,-77.902657
SCORE Central PA Chapter 618,2820 E College Ave Ste E,State College,40.829099,-77.801219
Scott Heather S PHD,315 S Allen St,State College,40.792448,-77.858008
Scott Minor PA C,1700 Old Gatesburg Rd,State College,40.782371,-77.886642
Sears Auto,183 Shiloh Rd,State College,40.834907,-77.800599
Sears Home Services,2901 E College Ave Ste 900,State College,40.83428,-77.798311
Sears Home Services,183 Shiloh Rd,State College,40.834423,-77.79818
Second Chance Auto,4801 S Eagle Valley Rd,Julian,40.865235,-77.938868
Senior Jeffrey A Dentist,307 Fairfield Dr,State College,40.774088,-77.814088
Serenity Wellness Centre,2011 Cato Ave Bldg C Ste 201,State College,40.764056,-77.879396
ServiceMaster,465 E Rolling Ridge Dr,Bellefonte,40.88577,-77.775468
Seven Mountains Scout Camp,227 Sand Mountain Rd,Spring Mills,40.764286,-77.606239
Seven Mountains Taxidermy,121 Turkey Hill Ln,Spring Mills,40.80295,-77.609611
Seven Mountains Wine Cellars,107 Mountain Spring Ln,Spring Mills,40.78349,-77.599444
Sewer Catt,602 N Centre St,Philipsburg,40.90002,-78.223033
SF&Company CPAs and Business Advisors,1423 N Atherton St,State College,40.806275,-77.888286
Shaffer's Therapeutic Massage,115 E Main St,Millheim,40.890965,-77.476047
Shake Smart,101 Intramural,University Park,40.807554,-77.859267
Shaker's Grill,137 E Beaver Ave,State College,40.794267,-77.85944
Shamrock Avenue Park,828 Shamrock Ave,State College,40.798331,-77.833987
Shandygaff,212 E College Ave,State College,40.795359,-77.859606
Sharer's Automotive,3416 W College Ave,State College,40.757758,-77.874009
Sharkies Bar & Thrifty Bottle Shop,110 Sowers St,State College,40.798061,-77.85578
Shawley's Garage,635 Old 220 Rd,Bellefonte,40.946694,-77.774011
Sheetz,101 Valley Vista Dr,Park Forest Village,40.811047,-77.922452
Sheetz,223 Colonnade Blvd,State College,40.816041,-77.901122
Sheetz,1781 N Atherton St,State College,40.809153,-77.901033
Sheetz,129 S Pugh St,State College,40.79493,-77.859286
Sheetz,120 Southridge Plz,State College,40.784351,-77.831712
Sheetz,820 S Eagle Valley Rd,Bellefonte,40.934926,-77.814526
Sheetz,765 Benner Pike,State College,40.835933,-77.802335
Sheetz,2850 Benner Pike,Bellefonte,40.884361,-77.779783
Sheetz,106 Savannah Ln,Centre Hall,40.835095,-77.671319
Shemp's Farm,907 Nittany Valley Dr,Mingoville,40.934057,-77.653187
Shepard Industries,7052 S Eagle Valley Rd,Port Matilda,40.833245,-78.00908
Sherry A Cummings BSN LMT BCRS,246 Centennial Hills Rd,Stormstown,40.764548,-78.032127
Sherwin-Williams,1638 N Atherton St,Park Forest Village,40.806898,-77.893948
Sherwin-Williams,1971 S Atherton St,State College,40.786244,-77.832358
Shields Mitsubishi,3280 W College Ave,State College,40.759023,-77.876276
Shiloh Cemetery,Shiloh Road And Benner Pike,State College,40.837446,-77.801868
Shindig Alley,219 N Front St,Philipsburg,40.897378,-78.224253
Shoe Dept Encore,2901 E College Ave Ste 558,State College,40.832435,-77.802236
Short Hills Plaza,129 Rolling Ridge Dr,State College,40.785826,-77.829379
Shreffler William Automatic Transmission,1028 Old 220 Rd,Bellefonte,40.95116,-77.760132
Shunk's Kitchens,108 E Wilson St,Centre Hall,40.840048,-77.677018
Sichuan House,147 S Allen St,State College,40.793761,-77.860268
Sidney Friedman Parklet,241 S Fraser St,State College,40.79202,-77.859659
Sig Wellness Studio,320 Rolling Ridge Dr Ste 203,State College,40.787101,-77.827976
Simler Insurance Agency,118 E Presqueisle St,Philipsburg,40.895761,-78.221628
Simply Health,1760 S Atherton St,State College,40.784266,-77.834377
Sincere Therapy,221 W High Street Loft 1000,Bellefonte,40.911337,-77.780313
Singer's Body Shop,857 Swartz Hollow Rd,Howard,41.041609,-77.680073
SiteOne Landscape Supply,143 Hawbaker Industrial Dr Ste 109,State College,40.814304,-77.915656
SkyTop Massage &amp Wellness,1243 Skytop Mountain Rd Ste 3,Port Matilda,40.834932,-77.973979
Skytop Mountain Golf Club,350 Freestone Dr,Port Matilda,40.832544,-77.996793
Slab Cabin Cemetery,County Club Road And Shamrock Avenue,State College,40.797462,-77.834709
Slab Cabin Park,150 Slab Cabin Park Rd,State College,40.809694,-77.826294
Slab Town Park,1335 E Pine St,North Philipsburg,40.902534,-78.214423
Sleep Inn,111 Village Dr,State College,40.803579,-77.880557
Sleep Number,1860 N Atherton St,Park Forest Village,40.808569,-77.903907
SmartStyle Family Hair Salons,1665 N Atherton St,State College,40.810329,-77.897097
SmartStyle Family Hair Salons,373 Benner Pike,State College,40.832457,-77.808681
Smash Falafel,214 E Calder Way,State College,40.795121,-77.859373
Smith Front,5 N Front St,Philipsburg,40.895808,-78.222742
Smithfield Park,1211 S Garner St,State College,40.791246,-77.842982
Smokers Express,141 W Bishop St,Bellefonte,40.910702,-77.778867
Snap Custom Pizza,132 W College Ave,State College,40.793625,-77.86238
Snappy's,604 N Front St,Philipsburg,40.900948,-78.226377
Snappy's,503 N Front St,Philipsburg,40.90098,-78.226361
Snappy's,535 University Dr,State College,40.799561,-77.847855
Snappy's,219 S Water St,Bellefonte,40.908446,-77.781626
Snappy's,2892 Earlystown Rd,Centre Hall,40.834804,-77.672507
Snow Shoe Church of Christ Cemetery,Clarence Road,Snow Shoe,41.030825,-77.949556
Snow Shoe Sandwich Shop,144 & 180,Snow Shoe,41.030828,-77.94953
Snow Shoe Truck Stop,529 E Sycamore Rd,Snow Shoe,41.025666,-77.933785
Snydertown Cemetery,Snydertown Road,Snydertown,40.985186,-77.584036
Social Security,901 University Dr Ste 2,State College,40.798423,-77.845327
Solace Massage,668 Pleasant View Blvd,Bellefonte,40.922622,-77.780981
Sons of Israel Congregation Hebrew Cemetery,South Scentre Street And School Street,Philipsburg,40.888209,-78.212223
Soothing Hands Massage Therapy,132 Roanoke Rd,Bellefonte,40.91714,-77.719258
Souled Home Design,231 E Hamilton Ave,State College,40.792155,-77.852691
South Hills Park,126 Aikens Pl,State College,40.784413,-77.850258
South Hills School Of Business & Technology,480 Waupelani Dr,State College,40.775052,-77.855644
Sowers Harvest Cafe,421 E Beaver Ave,State College,40.797293,-77.855478
Spca,2451 General Potter Hwy,Centre Hall,40.797729,-77.666203
Spe Federal Credit Union,650 Science Park Rd,State College,40.782992,-77.901294
Spe Federal Credit Union,2601 A E College Ave,State College,40.82785,-77.807801
Spectra Wood,2651 Carolean Industrial Dr,State College,40.826834,-77.802069
Speedy Furniture of State College,315 Benner Pike,State College,40.830738,-77.80814
Spencer's,2901 E College Ave Ste 970,State College,40.833467,-77.799324
Spherion Staffing Services,2901 E College Ave,State College,40.832548,-77.800471
Spindlecraft,221 N 5th St,Philipsburg,40.899041,-78.220288
Spingfield Subdivision Park,1099 W Springfield Dr,Zion,40.918136,-77.699462
Sport Performance Therapy,2101 S Atherton St,State College,40.786227,-77.831674
Spring Bank School,728 Old Pike Rd,Rebersburg,40.926774,-77.477999
Spring Creek Estates Open Space,187 Creekside Dr,Houserville,40.831353,-77.826574
Spring Creek Nature Park,Roopsburg Rd,Bellefonte,40.906674,-77.789866
Spring Creek Park,151 Spring Creek Park Rd Or 345 Balmoral Way,Houserville,40.820241,-77.831404
Spring Mills Cemetery,Penns Valley Road And Attitude Alley,Spring Mills,40.856697,-77.580128
Spring Run Mini Golf,163 Krout Ln,Pleasant Gap,40.871665,-77.761129
Spring Township Municipal Softball Fields,Blanchard St Ext & Irish Hollow Rd,Bellefonte,40.891744,-77.747594
Springfield House,126 E Main St,Boalsburg,40.775778,-77.791432
SpringHill Suites by Marriott,1935 Waddle Rd,State College,40.816951,-77.896949
Sprucetown Cemetery,Upper Georges Valley Road,Spring Mills,40.809036,-77.62733
St John Evangelist Catholic Church,134 E Bishop St,Bellefonte,40.910699,-77.776199
St John Lutheran Church,216 N McAllister St,Bellefonte,40.918143,-77.763871
St John Lutheran Church,3851 Penns Valley Rd,Spring Mills,40.85413,-77.585744
St John The Evangelist Catholic School,116 E Bishop St,Bellefonte,40.910547,-77.77637
St John's Catholic School,116 E Bishop St,Bellefonte,40.910619,-77.776453
St John's Childhood Center,101 Mill St,Millheim,40.887643,-77.476256
St John's Episcopal Church,120 W Lamb St,Bellefonte,40.91492,-77.779281
St John's UCC,218 N Church St,Boalsburg,40.777419,-77.79352
St John's United Church of Christ,218 N Church St,Boalsburg,40.777442,-77.793498
St John's United Church of Christ,145 W Linn St,Bellefonte,40.915795,-77.780961
St Joseph Institute For Addiction,134 Jacobs Way,Port Matilda,40.779111,-78.174125
St Joseph's Academy,901 Boalsburg Pike,Boalsburg,40.785767,-77.79449
St Josephs Catholic Academy Inc,901 Boalsburg Pike,Boalsburg,40.785974,-77.794522
St Luke's Lutheran Church,N Penna Ave,Centre Hall,40.848526,-77.688905
St Mark Lutheran Church,160 N Main St,Pleasant Gap,40.868399,-77.749577
St Mark Lutheran Church,850 Snydertown Rd,Snydertown,40.9856,-77.582155
St Michael's Rectory,102 Church St,Clarence,41.053843,-77.944657
St Paul Lutheran Church,277 Pine Grove Rd,Pine Grove Mills,40.737999,-77.881075
St Paul's Christian Preschool,127 McAllister St,State College,40.795832,-77.858358
St Pauls AME Church,St Paul St,Bellefonte,40.911318,-77.783986
St Pauls United Methodist Church,109 McAllister Aly,State College,40.795612,-77.859403
St Peter & Paul Catholic Church,400 S 4th St,Philipsburg,40.892889,-78.216331
St Peter Lutheran Church,120 W Main St,Rebersburg,40.94507,-77.443228
St Peters United Church of Christ,1795 W College Ave,State College,40.777407,-77.884255
St Vincent Depaul Society Thrift Store,526 Westerly Pkwy,State College,40.782051,-77.853106
Staci Redman Childcare At Zion Community Church,3261 Zion Rd,Zion,40.915113,-77.684456
Stan Yoder Memorial Preserve,450 W Main St,Boalsburg,40.775412,-77.801816
Stan's Auto Body,Rd,Centre Hall,40.842836,-77.676169
Staples,1646 N Atherton St,Park Forest Village,40.806776,-77.894295
Stapleton Ann M DC,116 Penn St,Millheim,40.889146,-77.476529
Star Valle Entertainment and Decor,27 Fredericksburg Ct,State College,40.811803,-77.901333
Starbucks,2030 North Atherton Street Park Forest Center,Park Forest Village,40.808992,-77.907456
Starbucks,315 Colonnade Blvd,State College,40.812718,-77.906982
Starbucks,E 126 Paterno Library,State College,40.798447,-77.865479
Starbucks,232 W College Ave,State College,40.792777,-77.863485
Starbucks,30 Hub Robeson Center,State College,40.79821,-77.861557
Starbucks,Penn State,State College,40.798106,-77.861228
Starbucks,141 S. Garner Street Centre Court,State College,40.797421,-77.856123
Starbucks,2121 S Atherton St,State College,40.786071,-77.831061
Stark's Auto Service,1454 W College Ave,State College,40.78192,-77.876937
State Amusement Company,1358 E College Ave,State College,40.8095,-77.832339
State Burger,101 S Allegheny St,Bellefonte,40.91179,-77.778081
State College,253 Benner Pike,State College,40.829263,-77.806313
State College Access Church,116 Aikens Pl,State College,40.798198,-77.859895
State College Area Hs,653 Westerly Pkwy,State College,40.781578,-77.856282
State College Bookstore Center,303 Benner Pike,State College,40.830251,-77.805721
State College Borough,131 S Fraser St Ste 3,State College,40.792789,-77.858778
State College Chinese Alliance Church,1250 University Dr,State College,40.792417,-77.840704
State College Chiropractic Group,112 Hetzel St,State College,40.799179,-77.854834
State College Christian And Missionary Alliance Church,1221 W Whitehall Rd,State College,40.769244,-77.864825
State College Christian Church,1107 William St,State College,40.791783,-77.846099
State College Church Of Christ,405 Hillcrest Ave,State College,40.797779,-77.877001
State College Counseling and Consulting Services,270 Walker Dr,State College,40.815312,-77.829869
State College Dialysis,500 Science Park Rd,State College,40.780367,-77.89957
State College Dialysis,500 Science Park Rd Ste 2,State College,40.780366,-77.89954
State College Evangelical Free Church,1243 Blue Course Dr,State College,40.77442,-77.872793
State College Eye Care,611 University Dr Ste 111,State College,40.798991,-77.84676
State College Family Chiropractic Center,905 W Beaver Ave,State College,40.786269,-77.870181
State College Friends School,1900 University Dr,State College,40.781002,-77.839347
State College Korean Church,758 Glenn Rd,State College,40.791977,-77.878686
State College Laser Weight Loss,2766 W College Ave Ste 200,State College,40.764685,-77.882123
STATE COLLEGE LINCOLN,3140 W College Ave,State College,40.761658,-77.878512
State College Orthodontics,2565 Park Center Blvd Ste 300,State College,40.768797,-77.883227
State College Presbyterian Church Columbarium,132 W Beaver Ave,State College,40.792407,-77.861025
State College Shell North,N Atherton St & Clinton Ave,State College,40.803828,-77.881792
State College Spikes,701 Porter Rd,State College,40.812,-77.852652
State College Texaco South,1311 S Atherton St,State College,40.784772,-77.843879
State College Veterinary Hospital,1700 W College Ave,State College,40.778316,-77.881296
State Endodontics,2590 Park Center Blvd,State College,40.767223,-77.882105
State Farm,200 N Centre St,Philipsburg,40.898201,-78.221587
State Farm,2210 N Atherton St,Park Forest Village,40.809369,-77.911525
State Farm,1464 Martin St,Park Forest Village,40.80397,-77.891114
State Farm,1506 W College Ave,State College,40.781376,-77.877647
State Farm,403 S Allen St,State College,40.791714,-77.856416
State Farm,118 Elmwood Street Lemont Exit E Ave,State College,40.810189,-77.830301
State Farm,3082 Benner Pike,Bellefonte,40.890221,-77.782936
State Farm,133 W High St,Bellefonte,40.912024,-77.779126
State Farm,2836 Earlystown Rd,Centre Hall,40.832772,-77.677062
State Game Land 176,State Game Land 176,Stormstown,40.78611,-77.967955
Stay And Play State College Presbyterian Church,132 W Beaver Ave,State College,40.792385,-77.860961
Steiger Clock Shop,Rr 1,Spring Mills,40.853419,-77.567482
Step By Step School For Early Learning,106 Village Dr,State College,40.802571,-77.88035
Stephen Norfolk Land Surveyor,560 Elm Rd,Moshannon,41.031855,-78.022322
Stepping Stones Community,848 Science Park Rd,State College,40.787333,-77.90527
Stern Rhonda Therapist,700 E Beaver Ave Ste 2,State College,40.799981,-77.851228
Steve's Automotive,6360 S Eagle Valley Rd,Julian,40.842301,-77.989238
Steven Crain PhD,315 S Allen St,State College,40.792445,-77.858016
Steven Fishbaine DDS,476 Rolling Ridge Dr Ste 110,State College,40.785556,-77.824133
STOCKER BUICK GMC CADILLAC,273 Benner Pike,State College,40.829874,-77.806055
STOCKER CHEVROLET,701 Benner Pike,State College,40.835483,-77.802775
Stocker Subaru,1454 Dreibelbis St,State College,40.836778,-77.804484
Stoicheff's Auto Parts,2131 N Atherton St,State College,40.81015,-77.91039
Stoltzfus Storage Barns,Rr 192,Madisonburg,40.926119,-77.515539
Stover Cemetery,Penn Valley Road And Farmall Drive,Aaronsburg,40.874988,-77.530147
Stover's Furniture,2901 E College Ave,State College,40.832164,-77.801784
Straley Large Animal Veterinary Services,465 Hublersburg Rd,Hublersburg,40.962232,-77.608312
Straley Veterinary Associates,1819 Zion Rd,Bellefonte,40.916467,-77.726591
Strong Tower Associates,2155 E College Ave,Houserville,40.821421,-77.815534
Stroup Rachael Insurance Agency,4163 Penns Valley Rd,Spring Mills,40.861108,-77.558515
Stuart Richard D Ed,110 Regent Ct,State College,40.784358,-77.822553
Stuckey Mitsubishi,273 Benner Pike,State College,40.829769,-77.805921
Student Book Store,330 E College Ave,State College,40.797105,-77.857632
Stylized Salon,120 Welty Ln,Port Matilda,40.815451,-77.932446
Suburban Park,101 Suburban Ave,State College,40.810774,-77.88742
Subway,503 N Front St,Philipsburg,40.899321,-78.225881
Subway,1665 N. Atherton Place Wal Mart #1640,State College,40.810398,-77.897677
Subway,283 Northland Ctr Northland Shopping Center,Park Forest Village,40.803405,-77.88799
Subway,2790 W College Ave Ste 9,State College,40.764455,-77.88185
Subway,100 S Burrows St 300 West College Ave,State College,40.792446,-77.86382
Subway,300 S Pugh St,State College,40.793182,-77.857224
Subway,456 E College Ave,State College,40.798986,-77.855419
Subway,1700 S Atherton St,State College,40.784557,-77.834693
Subway,373 Benner Pike Wal Mart #2230,State College,40.832571,-77.808
Subway,2892 Earlystown Rd Snappys C Store,Centre Hall,40.834525,-77.672289
Summit Chiropractic and Wellness,901 Benner Pike,State College,40.838274,-77.800082
Summit Chiropractic Clinic,901 Benner Pike,State College,40.838282,-77.800096
Summit Hill Cemetery,Summit Hill Road And Confers Lane,Howard,41.040376,-77.767972
Summit Hill Weslayan Church,1725 Summit Hill Rd,Howard,41.040354,-77.767947
Summit Hill Wesleyan Church Inc,1725 Summit Hill Rd,Howard,41.040364,-77.767942
Sunbelt Rentals,770 W College Ave,Pleasant Gap,40.857923,-77.759962
Sunday's Exxon Service Centers,1234 E College Ave,State College,40.808537,-77.833956
Sunny Days Adult Daily Living Center,105 Stonecrest Dr Ste 1,Bellefonte,40.895806,-77.786396
Sunny Meadow Parochial School,119 Sand Ridge Rd,Snydertown,40.98789,-77.608497
Sunnyside School,Shaffertown Rd,Madisonburg,40.931544,-77.510429
Sunoco,321 N Front St,Philipsburg,40.898269,-78.224915
Sunoco,529 E Sycamore Rd,Snow Shoe,41.026363,-77.933514
Sunoco,913 W College Ave,State College,40.786866,-77.87182
Sunoco,106 N Atherton St,State College,40.791808,-77.865725
Sunoco,224 Boal Ave,Boalsburg,40.777521,-77.790873
Sunoco,1896 E College Ave,Zion,40.915922,-77.678177
Sunoco,107 Market Dr,Spring Mills,40.885728,-77.49249
SunPointe Health,320 Rolling Ridge Dr Ste 100,State College,40.787052,-77.828217
Sunset Park,690 Bigler Rd,State College,40.806537,-77.869691
Sunset View School,894 Hubler Ridge Rd,Howard,40.980683,-77.627987
Sunset View School,894 Hubler Ridge Rd,Bellefonte,40.980698,-77.627981
Sunset View School,122 Turkey Dr,Rebersburg,40.958745,-77.39333
Sunset West Restaurant,521 E College Ave,Pleasant Gap,40.877411,-77.729646
Super 8,1663 South Atherton St South Atherton/Branch Road,State College,40.78618,-77.835083
Supercuts,2030 N Atherton St Ste B,Park Forest Village,40.809009,-77.907568
Supercuts,106 W Beaver Ave,State College,40.793135,-77.860454
Supplysource,200 E Calder Way,State College,40.794906,-77.859632
Suzanne Davis DC Davis Chiropractic,2134 Sandy Dr Ste 9,State College,40.784305,-77.903972
Suzuki,2892 Benner Pike,Bellefonte,40.885302,-77.779894
Suzuki,107 Penn Nursery Rd,Spring Mills,40.779337,-77.617351
Sweet Frog,281 Northland Ctr,Park Forest Village,40.803321,-77.887711
Sweet Scoops Gelato,237 N Pennsylvania Ave,Centre Hall,40.847838,-77.687732
Sweet Tooth Bakery,120 Miller Aly,State College,40.793088,-77.862896
Sweitzer Hardware,2821 Earlystown Rd,Centre Hall,40.831695,-77.678212
Swift Kennedy & Associates,3500 E College Ave Ste 1300,State College,40.835273,-77.791231
Switzer & Switzer Trucking and Repair,160 Greens Run Rd,Howard,41.006806,-77.69053
Synergy Nutrition Consulting,111 S Spring St,Bellefonte,40.911314,-77.779644
SZ Styling,311 W Beaver Ave,State College,40.791525,-77.863052
T Mobile Authorized Retailer,1623 N Atherton St,State College,40.810175,-77.894738
T Mobile Authorized Retailer,2901 E College Ave,State College,40.832345,-77.80163
T Nails & Spa,2266 E College Ave,Lemont,40.822374,-77.812081
T.J. Maxx,1613 C North Atherton St. Tj Maxx Center,State College,40.80858,-77.893615
Taco,113 E College Ave,Pleasant Gap,40.868334,-77.74614
Taco Bell,1909 N Atherton St,State College,40.809349,-77.904792
Taco Bell,100 Rolling Ridge Dr,State College,40.784942,-77.82897
Taco Bell,397 Benner Pike,State College,40.832454,-77.804588
Tadashi,100 S Atherton St,State College,40.791529,-77.86519
Tadashi,206 W College Ave,State College,40.793244,-77.862794
Tai Chi Spa,3208 Benner Pike Ste 1,Bellefonte,40.89356,-77.785028
Tailgate Sports Bar & Grill,1031 E College Ave,State College,40.806524,-77.840811
Tait Farm Food Community Harvest,Rr 322,Centre Hall,40.845102,-77.684441
Tait Farm Foods Production,Rr 322,Boalsburg,40.77611,-77.793729
Tait Farm Harvest Shop & Greenhouse,179 Tait Rd,Centre Hall,40.779758,-77.743911
Tait Farm Trees,Rr 322,Boalsburg,40.7761,-77.793759
Talbots,1341 S Atherton St,State College,40.785105,-77.842187
Talleyrand Park,Roopsburg Rd,Bellefonte,40.910189,-77.78147
Tannenbaum Farms,161 McCool Rd,Centre Hall,40.807738,-77.654367
Target,315 Colonnade Blvd,State College,40.813253,-77.907026
Target,201 W Beaver Ave,State College,40.792595,-77.861947
Tarragon,125 S Atherton St,State College,40.791388,-77.864058
TCO Fly Shop State College,2030 E College Ave,Lemont,40.818922,-77.817314
Tea Time,250 E Calder Way,State College,40.795681,-77.858787
Team Blue Hand Car Wash,117 W Cherry Ln Ste A,State College,40.802011,-77.879369
Tee Jay's Auto Service,102 Hillcrest St,Philipsburg,40.899562,-78.212715
Ten Thousand Villages,1341 S Atherton St Ste 3,State College,40.785029,-77.842898
Teresa's Hair Studio,734 W Main St,Boalsburg,40.774092,-77.810501
Tesla Supercharger Bellefonte,170 Buckaroo Ln,Bellefonte,40.913603,-77.73844
Texas Roadhouse,1885 Waddle Rd,State College,40.815127,-77.897602
That Special Touch,10 Vairo Blvd Ste 433,State College,40.817588,-77.888492
The Adam's Apple,212 E Calder Way,State College,40.795186,-77.85942
The Arboretum at Penn State,336 Forest Resources,State College,40.798216,-77.859924
The Arena,1521 Martin St,Park Forest Village,40.805449,-77.891531
The Atherton Hotel an Ascend Hotel Collection Member,125 S Atherton St,State College,40.7915,-77.864135
The Bar,300 Boal Ave,Boalsburg,40.777137,-77.789834
The Beaten Path,3585 Penns Valley Rd,Spring Mills,40.848547,-77.609963
The Bicycle Shop,441 W College Ave,State College,40.791063,-77.866448
The Blonde Bistro,135 S Allegheny St,Bellefonte,40.910947,-77.777827
The Boalsburg Apothecary Inc,3901 S Atherton St Ste 1 Ste 1,State College,40.782006,-77.801507
The Brewery,233 E Beaver Ave,State College,40.794999,-77.858558
The Calandra Witmer &amp Faussette Team,2300 S Atherton &Amp; 1612 N Atherton St,State College,40.784233,-77.828638
The Canyon,309 E Beaver Ave,State College,40.795971,-77.857327
The Caring Healthcare Network,601 N Front St,Philipsburg,40.900348,-78.227095
The Cat Rental Store,2955 Stewart Dr,State College,40.831934,-77.797533
The Cat Rental Store,175 Progress Dr,Bellefonte,40.868386,-77.773072
The Cat Rental Store,I 80 At Route 150n Exit 158,Howard,40.962509,-77.759617
The Cellular Connection,2901 E College Ave,State College,40.832534,-77.800471
The Church of Jesus Christ of Latter day Saints,842 W Whitehall Rd,State College,40.770125,-77.858561
The Corner Room,100 W College Ave,State College,40.794251,-77.861587
The Cove NY Style Pizzeria,1320B E College Ave,State College,40.808872,-77.83301
The Dining Room,200 W Park Ave,State College,40.797101,-77.870599
The Express Casual Dining,104 E Wilson St,Centre Hall,40.840026,-77.677769
The Faith Baptist Church Of State College,647 Valley Vista Dr,Park Forest Village,40.798454,-77.917387
The Field Burger and Tap,1 Country Club Ln,State College,40.824468,-77.900266
The Gentleman's Salon,421 E Beaver Ave Ste G3,State College,40.797497,-77.855254
The Goddard School,1545 Westerly Pkwy,State College,40.776721,-77.875643
The Governors' Pub,211 W High St,Bellefonte,40.911762,-77.780033
The Great Mish Mosh,128 S Allegheny St,Bellefonte,40.911322,-77.777112
The Greek,102 E Clinton Ave,State College,40.804189,-77.882943
The Hair Lady Katherine Fagan,2428 Setter Run Ln,State College,40.766356,-77.894517
The Highlands,229 W Foster Ave,State College,40.790699,-77.861
The Home Depot,2615 Green Tech Dr,State College,40.814181,-77.922848
The Honey Baked Ham Co.,1724 S Atherton St,State College,40.784486,-77.834622
The Hopshop Beer Market,117 Heister St,State College,40.797248,-77.857151
The IngleBean Coffee House,106 E Main St,Millheim,40.891124,-77.476287
The Laser Center of Central Pennsylvania,428 Windmere Dr,State College,40.787436,-77.825412
The Learning Station,3035 Enterprise Dr,State College,40.765562,-77.881255
The Legacy at State College,478 E Calder Way,State College,40.798674,-77.854177
The Meeting House On Atherton Inc,318 S Atherton St,State College,40.789002,-77.861881
The Men's Wearhouse,201 Triot Ln,State College,40.809904,-77.901941
The Michelle Swope Team,740 S Atherton St,State College,40.785546,-77.855536
The Mountain Valley Diner,850 S Eagle Valley Rd,Bellefonte,40.934771,-77.815209
The Music Mart,227 E Beaver Ave,State College,40.794993,-77.858442
The Naked Egg Cafe,320 Pine Grove Rd,Pine Grove Mills,40.739256,-77.879195
The Nature Inn at Bald Eagle,201 Warbler Way,Howard,41.037998,-77.63253
The Nittany Grill,1800 E Park Ave,State College,40.819027,-77.843472
The Nittany Lion Inn,200 W Park Ave,State College,40.797017,-77.870909
The North Club,1510 Martin St,Park Forest Village,40.804556,-77.892115
The Original Brother's Pizza,201 W Olive St,Snow Shoe,41.030519,-77.949925
The Overlook Grill,559 N Pennsylvania Ave,Centre Hall,40.843914,-77.708505
The Penn State Tea House,34 Ritenour Bldg # State,State College,40.799797,-77.861059
The Penn Stater Hotel and Conference Center,215 Innovation Blvd,State College,40.831909,-77.844907
The PYP Studio,1748 S Atherton St,State College,40.784297,-77.834475
The Queen A Victorian Bed & Breakfast,176 E Linn St,Bellefonte,40.916216,-77.776512
The Saloon,101 Heister St,State College,40.797413,-77.857391
The Salvation Army,2603 E College Ave Ste G,State College,40.82888,-77.807996
The Seafood Shack,778 Old Fort Rd,Centre Hall,40.827361,-77.660545
The Station State College,801 Toftrees Ave,Toftrees,40.823565,-77.886622
The Subie Shop,1344 Halfmoon Valley Rd,Stormstown,40.805464,-77.997861
The T Box Golf & Learn Ctr,326 Forest Ave,Zion,40.921766,-77.687093
The Tavern,220 E College Ave,State College,40.795607,-77.85971
The Tavern,218 E College Ave,State College,40.795547,-77.859655
The UPS Store,19 Colonnade Way Ste 117,State College,40.810283,-77.906065
The UPS Store,210 W Hamilton Ave,State College,40.787654,-77.85595
The Woods Family & Cosmetic Dentistry,1019 Ghaner Rd,Port Matilda,40.815708,-77.939402
The Yards at Old State,121 S Allen St,State College,40.794128,-77.860591
The Youngkwang Korean Presbyterian Church,848 Science Park Rd,State College,40.787313,-77.905438
Theodorous Peter G OD,428 Windmere Dr,State College,40.787424,-77.825411
Theodorous Peter G Optometrist,Penns Valley Medical,Spring Mills,40.849577,-77.60566
Thermal Plus Insulation of State College,Rr 322,Port Matilda,40.809758,-78.05632
Third Bay Quilt Shop,104 Rabbit Hill Rd,Bellefonte,40.960352,-77.684114
Thompson Pharmacy,2827 Earlystown Rd,Centre Hall,40.833093,-77.678345
Thompson Woods Playlot,1101 University Dr,State College,40.796143,-77.840769
Thon,227D Hub,State College,40.798205,-77.859922
Three Dots Downtown,137 E Beaver Ave,State College,40.794262,-77.859436
Thunder Tats Studio,1836 Port Matilda Hwy,Philipsburg,40.895625,-78.198843
TIAA Financial Services,328 Innovation Blvd Ste 301,State College,40.831257,-77.843077
Tinkelman Michael D Optometrist,1090 Zion Rd,Bellefonte,40.91456,-77.755198
Tire Town,2045 N Atherton St,State College,40.809938,-77.908693
Titan Federal Credit Union,114 Mack Ave,Pleasant Gap,40.868719,-77.751419
Tj Maxx Center,1613 N Atherton St,State College,40.80855,-77.893951
TL Kennedy Longarm Quilting,131 N Main St,Pleasant Gap,40.868334,-77.748086
Tlc Group Investment Advisors,270 Walker Dr,State College,40.815309,-77.829865
TM Beauty Bar,107 S Spring St,Bellefonte,40.911307,-77.779624
Toftrees Family Medicine,811 Cricklewood Dr,Toftrees,40.831008,-77.886349
Toftrees Golf Resort,1 Country Club Ln,State College,40.824434,-77.900515
Tokyo Sushi & Hibachi,428 E College Ave,State College,40.798119,-77.856423
Tolan William J PHD,110 Regent Ct,State College,40.784372,-77.822577
Tom Cali Tracy Wagner McKenzie Millward RE MAX Centre Realty,1375 Martin St,Park Forest Village,40.801817,-77.886189
Tom Colone Goosehead Insurance Agent,227 Rick St,Philipsburg,40.870234,-78.210229
Tom's Appliance Service,383 E Howard St,Bellefonte,40.914832,-77.772412
Tommy's Asian Grill,432 E College Ave,State College,40.798321,-77.856184
Top Salon,135 E Beaver Ave,State College,40.794274,-77.859581
Total Health Dentistry,403 S Allen St,State College,40.791748,-77.85644
Tractor Supply Co.,965 Benner Pike,State College,40.839554,-77.79973
Trader Joe's,243 Patriot Ln,State College,40.810337,-77.90229
Traditional Automobiles,1400 W College Ave,State College,40.7826,-77.87594
Traditional Shipibo Religion Of North America,19 Holly Cir,State College,40.771056,-77.886855
Traditions of America at Liberty Hill,102 Settlers Way,Boalsburg,40.780311,-77.784068
Transfitness Personal Training Center,119 Boyd Hollow Ln,Spring Mills,40.867584,-77.567091
Transformation Counseling LLC,1221 W Whitehall Rd Ste 190,State College,40.769192,-77.864751
Transformation To a Flawless Me Med Spa,212 Kenlee Dr Ste 1,Bellefonte,40.898142,-77.786967
Transformations,212 Kenlee Dr,Bellefonte,40.898582,-77.787808
Trcziyulny Cemetery,Moose Run Road,Bellefonte,40.966162,-77.814136
Tremont Student Living,201 Vairo Blvd,State College,40.813965,-77.886461
Tressler & Fedor,133 Canyon Ln,Port Matilda,40.83898,-78.001883
Tri County Oral Facial Surgeons P C,200 W Beaver Ave Ste 100,State College,40.792154,-77.861531
Triangle Building Supplies & Services,1076 E Bishop St,Bellefonte,40.91408,-77.758117
Trinity Lutheran Church,2221 N Oak Ln,Park Forest Village,40.810312,-77.920305
Trinity United Church of Christ,355 Hublersburg Rd,Bellefonte,40.959673,-77.612099
Trinity United Methodist Church,S Front St,Philipsburg,40.894342,-78.221888
Trinity United Methodist Church,128 W Howard St,Bellefonte,40.912924,-77.779789
TriYoga Central Pennsylvania,106 N Church St,Boalsburg,40.775933,-77.792936
Troy's Philadelphia Style Hoagies,434 W Aaron Dr,State College,40.886204,-77.780678
Truck Stuff And More,2987 Benner Pike,Bellefonte,40.887682,-77.782478
Truck Stuff And More,224 N Water St,Bellefonte,40.911769,-77.780384
True Value Hardware,1076 E Bishop St,Bellefonte,40.914244,-77.758073
Trust Tech,1012 E Locust St,Philipsburg,40.902963,-78.217013
Tubbies Bedrooms & Mattress Store,2221 E College Ave,Houserville,40.822623,-77.814155
Tubbies Spa & Patio,2231 E College Ave,Houserville,40.823335,-77.814137
Tudek Butterfly Garden,400 Herman Dr,Park Forest Village,40.80194,-77.890802
Tudek Park,598 W Aaron Dr,Park Forest Village,40.803899,-77.894858
Tussey Mountain,307 Bear Meadows Rd,Boalsburg,40.768501,-77.751138
Tussey Mountain Golf Course,311 Bear Meadows Rd,Boalsburg,40.769088,-77.754272
Tussey Mountain Motors,334 Boal Ave,Boalsburg,40.776657,-77.788484
Tussey Mountain Wingfest,400 Bear Meadows Rd,Boalsburg,40.768619,-77.757027
Tussey Settlement,432 Rolling Ridge Dr Ste 3A,State College,40.785132,-77.825919
Tussey View Park,320 E Marylyn Ave,State College,40.781915,-77.842273
Tutor Doctor,137 S Pugh St Ste 1,State College,40.794555,-77.85921
Twin B Farms,1901 Halfmoon Valley Rd,Stormstown,40.795137,-78.01328
Twin Kiss Restaurant,2495 N Eagle Valley Rd,Howard,40.986909,-77.718735
Tyson's Auto & ATV Repair,551 Tracey Dale Rd,Howard,40.951884,-77.781859
U-Haul,1235 Benner Pike,State College,40.842986,-77.79649
UEC College 9,3031 Carnegie Dr,State College,40.810326,-77.926525
UEC Theatres 12,125 Premiere Dr,State College,40.840385,-77.801047
Uhring's Hearing and Balance Center,132 Abigail Ln,Port Matilda,40.81454,-77.941855
UHS (Universal Health Services Inc),132 The Meadows Dr,Centre Hall,40.810626,-77.712604
ULTA Beauty,263 Patriot Ln,State College,40.810502,-77.902622
Uncle Chen's,430 E Calder Way,State College,40.797614,-77.855159
Uncle Eli's Frame Shop,129 E Beaver Ave,State College,40.794173,-77.859701
Underground Burger & Crepe,218 E Calder Way,State College,40.795268,-77.859288
Undine Fire Company 2,133 E Bishop St,Bellefonte,40.911247,-77.776254
Uni Mart,1473 Port Matilda Hwy Rte 322,Philipsburg,40.900453,-78.209463
Uni Mart,Walton Ave,Philipsburg,40.90029,-78.209456
Uni Mart,Rr 1,Port Matilda,40.799484,-78.054186
Uni Mart,5186 W Buffalo Run Rd,Port Matilda,40.828306,-77.964676
Uni Mart,315 W Aaron Dr,Park Forest Village,40.806813,-77.892853
Uni Mart,200 E College Ave,State College,40.795257,-77.859813
Uni Mart,401 S Pugh St,State College,40.792948,-77.855906
Uni Mart,500 E College Ave,State College,40.799403,-77.854745
Uni Mart,1200 S Atherton St,State College,40.784211,-77.84759
Uni Mart,1381 E College Ave,State College,40.810378,-77.831836
Uni Mart,111 S Wilson St,Bellefonte,40.907929,-77.781533
Uni Mart,106 W College Ave,Pleasant Gap,40.867528,-77.74664
Uni Mart,280 Walnut St,Howard,41.014811,-77.661141
Uni Mart Center,3180 W College Ave,State College,40.760663,-77.877665
Uni Marts,477 E Beaver Ave,State College,40.798231,-77.854131
Union Cemetery,East Howard And East Pike Streets,Bellefonte,40.91386,-77.772851
Union Cemetery,Ridge Road,Spring Mills,40.870104,-77.61837
Union Cemetery,Canine Hill Road And State Route 45,Millheim,40.88951,-77.483594
Unionville Cemetery,State Route 504 And Mechanics Street,Julian,40.907161,-77.877485
Unitarian Fellowship Of Centre County,709 Ridge Ave,State College,40.791801,-77.878273
Unitarian Universalist Fellowship Of Centre County,780 Waupelani Ext,State College,40.771667,-77.852806
United Church of Christ and Lutheran Cemetery,West 2nd Street And West Street,Madisonburg,40.923713,-77.516718
United Ministry At The Pennsylvania State University,210 Eisenhower Chapel # 211,University Pk,40.798227,-77.859924
United Refrigeration,2929 Stewart Dr Ste 104,State College,40.830391,-77.797973
United Rentals,1005 W College Ave,State College,40.786326,-77.87295
United States Postal Service (USPS),222 E Laurel St,Philipsburg,40.896716,-78.221304
United States Postal Service (USPS),109 N High St,Port Matilda,40.800324,-78.054514
United States Postal Service (USPS),1511 W Sycamore Rd,Moshannon,41.031882,-78.003946
United States Postal Service (USPS),6890 W Whitehall Rd,Baileyville,40.705873,-77.991392
United States Postal Service (USPS),105 S Moshannon Ave,Snow Shoe,41.029201,-77.948358
United States Postal Service (USPS),4848 S Eagle Valley Rd,Julian,40.864801,-77.941071
United States Postal Service (USPS),788 Clarence Rd,Clarence,41.047614,-77.94066
United States Postal Service (USPS),237 S Fraser St,State College,40.791866,-77.860507
United States Postal Service (USPS),110 W Pine St,Boalsburg,40.776379,-77.793489
United States Postal Service (USPS),132 N Allegheny St,Bellefonte,40.913196,-77.778074
United States Postal Service (USPS),113 E Church St,Centre Hall,40.848644,-77.686456
United States Postal Service (USPS),324 Walnut St,Howard,41.014225,-77.658963
United States Postal Service (USPS),136 School St,Spring Mills,40.853078,-77.573153
United States Postal Service (USPS),4682 Brush Valley Rd Ste 1,Madisonburg,40.92271,-77.514694
United States Postal Service (USPS),101 W Main St,Millheim,40.890738,-77.476898
United States Postal Service (USPS),124 B Aly,Coburn,40.863097,-77.460637
United States Postal Service (USPS),164 S Rachels Way,Aaronsburg,40.898966,-77.452215
United States Postal Service (USPS),109 E Main St,Rebersburg,40.945034,-77.444848
United States Postal Service (USPS),107 Mountain Ave,Woodward,40.898482,-77.356173
Unity Christian Ministries,145 N Gill St,State College,40.790925,-77.868826
Unity Church of Jesus Christ,140 N Gill St,State College,40.790529,-77.868941
University Baptist & Brethren Church,411 S Burrowes St,State College,40.789605,-77.859396
University Dental Care,112 W Foster Ave Ste 201,State College,40.791893,-77.858734
University Mennonite Church,1606 Norma St,State College,40.783295,-77.841319
University Orthopedics Center,101 Regent Ct,State College,40.785366,-77.822783
University Park Airport,2493 Fox Hill Rd,State College,40.849213,-77.854608
University Park Airport SCE,2535 Fox Hill Rd,State College,40.853771,-77.848227
University Park Nursing Center,450 Waupelani Dr,State College,40.777269,-77.854094
University Park Solar,Orchard Rd.,State College,40.798206,-77.859923
University Realty Appraisal Services,126 E Foster Ave,State College,40.792823,-77.857634
Unlimited Treasures,3013 Benner Pike,Bellefonte,40.888126,-77.782546
UpGrade Tutoring,111 Sowers St Ste 504,State College,40.798227,-77.8556
UPS Customer Center,2731 Carolean Industrial Dr,State College,40.828036,-77.800008
Uptown Cheapskate,176 Rolling Ridge Dr,State College,40.786113,-77.828197
Upward Bound Program,204 E Calder Way Ste 201,State College,40.795065,-77.859606
UR Pizza,214 E Calder Way,State College,40.79512,-77.859373
Urban Outfitters,234 E College Ave,State College,40.795883,-77.859206
URBN Flavourhaus Park Place,205 Park Pl Ste 1,Bellefonte,40.914823,-77.750601
US Accounting And Tax Services,2541 E College Ave Ste 200 203,State College,40.827381,-77.808348
USA Vein Clinics,313 Logan Ave,State College,40.785176,-77.855062
Vacation Acres II,Poe Vly,Coburn,40.849615,-77.472106
Valentine Hill Road Park,Rosehill Dr & Valentine Hill Rd,Bellefonte,40.898345,-77.783928
Valero Energy,150 Nittany Valley Dr,Zion,40.918244,-77.677051
Valley Ace Fix It Workshop,224 Old 220 Rd,Bellefonte,40.944802,-77.782667
Valley Ag & Turf,2818 Earlystown Rd,Centre Hall,40.831673,-77.678217
Valley Girl Sweets,409 S Pennsylvania Ave,Centre Hall,40.839548,-77.678042
Valley Vapes,419 E Calder Way,State College,40.798105,-77.856268
Valvoline,100 Village Dr,State College,40.802277,-77.880934
Valvoline,2091 W Whitehall Rd,State College,40.760822,-77.87722
Valvoline,263 Benner Pike,State College,40.829749,-77.806684
Vaux Electronics,137 Richard St,Philipsburg,40.900218,-78.208269
VCA Animal Hospitals,1044 Benner Pike,State College,40.840281,-77.796905
Verizon Wireless,2030 N Atherton St,Park Forest Village,40.809012,-77.907748
Verost Jim Used Cars,Saint Lowr 9,Philipsburg,40.896224,-78.223103
Victorian House Antiques,107 S Allegheny St,Bellefonte,40.911797,-77.778095
Victory Sports and Fitness,178 Rolling Ridge Dr,State College,40.786127,-77.828523
Victra,2901 E College Ave Ste K8,State College,40.832543,-77.801859
VideoMining Corporation,403 S Allen St Ste 104,State College,40.791716,-77.856426
Village At Penn State Retirement Commnty,160 Lions Hill Rd,Toftrees,40.824952,-77.873396
Village At Penn State The,260 Lions Hill Rd,Toftrees,40.82391,-77.873623
Visionworks,19 Colonnade Way Ste 105,State College,40.810264,-77.905891
Viva Bella Salon,101 S Fraser St,State College,40.793452,-77.862458
VK Wealth Advisors,290 W Hamilton Ave,State College,40.786648,-77.857214
Vlad A Damian DDS,432 Rolling Ridge Dr Ste 1,State College,40.785176,-77.825904
Voodoo Brewing,201 Elmwood St,State College,40.810736,-77.828226
W E Ripka & Sons,1207 W Highland Aly,State College,40.783147,-77.872837
Waffle Shop,364 E College Ave,State College,40.797779,-77.856958
Waffle Shop,127 W Bishop St,Bellefonte,40.91074,-77.77847
Waffles & Cakes,276 W College Ave,Pleasant Gap,40.863067,-77.75314
Wagner Cemetery,551 Hunters Road,Howard,40.951881,-77.781855
Waite's Auto Body Shop,1207 Zion Rd,Bellefonte,40.915095,-77.751224
Waker Chicken,129 Locust Ln,State College,40.796146,-77.857704
Wal Mart Pharmacy 10 1640,1665 N Atherton St,State College,40.809489,-77.898347
Wal Mart Pharmacy 10 2230,373 Benner Pike,State College,40.832547,-77.808311
Walk's Service Center,827 S Atherton St,State College,40.786395,-77.854677
Walker Township Volunteer Fire Company Station 2,201 Cemetery Lane,Zion,40.912698,-77.679379
Walker Twp Community Park,816 Nittany Valley Dr,Mingoville,40.929862,-77.65431
Wallaces Kim Beauty Salon,106 W Main St,Millheim,40.891064,-77.477187
Wallpaper Barn,Rr 45,Spring Mills,40.853392,-77.567481
Walmart,1665 N Atherton St,State College,40.809724,-77.898157
Walmart,373 Benner Pike,State College,40.83244,-77.808417
Walnut Springs Park,711 Walnut Spring Ln,State College,40.803717,-77.836418
Wash World Car Wash,Rr 322,Boalsburg,40.776085,-77.793764
Wasson Insurance Agency,2440 Commercial Blvd,Houserville,40.826655,-77.810758
Watermarke Christs Church At Bellefonte,116 S Spring St,Bellefonte,40.911205,-77.779274
Watermarke Church Office,113 S Spring St Apt 2,Bellefonte,40.911223,-77.779244
Way Fruit Farm,2355 Halfmoon Valley Rd,Stormstown,40.786857,-78.027075
WC Clarke's The Cheese Shoppe,234 E Calder Way,State College,40.795481,-77.858948
Weaver Memorials,2123 E College Ave Ste 201,Houserville,40.820738,-77.816456
Weaver's Store Spring Mills,108 Market Dr,Spring Mills,40.885351,-77.494645
Webster's Bookstore Cafe,133 E Beaver Ave,State College,40.794146,-77.859563
Wegmans Food Markets,345 Colonnade Blvd,State College,40.811504,-77.908304
Weibel Reese Weyhe Team Kissinger Bigatel & Brower,1612 N Atherton St,Park Forest Village,40.807369,-77.893341
Weight Watchers,100 Dogwood Dr,North Philipsburg,40.906089,-78.204144
Weight Watchers,1621 N Atherton St,State College,40.81011,-77.894677
Weight Watchers,216 N McAllister St,Bellefonte,40.918017,-77.764608
Weikert Christine E,2505 Green Tech Dr,State College,40.814101,-77.918281
Weirdough,204 E College Ave,State College,40.795323,-77.860145
Weis Markets,501 N Centre St,Philipsburg,40.900946,-78.224999
Weis Markets,1471 Martin St,Park Forest Village,40.805133,-77.890138
Weis Markets,560 Westerly Pkwy,State College,40.781774,-77.853686
Weis Markets,110 Rolling Ridge Dr Ste 1,State College,40.785272,-77.827223
Weis Markets,170 Buckaroo Ln,Bellefonte,40.912617,-77.738941
Weis Pharmacy,501 N Centre St,Philipsburg,40.901154,-78.22483
Weis Pharmacy,1471 Martin St,Park Forest Village,40.80512,-77.890119
Weis Pharmacy,110 Rolling Ridge Dr,State College,40.785276,-77.827232
Weis Pharmacy,170 Buckaroo Ln,Bellefonte,40.912983,-77.739002
Welch Pool,670 Westerly Pkwy,State College,40.781983,-77.858621
Weldon Equipment,4729 S Eagle Valley Rd,Julian,40.865623,-77.938322
Wellness In Motion,611 University Dr,State College,40.799117,-77.846686
Wellspring Church State College,60 Decibel Rd Ste 105,State College,40.829515,-77.800087
Wendy's,1610 N Atherton St,Park Forest Village,40.807344,-77.89291
Wendy's,135 Buckaroo Ln,Bellefonte,40.914575,-77.737685
Wes & Gold,115 N Butz St,State College,40.787071,-77.872818
WESCO Distribution,2558 Park Center Blvd,State College,40.768927,-77.882168
Wesleyan Church,326 Lower Coleville Rd,Bellefonte,40.907932,-77.798146
Western Union,501 N Centre St,Philipsburg,40.900873,-78.224615
Western Union,100 N High St,Port Matilda,40.800353,-78.054425
Western Union,644 E Sycamore Rd,Snow Shoe,41.027191,-77.92579
Western Union,1536 N Atherton St,Park Forest Village,40.806588,-77.891605
Western Union,1471 Martin St,Park Forest Village,40.805092,-77.89013
Western Union,255 Northland Ctr,Park Forest Village,40.802701,-77.886998
Western Union,210 W Hamilton Ave,State College,40.78761,-77.856043
Western Union,560 Westerly Pkwy,State College,40.781689,-77.853866
Western Union,510 Westerly Pkwy,State College,40.781852,-77.852873
Western Union,1927 S Atherton St,State College,40.786384,-77.832566
Western Union,2121 S Atherton St,State College,40.785754,-77.831068
Western Union,110 Rolling Ridge Dr,State College,40.785323,-77.827372
Western Union,517 Dell St,Bellefonte,40.945575,-77.794856
Western Union,141 S Spring St,Bellefonte,40.910474,-77.77957
Western Union,821 E Bishop St,Bellefonte,40.914228,-77.763099
Western Union,170 Buckaroo Ln,Bellefonte,40.91261,-77.738959
Western Union,206 Cobblestone Rd,Zion,40.915066,-77.678314
Western Union,421 S Pennsylvania Ave,Centre Hall,40.838509,-77.678199
Westley Parkway Plaza,560 Westerly Pkwy,State College,40.782921,-77.852897
Wetzler Funeral Service,206 N Spring St,Bellefonte,40.913318,-77.779848
What A Blast,127 McAllister Aly,State College,40.795021,-77.859102
Wheatfield Nursery,1948 General Potter Hwy Rt 322,Centre Hall,40.787728,-77.711169
Where Angels Fear 2 Tread,341 Koebner Cir,Pine Grove Mills,40.739758,-77.88214
Whiskers,200 W Park Ave,State College,40.796881,-77.870856
White Building Fitness Center,White Building Shortlidge Rd,State College,40.798516,-77.859716
White Deer Run Treatment Network,220 N Front St,Philipsburg,40.897735,-78.223707
Wild On Cherry,461 E Cherry Ln,Bellefonte,40.91304,-77.77051
Wildfire Ranch Spiritual Retreat,332 Harter Rd,Spring Mills,40.841863,-77.568468
William L Welch Comm Pool,670 Westerly Pkwy,State College,40.782024,-77.858515
William Packer Family Cemetery,North Eagle Valley Road,Howard,41.021378,-77.671539
Windy Hill Village Of Presbyterian Homes,100 Dogwood Dr,North Philipsburg,40.905968,-78.203848
Windy Hill Village Of The Presby Homes,100 Dogwood Dr,North Philipsburg,40.90593,-78.203868
Windy Poplars School,251 Decker Rd,Centre Hall,40.85432,-77.638881
Wine and Cafe on the Park,325 W High St,Bellefonte,40.911795,-77.781533
Wingate El Sch,776 S Eagle Valley Rd,Wingate,40.941122,-77.810218
Winghaven Nursery,115 Bartges Rd,Coburn,40.875172,-77.447663
Wings Over,244 W Hamilton Ave,State College,40.787245,-77.856319
Wireless Made Simple,141 S Allegheny St,Bellefonte,40.910832,-77.777682
Wireless Zone,2021 S Atherton St Unit 5,State College,40.786208,-77.832161
Wiscoy For Animals,424 W Aaron Dr,Park Forest Village,40.8048,-77.894645
Witches Hollow Cidery,2022 Axemann Rd,Bellefonte,40.897863,-77.772327
Wonderland Cs,2112 Sandy Dr,State College,40.784617,-77.903148
Wonderland Preschool And Daycare,2112 Sandy Dr,State College,40.78462,-77.903162
Woodring's Floral Garden,145 S Allen St,State College,40.793753,-77.860451
Woodring's Floral Gardens,125 S Allegheny St,Bellefonte,40.911016,-77.778017
Woodside School,124 School Ln,Spring Mills,40.874044,-77.499637
Woodward Cave,State Rte 45,Woodward,40.888119,-77.387517
Woodward Crossings,178 Jackson Hill Rd,Aaronsburg,40.910506,-77.350904
Woodward Union Cemetery,Pine Valley Road And Cemetery Road,Woodward,40.900822,-77.359314
Woodycrest Park,Lauck Street,State College,40.813806,-77.900646
Workman Auto,310 W College Ave,Pleasant Gap,40.862426,-77.754131
Wyndham Garden,310 Elks Club Rd,Boalsburg,40.785004,-77.760052
XFINITY by Comcast,1801 N Atherton St,State College,40.809024,-77.90185
XFINITY by Comcast,325 E Beaver Ave,State College,40.796189,-77.856983
Y Kids,677 W Whitehall Rd,State College,40.774143,-77.854733
Y M C A,113 N 14th St,Philipsburg,40.902322,-78.212183
Yallah Taco,217 McAllister Aly,State College,40.795106,-77.859314
Yearick Cemetery,4184 Brush Valley Rd,Spring Mills,40.909011,-77.55832
Yearick Cemetery West,State Route 192 And Edgewood Lane,Spring Mills,40.90692,-77.564402
YMCA,677 W Whitehall Rd,State College,40.774136,-77.854729
YMCA,125 W High St,Bellefonte,40.912206,-77.778819
Yoga Lab,124 McAllister Aly,State College,40.794935,-77.859279
Yogurt Express,430 E College Ave,State College,40.798201,-77.856241
Young at Heart Cotons,3803 S Atherton St,State College,40.781956,-77.804312
Young Kwang Korean Presbyterian Church Chaplain,942 Galen Dr,Park Forest Village,40.805864,-77.924005
Young Scholars Of Central Pa Cs,1530 Westerly Pkwy,State College,40.776383,-77.874837
Young William E DO,4570 Penns Valley Rd,Spring Mills,40.877069,-77.526534
Young's School of Tae Kwon Do,219 W High St,Bellefonte,40.911708,-77.78039
Younkins & Associates,205 E Beaver Ave,State College,40.79472,-77.859073
Your Cigar Den,127 S Fraser St,State College,40.793332,-77.861681
Your First Page Learning & Development Center,3592 Penns Valley Rd,Spring Mills,40.848039,-77.609665
Your Furniture 4 Less,2722 Port Matilda Hwy,Philipsburg,40.877661,-78.177627
Your Furniture 4 Less,2904 Benner Pike,Bellefonte,40.885767,-77.780371
Your Gym Closet,1809 Zion Rd,Bellefonte,40.916184,-77.72729
Your Perfect Fit,101 W Main St,Boalsburg,40.775836,-77.79293
Yummy Cafe,320 E Calder Way,State College,40.796562,-77.85741
Zeigler's Packing & Crating,938 Meeks Ln,Port Matilda,40.808798,-77.953197
Zen Wings & Things,433 E Beaver Ave,State College,40.797574,-77.855117
Zeno's,100 W College Ave,State College,40.794269,-77.861605
Zerby Guy Triumph Motorcycle Sales,Rr 2,Spring Mills,40.853382,-77.56748
Zimmerman Andrew DDS,2760 Earlystown Rd,Centre Hall,40.829104,-77.682519
Zimmerman Dental Care,2760 Earlystown Rd,Centre Hall,40.829131,-77.682492
Zion Cemetery,East College Avenue And Cemetery Lane,Zion,40.911612,-77.679575
Zion Community Church Inc,3588 Penns Valley Rd,Spring Mills,40.847823,-77.609303
Zion Hill Cemetery,Church Hill Road And Tyler Road,Centre Hall,40.790761,-77.679308
Zion Lutheran Church,105 Old Boalsburg Rd,Boalsburg,40.777824,-77.793442
Zion Road Car Wash,1668 Zion Rd,Bellefonte,40.915514,-77.732772
Zion United Church,3261 Zion Rd,Zion,40.91512,-77.684432